{"type":"Topology","objects":{"districts":{"geometries":[{"properties":{"DISTRICT":"DAILEKH","STATE_CODE":6,"PR_NAME":"Karnali Province"},"type":"Polygon","arcs":[[0,-9,-4,-26]],"id":13},{"properties":{"DISTRICT":"DOLPA","STATE_CODE":6,"PR_NAME":"Karnali Province"},"type":"Polygon","arcs":[[-19,-5,-7,-16,1]],"id":20},{"properties":{"DISTRICT":"HUMLA","STATE_CODE":6,"PR_NAME":"Karnali Province"},"type":"Polygon","arcs":[[2,-14]],"id":24},{"properties":{"DISTRICT":"JAJARKOT","STATE_CODE":6,"PR_NAME":"Karnali Province"},"type":"Polygon","arcs":[[3,-8,-6,4,-18,-21,-27]],"id":26},{"properties":{"DISTRICT":"JUMLA","STATE_CODE":6,"PR_NAME":"Karnali Province"},"type":"Polygon","arcs":[[5,-11,-17,6]],"id":28},{"properties":{"DISTRICT":"KALIKOT","STATE_CODE":6,"PR_NAME":"Karnali Province"},"type":"Polygon","arcs":[[7,8,9,-12,10]],"id":31},{"properties":{"DISTRICT":"MUGU","STATE_CODE":6,"PR_NAME":"Karnali Province"},"type":"Polygon","arcs":[[11,12,13,14,15,16]],"id":43},{"properties":{"DISTRICT":"RUKUM_W","STATE_CODE":6,"PR_NAME":"Karnali Province"},"type":"Polygon","arcs":[[-22,17,18,19]],"id":60},{"properties":{"DISTRICT":"SALYAN","STATE_CODE":6,"PR_NAME":"Karnali Province"},"type":"Polygon","arcs":[[-24,20,21,22]],"id":62},{"properties":{"DISTRICT":"SURKHET","STATE_CODE":6,"PR_NAME":"Karnali Province"},"type":"Polygon","arcs":[[23,24,25,26]],"id":71}],"type":"GeometryCollection"}},"bbox":[80.98274101400006,28.168750333000048,83.68212620400004,30.44732639700004],"transform":{"scale":[2.6993878893878762e-06,2.2785783425783347e-06],"translate":[80.98274101400006,28.168750333000048]},"arcs":[[[209501,254649],[2763,453],[3035,1093],[1017,546],[2767,731],[1254,-151],[932,155],[1128,1625],[267,2579],[-513,2990],[372,1209],[-533,1911],[-331,758],[-1691,1155],[-3171,3496],[-1545,850],[-597,770],[-1303,1110],[-8,1140],[-1085,3071],[-639,1061],[260,738],[-460,2149],[-952,1069],[-990,2451],[-908,1799],[-103,843],[-2093,2599],[-219,1238],[138,1653],[-523,961],[-360,1672],[-565,1018],[-820,2357],[-1358,1289],[-560,1112],[-336,1117],[-702,728],[-374,1050],[-310,773],[-674,587],[-1300,634],[-643,899],[-806,2240],[-934,1639],[-310,2260],[-340,497],[-1991,-401],[-1948,484],[-2255,1691],[-2012,2147],[-1250,1901],[-783,2461],[-1020,1283],[-1645,2183],[-970,2508],[-582,799],[-1048,1945],[-1765,128],[-920,697],[-1252,140],[-327,1658],[-1379,1802],[-396,291],[-2024,303],[-326,618],[402,2604],[75,1444],[-131,2140],[-658,1732],[-538,87],[-1001,-1040],[-646,-408],[-1035,17],[-821,295],[-430,483],[-932,1830],[-15,680],[-703,615],[-675,62],[-792,1470],[15,958],[1005,2299],[175,1008],[-394,853],[-1183,1206],[-369,1659],[-700,1077],[-923,773],[-592,1522],[-1384,445],[-17,891],[962,85],[1456,1058],[640,1617],[-105,817],[-970,1373],[-451,1991],[174,1455],[1342,2349],[2419,215],[744,1268],[918,1580],[906,3380],[469,331],[1848,627],[1575,3330],[-8,1717],[441,1283],[1143,1076],[2258,1547],[817,993],[1399,1171],[1982,434],[802,614],[374,737],[-163,1663],[466,1059],[63,1125],[1117,896],[2402,773],[1782,793],[1364,1032],[2412,1237],[1483,320],[812,760],[1311,200],[972,-332],[1571,115],[565,393],[1241,1679],[938,254],[674,1109],[749,530],[390,1369],[923,841],[1392,176],[1081,452],[1648,84],[1958,1560],[791,910],[1687,1492],[569,1132],[1573,1371],[2199,1200],[551,469],[1690,526]],[[683987,667545],[1519,-291],[1407,241],[1343,917],[2199,-821],[754,33],[1097,-980],[2529,-540],[552,-834],[1036,-27],[2825,746],[1667,1204],[922,982],[716,371],[1740,-203],[1581,491],[472,917],[157,2126],[1356,825],[2440,478],[1766,-700],[2038,-279],[1248,971],[1182,1654],[1704,-161],[1206,-1321],[1462,-1052],[939,809],[1910,875],[382,-129],[643,-1186],[1117,-1253],[1033,-1650],[1444,-798],[565,-638],[-321,-1884],[-1058,-1222],[-139,-1510],[-1259,-3047],[2180,-389],[305,-2050],[1404,-1298],[820,-406],[758,-894],[541,-166],[2916,95],[1937,738],[152,799],[907,490],[894,138],[2026,-48],[756,402],[1226,-20],[1463,-1418],[504,-694],[1647,654],[1642,-122],[471,364],[563,1099],[931,771],[879,1244],[1264,-2556],[799,-760],[100,-1953],[1777,-613],[846,-717],[-225,-1464],[196,-1517],[1061,-163],[2090,931],[1452,784],[1468,-2052],[501,-1196],[30,-1236],[366,-378],[650,-2287],[236,-2279],[415,-830],[2546,-439],[1614,-1363],[906,-27],[1880,345],[1318,-695],[231,-3209],[-289,-1024],[857,-924],[556,-1313],[8,-530],[3491,-972],[1199,-560],[770,-1268],[804,-360],[1937,1382],[-730,1128],[60,1352],[1236,477],[830,29],[2219,758],[513,1010],[1032,739],[1172,-665],[809,27],[1208,-362],[919,139],[145,2234],[-19,1428],[232,551],[1041,1109],[844,-540],[887,-1469],[923,-1042],[876,-657],[587,-965],[733,1133],[868,877],[2344,1032],[1312,-1005],[1518,574],[1545,-716],[1400,-974],[1582,-714],[950,-645],[269,-535],[-509,-1005],[-110,-1901],[-638,-917],[-716,-1738],[125,-643],[-466,-1507],[13,-724],[569,-69],[1270,-862],[954,562],[757,4],[2523,-1474],[935,-10],[1746,804],[1750,1046],[408,435],[135,1476],[-262,1007],[-657,1104],[704,1341],[1166,-151],[646,685],[1381,538],[920,-2157],[1401,525],[1653,-115],[2016,-643],[1862,-86],[25,-1733],[-661,-1701],[164,-1164],[-132,-778],[-701,-1743],[385,-368],[3180,-1820],[1988,-1244],[570,-506],[370,-1073],[3051,-106],[675,274],[1657,-668],[1609,362],[3010,-125],[678,159],[105,-1426],[295,-487],[1595,-1009],[543,-618],[1110,-706],[866,42],[1813,395],[2255,-2664],[-465,-794],[-277,-1564],[-981,195],[-1557,-1064],[-395,-446],[-1625,864],[-956,101],[-671,-649],[-544,-109],[-763,596],[-1058,387],[-986,113],[-237,-1011],[1177,-1766],[-79,-380],[-1620,-2478],[746,-1486],[-50,-917],[1265,-634],[589,-564],[1017,-1523],[431,-1851],[96,-1303],[1301,-1604],[-286,-1270],[364,-820],[-865,-1726],[573,-810],[92,-968],[428,-573],[659,-59],[603,-597],[658,-1541],[1187,-681],[1519,-1224],[2048,917],[774,603],[861,269],[498,674],[3347,-2012],[830,710],[847,170],[1029,538],[685,1469],[504,568],[1078,568],[985,-957],[684,-945],[2019,-552],[1311,112],[1025,-1573],[1708,-961],[1768,-685],[1427,-863],[717,-994],[-677,-1216],[593,-897],[331,-1072],[-230,-2132],[138,-585],[-679,-858],[-1384,-785],[536,-809],[191,-2130],[-633,-1007],[1080,-837],[1336,-1704],[1033,-597],[711,-3119],[528,-323],[1058,-28],[1515,461],[1578,-780],[-248,-902],[-929,-991],[557,-2800],[528,-364],[1762,-1824],[259,-2558],[1906,-419],[562,-456],[756,-1307],[376,-172],[1483,54],[931,-384],[1253,187],[998,-401],[1137,-203],[2914,410],[1221,-109],[729,-328],[1236,164],[530,-665],[547,-4456],[737,-704],[738,-1180],[1705,-804],[501,-596],[-2093,-2273],[314,-2530],[497,-862],[352,-1229],[-342,-995],[-590,-595],[-2099,-945],[-1307,-349],[699,-1268],[630,-623],[7,-1509],[-180,-913],[-675,-1495],[1358,-980],[13,-1497],[-649,-1072],[800,-1214],[1929,160],[482,-247],[1232,-1480],[576,-1274],[845,-77],[2202,376],[779,-424],[524,-735],[1659,-3260],[-203,-843],[-611,-926],[36,-627],[1127,-1759],[261,-811],[-765,-1513],[-427,-1982],[-1462,-1853],[-98,-586],[329,-1125],[-674,-1710],[646,-537],[1416,-428],[275,-1374],[-386,-1204],[86,-551],[1728,-223],[1190,-982],[-414,-1163],[254,-520],[1019,-396],[685,-618],[-385,-1424],[142,-551],[1817,-107],[155,-928],[657,-682],[134,-2496],[1593,-1338],[1431,29],[618,502],[793,1437],[1588,1227],[2555,-255],[778,-311],[-279,-1341],[213,-301],[1617,-336],[597,-1019],[-290,-1666],[-666,-1112],[70,-569],[965,-1070],[1079,-42],[1295,-1088],[759,-214],[450,-518],[109,-1091],[745,-143],[985,524],[1469,-630],[897,120],[-249,-860],[196,-1126],[832,-2002],[964,-735],[-725,-1725],[79,-243],[1707,-588],[152,-430],[-493,-1275],[-1326,-1067],[-523,-669],[-493,-1487],[1121,-593],[-229,-2295],[499,-1291],[498,-589],[961,-178],[1595,-711],[1228,-768],[135,-358],[-274,-1290],[313,-590],[1221,-778],[676,-1174],[1614,-656],[1866,-351],[877,-32],[855,-517],[842,-67],[484,446],[669,1256],[1706,204],[1147,701],[800,-790],[2482,-768],[74,-1461],[-1044,-1075],[-56,-1441],[245,-1312],[1711,-707],[552,-639],[313,-1212],[-7,-869],[-339,-905],[953,-791],[3724,-1886],[584,-140],[2213,332],[3062,1385],[1141,1298],[1230,-248],[933,-2059],[400,-439],[116,-1515],[1884,-696],[1112,-638],[401,-686],[1034,-547],[100,-814],[983,-1361],[1400,-915],[1958,976],[712,-2],[1197,1004],[225,521],[-174,1263],[802,786],[1124,-204],[1174,1403],[954,539],[308,1012],[614,451],[1879,-1163],[1179,-1329],[37,-713],[-1337,-1601],[322,-704],[-191,-1510],[304,-1937],[3505,-1428],[1122,-1529],[247,-750],[-473,-860],[220,-1353],[-90,-1526],[-223,-747],[1384,-1831],[379,-1033],[-316,-2397],[448,-661],[-1297,120],[-1563,-253],[-1761,43],[-1858,621],[-863,-139],[-695,-729],[-1238,-423],[-1241,-1011],[-407,-2095],[109,-1040],[623,-1383],[-277,-1161],[-701,-919],[-1375,-157],[-3660,1420],[-2243,-168],[-551,-202],[-1068,-1637],[-1280,-932],[-675,-1253],[-1555,287],[-433,-469],[-98,-1349],[415,-755],[1560,-1336],[1147,-560],[1385,-1611],[258,-904],[1068,-671],[121,-402],[-350,-1788],[-219,-1953],[657,-2246],[74,-1522],[-177,-240],[-1641,0],[-2291,-859],[-385,-599],[-441,-1747],[253,-1821],[51,-2293],[-429,-879],[-636,-1485],[-1303,-1880],[12,-976],[859,-2023],[136,-1213],[-447,-1820],[882,-1685],[-418,-785],[-1179,-731],[772,-2291],[1000,-1609],[-938,-3626],[299,-807],[116,-1521],[-198,-2158],[-1783,-2084],[-427,-1198],[-1243,-119],[-532,165],[-519,980],[-1193,1303],[-416,103],[-1877,-609],[-514,-318],[-642,-1148],[-486,-140],[-893,-2133],[246,-798],[-62,-1204],[-616,-1576],[-1408,-1208],[356,-1607],[-384,-1354],[-972,-1366],[-1507,-523],[-1009,-2281],[-1068,-1675],[-854,-677],[-1997,853],[-1083,-194],[-532,-1048],[238,-2022],[-506,-1814],[-783,-1094],[-611,-399],[-1207,-1503],[-1212,-2219],[-1710,-1740],[-639,-1286],[-915,-607],[-732,-956],[-964,-789],[-1560,-412],[-495,-2276],[-715,-657],[-517,-1212],[-1315,-1275],[-1218,-1629],[-703,-1156],[-885,-660],[-893,-366],[-1323,-1008],[-1102,-1280],[-687,-1376],[-938,-901],[644,-1761],[687,-699],[1017,-2535],[-70,-1285],[257,-2294],[-512,-1348],[-1074,-1275],[-223,-990],[139,-1449],[-1433,-1554],[-715,359],[-1286,1270],[-842,110],[-2191,-365],[-1012,-466],[-192,-1176],[93,-793],[-390,-1059],[122,-744],[977,-1081],[91,-727],[-300,-1073],[-1122,-2343],[147,-3084],[1863,-2168],[135,-1809],[778,-1677],[178,-1509],[-173,-1481],[-316,-620],[62,-2365],[-660,-1076],[-479,-1249],[-144,-1108],[-2056,-382],[-2851,-93],[-2246,-705],[-1100,-35],[-895,-1687],[-915,-1087],[-901,-671],[-1606,-605],[-1271,-850],[-1664,316],[-1919,-376],[-2615,-1013],[-879,-67],[-1884,-870],[-1035,-304],[-2023,-920],[-1194,-402],[-2655,150],[-1109,-100],[-3001,855],[-1359,163],[-496,-519],[-1413,-2378],[-2112,-1088],[-361,-2148],[-310,-1052],[-557,-959],[-1507,-1395],[-1123,-849],[-1182,-1162],[-756,-1143],[-2134,-213],[-2053,977],[-1774,-124],[-2733,462],[-396,206],[-2299,463],[-2423,-199],[-1729,-704],[-1904,-24],[-923,-317],[-520,-571],[-1033,-633],[-3599,-302],[-1659,-913],[-1912,-687],[-2550,-1139],[-1300,-982],[-581,-655],[-966,837],[-1399,579],[-2437,534],[-1691,-79],[-1383,419],[-1171,677],[-1674,733],[-1187,1005],[-1992,975],[-818,2058],[-1227,738],[-1708,700],[-909,-142],[-1603,-1029],[-1595,-2201],[-945,-644],[-2144,-767],[-1286,277],[-1386,637],[-1386,906],[-456,681],[-882,331],[-705,656],[-1241,645],[-1413,986],[-1166,169],[-1461,-51],[-2013,180],[-1028,277],[-1455,79],[-1379,586],[-1480,181],[-1932,412],[-1524,37],[-1492,-295],[-191,-36],[-1444,-340],[-1394,637],[-2001,96],[-807,-631],[-928,-289],[-991,26],[-1328,-217],[-744,-483],[-1625,-527],[-589,225],[-329,1347],[-677,608],[-980,491],[-2054,1901],[68,1126],[-142,1696],[-1313,2176],[-218,711],[-1134,475],[-1404,1921],[-1476,1459],[-918,1132],[-1160,662],[-474,806],[-452,2120],[-1336,-436],[-1821,-1246],[-614,-903],[-1415,1562],[-2705,863],[-2043,22],[-1615,437],[-917,-130],[-1156,844],[-1457,1298],[-918,590],[-1548,220],[-2380,-397],[-991,-691],[-979,646],[-2904,2940],[-1380,393],[-1072,-151],[-2224,1245],[-864,679],[-818,-113],[-1646,-850],[-1419,379],[-2030,-854],[-1293,583],[-819,725],[-229,1640],[-501,864],[-1369,998],[-701,1836],[-846,380],[-46,1657],[-2171,-210],[-1200,455],[-1475,1095],[-663,107],[-457,1768],[-1011,565],[-1278,-723],[-909,-88],[-1393,359],[-543,-261],[-2070,-141],[-1550,222],[-787,540],[-2345,1150],[-2691,-166],[-569,330],[-1444,238],[-411,-1217],[-1242,-290],[-855,-1509],[-912,-274],[-1217,820],[-1568,-385],[-1530,516],[-1640,1499],[-1008,251],[-1366,75],[-1827,1285],[-989,-144],[-588,-817],[-2375,281],[-1102,-145],[-1340,-1367],[-1434,-927],[-1594,-201],[-716,316],[-410,909],[-1123,904],[-683,70],[-780,-582],[-1442,201],[-2253,-45],[-943,-284],[-1166,613],[-1169,-1139],[-1748,-1077],[-996,-468],[-835,-892],[-577,-88],[-1258,-1007],[-938,382],[-1283,-725],[-536,562],[-1693,269],[-1545,1006],[-627,16],[-1186,-1984],[-1034,-668],[-1649,-1557],[-1322,-2088],[-606,-521],[-830,2224],[-1278,1078],[-265,1636],[-969,564],[-764,1975],[-616,942],[-1362,1192],[-1017,2223],[-75,721],[-1020,1606],[-201,1494],[-513,698],[-1282,91],[-819,853],[-2571,-116],[-1022,-610],[-700,749],[-294,753],[-1687,17],[-2617,761],[-1469,1110],[-1285,253],[-912,1411],[-736,709],[-129,702],[-1075,818],[-485,783]],[[293712,630677],[-1299,294],[-1323,-205],[-1554,53],[-753,-407],[-1828,340],[-1875,-472],[-2598,511],[-1821,62],[-1319,673],[-626,1236],[-858,839],[-755,432],[-369,667],[-1812,141],[-1013,642],[39,1658],[-516,341],[-760,-413],[-440,212],[-1115,2012],[-870,383],[-344,2643],[-1095,1316],[-1372,814],[239,1527],[-323,567],[-953,549],[1314,645],[-1211,1227],[510,837],[-81,954],[238,524],[-71,1709],[-819,1990],[-251,2135],[21,1896],[-213,1441],[-444,1154],[1,1807],[419,1010],[1499,2046],[654,1792],[-72,834],[755,1167],[952,1870],[-41,1152],[290,405],[151,1151],[389,880],[-284,637],[599,692],[334,1178],[20,1708],[369,802],[43,823],[467,970],[1140,1124],[679,1177],[1182,201],[647,591],[611,949],[332,1031],[-477,469],[374,1447],[441,751],[-675,1067],[116,1727],[450,1232],[1232,1928],[177,1236],[341,420],[-514,1566],[-355,1817],[-76,1132],[430,826],[601,355],[935,1547],[588,1854],[-141,536],[198,1658],[1115,2049],[-164,1394],[567,82],[1119,662],[880,189],[544,631],[1158,860],[886,233],[612,-760],[1061,262],[1443,1024],[891,909],[954,-606],[884,-187],[677,-664],[870,-155],[1386,1756],[425,1453],[673,702],[121,1524],[-553,1690],[1330,3450],[-198,841],[421,2790],[-79,2599],[-218,677],[-668,570],[1327,842],[1786,927],[209,517],[889,890],[764,1021],[-129,722],[-845,1241],[497,1054],[36,950],[832,1106],[-247,845],[531,1683],[254,304],[-149,1068],[143,1379],[-52,2093],[242,703],[-443,1544],[264,1700],[-295,1421],[152,443],[-941,2513],[715,349],[1039,-192],[252,2267],[-1956,1693],[-1051,544],[-898,1249],[-1150,322],[-1089,-789],[-637,264],[-350,834],[-1716,59],[-942,-618],[-1271,-116],[-2174,670],[-632,586],[-1274,-573],[-549,-683],[-1062,-492],[-1118,289],[-1038,-433],[-1256,166],[-811,-503],[-1611,453],[-1599,-253],[-560,322],[-409,1014],[-1633,648],[-1975,-302],[-1763,-685],[-231,-293],[-2011,2169],[-59,1430],[-274,985],[-121,1531],[122,1336],[-380,489],[-873,205],[-2760,1200],[-582,367],[7,1094],[555,2060],[-394,1229],[-405,520],[-1627,1228],[-1887,1673],[-752,-266],[-2119,-1505],[-1554,-667],[-1742,-1334],[-1216,133],[-767,-301],[-1356,474],[-1616,888],[-1124,-295],[-977,399],[-1268,1391],[-725,512],[-1425,-200],[-2032,-1208],[-280,-914],[-653,-815],[-1488,-394],[-1411,-685],[-1914,482],[-792,-461],[-692,278],[-1686,1836],[-560,-845],[-870,-611],[-1126,-1175],[-308,-2084],[-939,-1024],[-2287,521],[-1921,-327],[-1057,1308],[-590,1046],[-714,392],[-1550,-307],[-1138,-983],[-1354,256],[-1398,-454],[-1073,-859],[-702,-89],[-782,-589],[-896,-1321],[-488,-366],[-1431,449],[-1372,-935],[-649,-645],[-916,31],[-2056,1527],[-2072,-116],[-642,330],[-1694,-923],[-751,-606],[-1044,-58],[-859,-322],[-2474,-352],[-1634,-2528],[552,-2208],[543,-1096],[3,-764],[683,-655],[-65,-850],[-1825,-1341],[-1475,-1551],[-823,-1307],[-659,-716],[-1491,-739],[-872,-142],[-963,-532],[-781,-1048],[-1453,402],[-1672,1032],[-506,504],[-1512,154],[-1070,-629],[-1955,-294],[-2294,1557],[-1702,1754],[-1155,1391],[-182,1097],[628,2040],[1039,1464],[324,1006],[-596,1878],[237,626],[731,753],[-802,1262],[-162,909],[56,1748],[-514,1082],[-1501,1151],[342,1014],[891,1671],[183,773],[-739,1320],[-1384,1489],[-42,936],[1156,1176],[1883,1692],[1158,100],[1051,1235],[653,1296],[-205,1803],[59,1498],[703,851],[-52,858],[-680,778],[-1103,1767],[-620,365],[-1055,1732],[-12,524],[892,3222],[22,585],[-1252,1209],[-1171,1350],[-778,459],[-1600,100],[-870,-108],[-1227,262],[-809,606],[-771,1121],[-2454,569],[-1257,-287],[-1599,905],[-423,449],[-1274,423],[-981,635],[-2118,2064],[-131,370],[-2895,453],[-1021,679],[-271,711],[-663,-2073],[-1958,-430],[-1494,-106],[-2337,-1445],[-370,-1392],[-71,-1018],[-291,-388],[-1976,-329],[-371,1202],[-680,406],[-1191,-182],[-913,539],[-1197,-492],[-860,-109],[-2038,430],[-2712,2710],[-1211,903],[-2110,693],[-1188,678],[-1256,364],[-887,610],[-2526,231],[-721,421],[-1179,-133],[-508,177],[-381,1177],[-868,1728],[-456,250],[-1460,-12],[-646,-597],[-717,-168],[-1216,404],[-992,562],[-784,93],[-1516,557],[-1120,76],[-998,700],[-1365,424],[-799,1204],[-314,1323],[-1762,421],[-1027,-3],[-804,443],[-194,2727],[1025,1383],[149,1941],[1448,711],[-71,704],[524,1654],[2111,1034],[757,619],[118,1474],[642,603],[-663,513],[-656,1201],[1110,2130],[-673,2197],[513,1153],[250,1688],[-231,1667],[-1143,1972],[-107,907],[1136,723],[97,1298],[710,1098],[-1125,657],[-1025,1217],[-428,986],[-358,1865],[-1421,751],[-780,1207],[-906,893],[-555,1035],[-98,644],[-2926,1240],[-685,645],[-572,1128],[-908,1179],[-549,386],[-334,1221],[681,2089],[959,283],[1536,85],[842,521],[1144,206],[928,641],[571,-299],[3587,68],[1333,183],[1218,1114],[2093,401],[937,-46],[2018,494],[-335,1574],[498,466],[606,-56],[1078,-1488],[44,-1739],[767,-733],[1914,-1380],[598,-46],[885,421],[1728,-104],[2482,279],[252,488],[82,1435],[396,1230],[1442,1674],[1218,1112],[1717,2327],[525,564],[1224,2064],[2443,1082],[668,1020],[1821,593],[2333,1059],[271,1985],[910,1306],[273,966],[477,477],[829,140],[1695,1303],[3447,2172],[1292,440],[514,1043],[-446,2339],[639,1773],[-967,2589],[-191,1232],[-623,535],[-475,987],[-220,1381],[1152,1799],[749,921],[375,824],[-226,1854],[-226,512],[-1187,1483],[1205,380],[511,754],[1257,1187],[738,333],[1245,1266],[1249,934],[99,890],[614,2059],[804,938],[850,2056],[47,1135],[496,1731],[-504,1082],[-2011,-452],[-897,49],[-1081,-682],[-979,91],[552,1192],[78,679],[-642,2190],[88,953],[1098,430],[1236,-12],[734,345],[435,1052],[1481,1368],[535,905],[2063,706],[287,393],[-1247,1452],[-204,1154],[-635,1049],[-1082,1312],[-2235,68],[-1228,-203],[-1004,1345],[-1734,1550],[-513,210],[622,1253],[297,1331],[2458,3222],[42,1201],[-691,830],[-525,1135],[294,1600],[915,2831],[-2302,1589],[153,2781],[-136,508],[-1465,1121],[9,735],[628,680],[1088,221],[746,-334],[1904,419],[959,-130],[769,398],[815,-454],[2127,-137],[476,444],[356,886],[99,1180],[818,744],[321,898],[1307,1303],[-348,649],[-806,-184],[-2008,578],[-3,1270],[-463,439],[-1040,-130],[-888,718],[-850,1311],[-1055,-92],[-872,953],[-1956,18],[-395,631],[126,608],[974,1298],[564,1534],[-136,1191],[-420,337],[-150,886],[488,762],[855,807],[169,641],[-369,1230],[836,1337],[2049,-419],[1482,105],[1224,-85],[1769,141],[654,544],[836,-1466],[856,-784],[-46,-989],[411,-647],[993,9],[747,1969],[486,416],[1376,-914],[885,-318],[669,-1004],[1802,-794],[777,-1029],[480,-1041],[804,-397],[1286,-146],[1640,-541],[1101,-786],[1104,-1505],[447,-2059],[900,-1584],[254,-787],[551,-439],[1668,-860],[2260,-1815],[604,-328],[1177,-60],[895,562],[593,-10],[1556,-582],[1162,9],[3089,-690],[2611,-1053],[2402,-1251],[2754,-1103],[1653,-318],[798,33],[2453,473],[581,-155],[1129,-833],[606,155],[683,802],[378,837],[-167,553],[-1586,1340],[-406,1172],[-40,1604],[366,3340],[-95,1032],[73,2923],[165,1178],[338,726],[753,549],[1950,191],[99,212],[-663,3583],[38,1550],[259,1824],[878,1973],[1390,738],[522,-348],[3030,-1039],[1222,-894],[1439,-379],[1407,-1301],[823,-1327],[2327,-1094],[1888,-490],[1311,-34],[1003,-680],[634,-156],[1856,941],[573,658],[1280,2227],[914,435],[731,645],[278,1016],[-583,1507],[-531,2024],[-132,1533],[-479,2226],[212,1592],[824,602],[1905,-601],[1140,-26],[2266,-427],[1880,-1938],[2595,-305],[1137,-1071],[2154,-1450],[2038,-630],[1285,-885],[1232,-163],[1699,-1140],[1598,-386],[1831,-55],[1879,-495],[962,9],[2209,-825],[1537,-1688],[981,-654],[1701,-514],[1468,-1464],[1410,-867],[1746,-137],[1922,163],[952,-234],[895,-931],[202,-2049],[-163,-1025],[866,-1716],[1155,-446],[977,-630],[651,-1050],[2035,-150],[655,-412],[631,-1067],[1095,-420],[1984,-83],[2117,220],[835,-654],[1444,-316],[2114,-1108],[1759,439],[1515,33],[834,523],[1380,535],[694,504],[2066,-705],[2954,-481],[1675,430],[1036,-1358],[1227,-139],[736,-893],[167,-686],[1052,-1067],[2064,-1178],[1384,280],[777,-376],[1217,325],[727,-26],[1239,421],[961,-692],[998,-444],[1635,-369],[-32,1374],[724,923],[787,433],[1214,-131],[1833,-775],[2098,5],[1270,-841],[679,-1301],[1604,-1015],[516,-716],[-4,-1451],[1269,-1921],[803,-178],[1514,210],[1363,-1497],[1323,-275],[1896,-1080],[1300,-482],[1949,176],[818,-1059],[904,-512],[724,-57],[1071,511],[490,-93],[1129,-861],[1427,30],[2154,-523],[2232,-159],[2045,926],[549,3333],[1196,778],[668,-1041],[1617,-1304],[1656,-159],[828,-1079],[116,-1624],[-502,-997],[-1331,-1057],[-220,-598],[2413,-940],[2123,-469],[1563,-2195],[209,-915],[984,-388],[2123,-215],[472,-1010],[1124,-668],[282,-1154],[-33,-812],[490,-132],[1880,650],[705,-709],[916,20],[2190,3270],[1547,775],[1371,30],[273,1129],[-417,1988],[-54,2444],[1710,642],[1936,158],[560,-931],[1643,-936],[1235,-1129],[704,41],[2308,1450],[1017,-59],[864,-436],[2317,-1487],[2238,-1281],[230,1503],[-17,1356],[969,652],[162,1364],[2110,1130],[-324,1623],[543,1923],[670,687],[698,-306],[1408,1085],[3063,517],[1354,-309],[1590,-1590],[117,-740],[586,-988],[1136,-738],[757,-111],[960,-448],[642,378],[1471,19],[1493,-1312],[867,-1330],[-359,-2091],[68,-1083],[547,-1825],[729,-1360],[947,-268],[802,-701],[863,-2204],[-1135,-855],[767,-406],[1038,-3879],[450,-564],[507,-1544],[1071,-1338],[-1051,-186],[-1280,-1266],[-285,-557],[-1407,-1113],[-474,-595],[661,-1133],[-575,-2246],[-862,-692],[-133,-1553],[-471,-1110],[-954,-464],[137,-721],[1273,-245],[917,-1203],[397,-1385],[-657,-2226],[1062,-973],[48,-1104],[-487,-827],[-1616,-245],[-1290,-475],[-811,-594],[138,-1245],[-1040,-1461],[222,-1575],[-1003,-1278],[-778,-379],[-759,-771],[732,-1510],[2090,-1802],[909,-1458],[341,-1075],[1243,-515],[1597,253],[1187,23],[511,231],[1804,145],[415,-357],[222,-875],[923,-593],[996,-1795],[-335,-907],[-510,-609],[430,-758],[199,-1507],[-70,-1085],[2628,-2014],[-606,-785],[383,-744],[1013,-598],[2214,-914],[671,-480],[943,-81],[328,-990],[776,-582],[543,96],[784,-674],[1418,20],[2426,465],[3619,905],[1052,-486],[1004,-223],[942,-2193],[-1026,-2099],[15,-1114],[779,-965],[3,-1834],[-354,-1082],[-1329,-1476],[-158,-790],[380,-1685],[3623,-264],[655,-227],[472,-744],[1333,-239],[1349,-655],[1116,-854],[-65,-793],[-1848,-3163],[-840,-678],[-442,-1878],[155,-1013],[-1011,-573],[-1282,-241],[-1532,-489],[-698,-846],[-1186,-334],[-899,-711],[-500,-988],[-466,-2176],[-581,-349],[-1650,232],[74,-1263],[270,-661],[1756,194],[1028,-366],[784,-1144],[1873,-1540],[-576,-306],[-1369,-1949],[-619,-1507],[-168,-1011],[324,-960],[623,-606],[-1675,-3384],[-507,-558],[-902,-438],[-961,63],[-815,-371],[-174,-654],[-780,-1284],[182,-1495],[-73,-910],[777,-923],[96,-878],[534,-1094],[315,-1257],[385,-611],[2475,919],[1379,-25],[1833,753],[310,323],[1033,-300],[2569,-448],[615,-521],[691,-37],[759,391],[1246,-71],[1642,-577],[1094,697],[1230,44],[547,235],[911,-169],[785,-649],[1759,-189],[1175,-494],[691,1924],[2039,1134],[1144,1162],[808,367],[1951,-410],[636,-569],[542,-1033],[25,-1159],[801,425],[678,-490],[804,-1288],[1199,-306],[1472,-1025],[1327,119],[766,-155],[784,304],[1834,45],[1602,-1419],[-26,-1602],[502,-764],[433,-1218],[-75,-1815],[702,-472],[871,-1247],[2850,-1350],[523,-1037],[806,500],[1610,-697],[2217,203],[532,506],[1170,564],[1075,1381],[57,1927],[737,717],[1922,-676],[397,-382],[969,287],[1673,-370],[1350,-2558],[1252,-789],[916,-1081],[194,-864],[51,-2169],[188,-455],[1089,-748],[770,-1047],[662,602],[1173,-190],[872,-1087],[960,-853],[131,-854],[681,-883],[128,-1734],[285,-1299],[565,242],[1389,1180],[1765,853],[868,-1414],[789,-516],[-141,1517],[-525,925],[710,1595],[-606,1279],[-35,1334],[1986,454],[561,-456],[335,-1369],[1347,-1216],[1312,1510],[746,299],[972,-266],[893,-601],[801,-1292],[347,-1566],[564,-679],[526,431],[984,-156],[765,-1847],[609,-482],[1573,-564],[819,-1314],[1473,-617],[365,-1843],[726,-1840],[2285,-1941],[848,-1043],[1051,317],[611,-720],[811,162],[498,-769],[1359,-517],[1131,-1492],[641,-134],[2026,-1063],[818,-1094],[388,1313],[1630,377],[546,568],[666,-1443],[1941,-1181],[1279,-421],[911,-648],[439,-1558],[-83,-476],[-1205,-1643],[998,-1064],[766,-374],[924,-1280],[1781,-859],[913,-1678],[493,-394],[1859,-661],[1068,-1552]],[[310857,243680],[1606,3753],[1457,1398],[1073,1211],[1841,913],[1521,-156],[767,-809],[873,38],[1253,-262],[1106,198],[262,396],[1922,730],[1230,-531],[925,1120],[2088,1033],[1894,449],[626,415],[851,-373],[998,547],[554,1168],[90,2531],[535,2588],[2138,1669],[1725,1748],[2155,1285],[1297,584],[554,778],[1538,834],[1291,1278],[-77,964],[-709,1115],[-665,1756],[-1042,1072],[-378,923],[-747,783],[-1385,2201],[-1462,1246],[-642,991],[-1391,2745],[-369,1151],[-2,1022],[-459,2350],[-35,1006],[-338,898],[38,1123],[-895,1531],[-1014,2035],[-392,1898],[-176,1788],[-425,1646],[594,2790],[-93,688],[136,2030],[-125,705],[412,1146],[1340,1021],[839,1693],[1101,1062],[-681,1816],[10,874],[736,1590],[-233,2521],[696,1866],[560,646],[477,2305],[894,412],[1589,1103],[236,779],[747,533],[645,2017],[562,251],[1333,1423],[1039,373],[1417,1371],[1408,508],[1106,1044],[359,771],[370,2324],[311,771],[183,1749],[-307,1098],[-779,726],[-914,345],[-236,1134],[243,2966],[24,1678],[-413,1196],[-37,871],[252,1841],[-687,2838],[515,911],[-119,1236],[-290,729],[109,783]],[[530111,406719],[-396,-2243],[-877,-1464],[120,-2323],[-544,-1430],[-624,-663],[-572,-1184],[-159,-1068],[376,-493],[46,-1162],[-429,-1552],[458,-1755],[614,-1384],[-110,-458],[-72,-2623],[-189,-1790],[-596,-1467],[-57,-1050],[-831,-372],[-904,-849],[-18,-3558],[-432,-1691],[-1831,-2701],[-250,-871],[336,-318],[1080,-1867],[174,-2252],[320,-1404],[541,-673],[2237,396],[1178,-51],[1284,335],[1744,-512],[1203,-823],[1762,-657],[1364,-231],[699,-1147],[1790,-1802],[793,-244],[1119,-759],[776,-22],[2238,333],[637,562],[1724,-1103],[1661,115],[911,531],[1619,2141],[848,1951],[-5,934],[933,56],[2411,906],[1057,745],[371,698],[-90,1084],[392,838],[1279,991],[1928,591],[2086,74],[840,-570],[530,239],[2596,69],[1390,-371],[2462,-1092],[1216,165],[1503,688],[790,-654],[756,-298],[2634,-399],[1035,-500],[322,-418],[2843,-2137],[765,-162],[1254,375],[1109,-665],[1564,-518],[2094,-1132],[2437,-928],[2218,-1654],[896,-1444],[-652,-229]],[[530111,406719],[-2916,1437],[-1805,1033],[-533,552],[-770,-316],[-1157,310],[-1632,1527],[-724,92],[-2631,833],[-2324,1064],[-1625,-84],[-563,126],[-563,615],[-1927,1047],[-1763,-64],[-129,694],[-1438,400],[-2240,-115],[-819,-768],[-1870,267],[-980,-600],[-2051,-955],[-2389,-738],[-2054,382],[-923,814],[-235,540],[-1425,621],[-441,455],[-1017,346],[-1329,870],[-1016,220],[-3748,-1142],[-1250,-118],[-463,-409],[-474,1827],[-9,664],[-525,1303],[-1757,1291],[-1989,-1862],[-1368,-572],[-1715,-229],[252,-2755],[1111,-953],[-2283,-2397],[-2932,1053],[-2884,-2424],[-1851,-582],[-1350,-732],[-1040,156],[-860,1358],[-1200,374],[-1404,-443],[26,-2515],[-653,-2246],[-874,-712],[-459,-766],[-1979,-628],[-1247,-854],[-1607,680],[-907,732],[-549,-549],[-816,-39],[-7,-710],[377,-2195],[537,-776],[-1427,-2092],[-532,-1211],[-1309,-142],[-1289,-1094],[-542,-1054],[-630,-560],[-1537,-453],[-249,-623],[-1005,-1013],[-1154,1469],[-1583,197],[-457,546],[-284,1159],[-1129,-29],[-371,-328],[-46,-1606],[-1535,-1682],[-1400,-967],[-711,-1307],[-162,-929],[-704,-541],[-1445,78],[-171,-1273],[-951,-769],[341,-909],[-95,-981],[313,-1189],[-516,-225],[-391,-1156],[-194,-1758],[117,-639],[-849,-387],[-1410,-101],[-746,148],[-340,-979],[-1840,-900],[-1004,-1928],[-604,-428],[-776,-2466],[-433,-507],[-1639,323],[-722,-708],[45,-1077],[-504,-1607],[22,-595],[881,-1706],[670,-2317],[730,-1008],[-744,-784],[-819,-184],[-709,185],[-1458,-1080],[-1774,-562],[-1358,-1051],[-448,-901],[-1369,-511],[-320,-577],[-702,-323],[-348,-1912],[-675,-1125],[217,-455],[-2034,-4],[-1897,-472],[-1202,-669],[-1156,-1068],[-826,159],[-1593,790],[-577,807],[-1007,533],[-1698,40],[-818,893],[-1093,786],[-900,117],[-2076,871],[-337,356],[-1029,2111],[-1157,1290],[50,701],[505,1240],[-89,932],[-469,326],[-480,1195],[332,329],[690,1485],[-1279,1287],[10,697],[-588,807],[-243,1180],[-1032,590],[-937,1215],[-1020,659],[-948,216],[-693,882],[-2114,621],[-1519,683],[-567,1461],[-1212,1177]],[[584448,545378],[-408,-3360],[-1273,-2697],[-302,-1076],[-150,-2683],[-743,-1946],[-958,-1856],[691,-1754],[2653,-1251],[24,-516],[879,-1133],[240,-733],[641,-497],[2226,-651],[113,-1878],[602,-1164],[724,-914],[-368,-853],[-72,-3950],[1067,-1205],[299,-635],[313,-1859],[2452,-404],[328,-1178],[869,-1316],[629,-444],[1393,-1407],[-145,-964],[404,-4412],[-431,-989],[-409,-2642],[661,-1204],[-1166,-1275],[-1378,-777],[-1235,-1287],[-2072,-1024],[-1091,-671],[-2536,-416],[-261,-292],[-1943,-544],[-1026,-954],[-373,-795],[-1185,-1112],[-638,-1066],[-42,-813],[660,-2469],[-266,-1247],[197,-1648],[-1794,-2649],[-943,-782],[-1601,-918],[-631,-1118],[-2059,-935],[-767,-485],[423,-1103],[893,84],[1781,-965],[389,-1175],[-726,-1406],[-1140,-667],[-436,-658],[639,-2002],[765,-293],[1718,-1526],[479,-1872],[304,-477],[190,-1606],[-507,-1114],[584,-1639],[654,-619],[977,-1595],[778,-418],[824,-883],[2260,-231],[1166,-642],[2268,-2470],[589,-373],[863,-52],[1310,-485],[969,-675],[953,-1572],[-359,-538],[-403,-1553],[-458,-847],[-132,-1389],[-973,-1311],[-576,-434],[-1201,-1888],[-1358,745],[-1071,-984],[-1351,-85],[-517,-521],[-852,-1395],[-1620,-739],[-1797,-234],[-1675,-397],[-931,-64],[-2171,300],[-1665,-133],[-804,-604],[-1870,-531],[-1454,-817],[-1835,-1269],[-1106,113],[-667,527],[-1885,820],[-1770,388],[-2149,116],[-2071,385],[-1091,-394],[-1276,-16],[-3166,911],[-334,342],[-2091,-476],[-564,-800],[-1703,-1683],[-2123,-282],[-2159,737],[-987,-55],[-1351,-1004],[-697,-1492],[-1960,-1610],[-997,-1137],[521,-2089],[-70,-847],[-1813,-119],[-795,-664],[-1523,-120],[-916,97],[-1112,-274],[-649,-1363],[-41,-829],[462,-1806],[-487,-1053],[-784,-802],[827,-440],[819,-1246],[-394,-1138],[-84,-1278],[509,-1080],[-631,-2068],[-540,-397],[-42,-1704],[277,-1132],[-848,-769],[-569,-958]],[[381848,377773],[-1437,470],[-788,-1880],[-153,-1431],[-662,-826],[-410,-1235],[-606,-1126],[-944,-553],[-1595,-480],[-1294,286],[-1277,-378],[-709,-794],[-118,-1074],[212,-940],[11,-1304],[-333,-476],[-2052,-1465],[-2046,-890],[-1729,-1108],[-1091,-966],[-615,-83],[-1150,-817],[-414,-1492],[-576,-744],[-908,103],[-2731,-730],[-772,40],[-1317,-376],[-1617,-919],[-1129,-145],[-1850,489],[-672,-412],[-1197,-291],[-1377,-1124],[-711,-111]],[[347791,354991],[-845,765],[-812,364],[-462,893],[-422,241],[-815,1578],[-609,61],[-1678,-1384],[-1594,-601],[-1142,-71],[-1286,218],[-1437,869],[-924,-259],[-886,-878],[-548,-937],[-453,-1260],[-386,-311],[-869,144],[-434,-305],[-960,-1549],[-1166,-470],[-640,100],[-1987,-151],[-1040,799],[-1990,-359],[-1822,290],[-1059,-212],[-597,309],[-504,740],[-835,1904],[-741,1044],[-994,-40],[-1437,383],[-2013,1202],[-480,90],[-1299,-665],[-987,-94],[-1155,618],[-51,460],[-817,746],[-325,1041],[-1729,1695],[-1125,526],[-714,1371],[-1349,915],[-164,515],[-2014,657],[-1289,1064],[496,1727],[-426,1252],[-818,247],[-339,624],[-1867,690],[-24,392],[-834,536],[-2499,258],[-966,-247],[-278,655],[-563,53],[-1663,-386],[-1764,-1145],[-782,-930],[-1317,-295],[-1260,-656],[-628,-545],[-765,692],[-1656,19],[-632,868],[-1536,1380],[-591,991],[-1328,418],[-1585,718],[-899,-424],[-867,320],[-731,-691],[-1138,-151],[-1295,134],[-479,730],[246,411],[-55,2326],[-435,555],[-1180,767],[-723,215],[-1982,121],[-507,153],[-261,943],[-544,1010],[-17,806],[-811,1251],[-712,471],[-1211,2481],[-799,812],[-1200,59],[-1594,-315],[-1045,-816],[-1723,-518],[-2376,-532],[-798,145],[-1447,-505],[-1524,-1262],[-1374,160],[-1543,-656],[-2456,78],[-1009,755],[-1428,390],[-2487,1594],[-829,-752],[-939,-1325],[-841,332],[-1186,-605],[-912,-1686],[-917,-883],[-662,-319],[-593,-46],[-1012,1038],[-1868,1116],[-844,1581],[-1519,1126],[-1232,54],[-1539,1147],[-804,314],[-1449,-213],[-786,-457],[-775,-60],[-2422,1318],[-1366,1024],[-1247,-345],[-798,751],[-445,43],[69,2052],[-129,1458],[-655,2101],[679,1936],[620,2162],[218,1447],[-150,2529],[254,1979],[581,2757],[715,1188],[1367,844],[1098,1640],[115,1191],[713,791],[-105,908],[330,678],[173,1815],[365,769],[302,1894],[276,736],[-50,1079],[-920,1480],[445,1813],[3,707],[-576,162],[-2226,-2343],[-844,-322],[-1109,-1366],[-887,-269]],[[216564,420149],[-1325,580],[-3543,481],[-789,342],[-2050,1358],[-1820,810],[-806,910],[-1195,585],[-522,1424],[110,2472],[-2357,2170],[-851,539],[-1378,8],[-971,374],[-1045,-365],[-627,167],[-581,-789],[-1326,225],[-445,-158],[-3103,99],[-795,1354],[-229,1585],[-357,670],[-231,2428],[189,1477],[-1105,182],[-1383,916],[-452,720],[-195,1274],[1263,2374],[-75,636],[284,992],[-274,700],[-1144,1365],[-828,1330],[-303,2036],[-531,727],[-67,972],[569,1376],[698,2812],[202,1942],[-143,1458],[265,3035],[377,1076],[1273,1321],[471,1101],[536,422],[404,839],[1262,1110],[0,1139],[-546,470],[-572,1026],[-361,2283],[-368,971],[607,1033],[-48,1117],[-654,697],[-660,1289],[-1537,748],[-1047,-144],[-705,434],[-990,208],[-648,-229],[-869,1180],[-664,185],[-2115,2098],[1773,1305],[1205,351],[1017,918],[1859,811],[1417,3155],[1140,1681],[1866,1295],[1555,1641],[1416,2595],[400,1365],[-47,681],[380,679],[802,2271],[1155,-824],[532,208],[855,-483],[543,134],[667,1121],[1169,288],[977,-218],[279,1077],[733,1260],[851,2479],[1046,575],[1544,1640],[1688,502],[1263,1166],[1599,1922],[893,2819],[-77,1667],[1746,2288],[1243,1382],[285,-1574],[604,-1134],[1054,-751],[1021,-382],[250,-514],[1239,768],[1045,2374],[187,1563],[-231,907],[1609,1044],[788,-277],[594,881],[758,251],[1805,215],[711,-172],[1057,396],[2581,-203],[1436,597],[2027,219],[835,1193],[804,253],[1421,-61],[1894,-777],[1425,-180],[405,-1019],[1550,-544],[1108,-217],[196,-394],[1114,-871],[170,-2281],[604,-411],[1013,353],[370,-815],[-274,-1191],[229,-684],[9,-2919],[-675,-2887],[-31,-1352],[146,-856],[1511,-1644],[208,-1317],[-254,-669],[717,-1032],[2183,67],[731,-727],[2427,-7],[584,-145],[1543,-1002],[562,-70],[848,516],[606,658],[1606,833],[1509,-646],[3165,255],[579,692],[539,1446],[2158,1753],[1271,508],[3160,36],[1588,285],[1290,435],[1095,55],[1468,792],[1307,423],[2827,-519],[776,-30],[2162,2166],[335,1438],[354,1967],[1116,881],[807,1634],[-793,518],[233,1138],[-352,729],[-9,813],[-329,1127],[190,1894],[852,1220],[531,1393],[633,1050],[525,338],[375,1028],[-69,602],[302,1290],[569,419],[238,1087],[579,466],[1707,-475],[260,441],[-119,1622],[715,789],[1101,-553],[1850,179],[1343,-252],[1449,-698],[1226,-251],[629,166],[34,2008],[378,1067],[783,1034],[717,451],[191,1329],[1042,2171],[-513,459],[451,1764],[-340,937],[148,1251],[608,1546],[276,2763],[-185,833],[1027,905],[873,2730],[471,840],[-676,1269],[-164,2251],[783,2310],[943,573]],[[351934,556740],[-794,-1749],[493,-2223],[-52,-1703],[-290,-1467],[-11,-1145],[444,-1528],[-657,-1184],[-139,-2151],[-287,-2073],[779,-1792],[310,-1676],[-135,-400],[-273,-588],[-194,-1520],[-956,-839],[-628,-915],[107,-1479],[572,-689],[-50,-1966],[186,-771],[75,-1924],[-171,-783],[449,-397],[20,-1007],[-815,-2040],[90,-1144],[-205,-1713],[611,-1292],[416,-450],[775,-1999],[-340,-1145],[335,-900],[327,-1408],[-273,-1329],[-872,-1717],[-815,-722],[-1688,-703],[-753,-805],[-1097,-576],[-480,-507],[-965,-227],[-1759,-8],[-369,-1791],[-719,-1531],[-1272,-1458],[-851,-422],[-561,-1698],[561,-2022],[-27,-638],[-547,-1108],[-537,-485],[-1250,-1907],[-2163,-1886],[-1077,-459],[-990,-1977],[-189,-995],[57,-2580],[-824,-932],[-1662,-294],[-1267,312],[-878,-79],[-872,449],[-1207,-186],[-811,323],[-659,-858],[-499,66],[-941,-448],[-88,-1161],[-262,-413],[-2158,-212],[-368,-1303],[-33,-1672],[-184,-374],[947,-3526],[412,-664],[-13,-2055],[288,-398],[1614,-832],[513,-82],[991,-244],[806,-1480],[-132,-814],[643,-1026],[813,-565],[194,-793],[694,-815],[137,-604],[744,-696],[841,748],[1337,-31],[1839,-1874],[1565,-690],[748,-826],[1122,-324],[936,-1343],[757,-742],[800,-322],[1258,27],[547,265],[379,-532],[216,-1021],[747,-873],[448,-932],[1039,-694],[586,-1421],[-172,-979],[30,-1451],[-583,-1618],[-61,-1543],[-686,-1052],[-1212,-597],[-609,-527],[-264,-893],[-957,-989],[-968,-1530],[-408,-1357],[430,-2173],[761,-944],[974,-736],[208,-1143],[615,-561],[346,-1283],[1369,-58],[1065,246],[861,-361],[798,16],[1061,564],[1400,-604],[813,332],[1078,-103],[334,-455],[1008,-578],[1742,-490],[884,-1415],[1763,-617],[452,165],[893,-1013],[1106,-923],[88,-648],[513,-701],[-42,-1229],[-622,-920],[285,-777],[-549,-1983],[511,-594],[2027,-647],[1206,-30],[1161,-927],[1513,-1923],[1720,-1483],[1107,-811],[1043,-2243],[1519,-946],[496,-574],[1004,-302],[637,183],[1165,-344],[1451,-777],[1561,-1335],[590,422],[1567,-1255],[1444,-444],[1359,-642],[518,-573],[1228,-628],[898,-1193],[346,-1200],[27,-1074],[491,-1535],[-383,-1096],[102,-581],[-299,-1701],[-854,-769],[-1081,-164],[-183,-628],[49,-1901],[364,-509],[416,-1374],[759,-711],[102,-581],[-1207,-1816],[147,-804],[1288,-1271],[-371,-428],[-234,-998],[7,-1357],[-541,-884],[114,-594],[-208,-1492],[-527,-575],[220,-644],[-611,-1501],[53,-1213]],[[351934,556740],[-1910,1111],[32,628],[-646,1010],[-935,354],[-1674,-58],[-1380,-372],[-1901,357],[-987,528],[-934,-67],[-2008,521],[-1030,-197],[-1715,-889],[-1141,144],[-850,-403],[-1173,1064],[-1206,1380],[-1703,734],[-1440,2014],[-588,637],[-453,1684],[-892,-524],[-1159,64],[-946,-349],[-949,750],[-833,237],[-667,-289],[-2564,304],[-1106,286],[-1681,-459],[-674,-405],[-862,-1182],[-1074,-100],[-1041,493],[-1062,-962],[-869,-342],[-1472,257],[-3230,-123],[-884,-558]],[[306327,564018],[147,1053],[-88,1079],[-415,1900],[35,1485],[-555,1040],[-681,2963],[-1653,2445],[-396,1187],[-991,1847],[-617,552],[-1619,2421],[-599,1158],[105,1101],[-771,644],[-1123,368],[-1065,-514],[-1044,539],[-2095,547],[-1508,-124],[-1863,876],[2485,1762],[632,-4],[1482,-581],[1775,316],[443,438],[-154,672],[-1197,1931],[234,1096],[1189,988],[486,1892],[1235,1601],[634,267],[1293,47],[566,295],[203,640],[-402,1627],[-659,1216],[91,1239],[1183,3197],[1227,1402],[251,496],[536,3103],[-139,2864],[-175,1625],[115,711],[-227,1029],[276,1151],[-460,1186],[-573,687],[-519,1657],[-1683,2462],[-79,471],[476,1336],[-466,1257],[-659,304],[-1486,-33],[-2216,1085],[-820,846],[-717,1814]],[[293712,630677],[270,2392],[765,2302],[625,894],[1020,249],[844,607],[61,909],[509,982],[1962,1140],[371,-17],[1900,-1039],[533,-488],[920,-306],[1679,-98],[1587,-396],[977,-35],[1009,519],[730,94],[1118,-478],[1233,-849],[1417,-167],[640,240],[568,264],[948,-164],[2024,13],[2102,540],[1224,-265],[1137,-736],[1175,-137],[1321,1842],[958,1089],[1253,1002],[1598,2110],[1516,316],[782,914],[135,1116],[-177,1199],[447,937],[917,1061],[-13,1097],[253,624],[1619,1242],[470,195],[260,739],[-296,843],[381,1264],[592,994],[944,1032],[520,1321],[851,577],[1874,170],[1567,-355],[1421,-552],[1326,-1294],[521,-274],[2942,261],[828,306],[279,454],[-371,1784],[457,1278],[529,709],[1310,259],[1078,490],[674,806],[647,9],[807,-805],[844,-1203],[1101,-109],[1566,559],[1038,458],[1635,1312],[1064,1273],[844,534],[1000,988],[1503,1155],[580,195],[1153,1172],[1542,785],[1987,1279],[1262,1044],[1564,926],[1002,347],[1348,1470],[567,280],[530,764],[1164,2483],[603,445],[-271,1163],[1127,1071],[860,413],[337,548],[440,1782],[121,1407],[550,292],[1587,1393],[1125,1471],[339,715],[1730,390],[630,960],[1071,520],[644,-238],[702,371],[401,939],[210,1217],[1125,601],[781,1007],[2674,302],[577,427],[763,78],[1890,-1210],[1585,-66],[1715,-823],[-330,-1018],[769,-2208],[-179,-1389],[-586,-1585],[662,-1636],[917,-632],[712,-144],[882,-818],[-420,-1235],[647,-1501],[860,-1353],[832,-900],[629,-345],[996,573],[1066,-349],[308,-1313],[-313,-415],[451,-1582],[1120,-1239],[530,-360],[972,-46],[1094,-651],[591,-713],[103,-807],[-379,-547],[405,-1364],[-431,-765],[351,-525],[1857,-478],[1046,-951],[-32,-907],[-1136,-1544],[654,-830],[4,-973],[641,-596],[232,-909],[-302,-867],[-97,-2631],[580,-310],[195,-1308],[511,-611],[1654,-1161],[288,-1503],[1103,58],[310,-559],[-1215,-2057],[58,-520],[-1502,-1069],[-490,-1618],[-876,-1396],[-19,-1283],[1544,1113],[1820,550],[2937,699],[1929,1085],[1415,166],[1442,505],[687,-18],[878,418],[2107,317],[1551,1658],[624,1158],[405,1199],[779,517],[470,-38],[1201,961],[1468,-442],[1159,-105],[547,-875],[1779,-478],[1602,859],[1481,394],[694,496],[1672,168],[297,-474],[1255,-533],[1523,-1229],[529,546],[935,302],[740,720],[479,1186],[944,280],[861,-830],[736,-352],[902,40],[555,-472],[1832,-221],[1296,1461],[-120,1369],[166,545],[909,-64],[2612,600],[893,-240],[1211,-680],[520,634],[488,1766],[-64,455],[-1071,1221],[-556,1105],[988,1263],[219,981],[-89,860],[-1537,952],[-131,2096],[139,2235],[572,2367],[1200,-489],[1951,109],[1681,-215],[1523,375],[1478,1003],[1161,180],[1497,720],[680,-369],[187,-1035],[1700,-1339],[1621,-812],[1126,-253],[1138,-531],[1168,-308],[1969,1272],[1997,445],[601,476],[1214,-80],[1194,1467],[1526,1179],[504,935],[1129,539],[1425,2500],[1422,-700],[1000,-84],[2451,269],[750,438],[2022,239],[585,771],[1495,678],[1639,-410],[2098,-802],[1320,-2672],[850,-732],[2337,-1187],[955,558],[2671,-366],[926,-459],[872,-996],[327,-52],[683,-1159],[1267,64],[1507,-504],[1394,-70],[883,285],[167,652],[841,1580],[960,377],[1884,2792],[2570,1851],[456,501],[687,1615],[-755,696],[-223,888],[56,1147],[273,584],[33,1348],[1037,1446],[-833,1009],[-1040,838],[-348,1247],[-160,1902],[-788,1356],[-1595,1580],[-191,2261],[-839,1270],[-335,1463],[45,753],[899,929],[1858,673],[997,1161],[1440,957],[346,3323],[-1425,2935],[-1744,645],[-332,1282],[14,1412],[-331,563],[451,1479],[49,1994],[-1002,1266],[1568,2254],[439,220],[1456,-829],[940,-259],[719,207],[1667,-339],[1262,-482],[1430,2005],[1755,-89],[893,192],[1012,561],[940,1470],[-24,1516],[431,1378],[-68,466],[-1013,1976],[-611,1477],[-2074,1374],[120,1892],[1948,1889],[114,5148],[-274,2295],[786,465],[1161,365],[593,-651],[720,-305],[1070,108],[521,-226],[1440,300],[1146,23],[1066,644],[1347,560],[367,724],[-186,3185],[-1191,1827],[163,2082],[-1777,1349],[-2149,789],[-410,1014],[1942,2373],[323,767],[844,734],[1278,-98],[217,379],[2676,167],[484,677],[419,1915],[1113,347],[590,629],[-178,2025],[-852,1425],[-484,1862],[394,682],[1762,627],[1406,742],[839,1032],[1149,425],[1131,1044],[1831,2719],[290,972],[744,835],[375,1275],[58,1722],[177,473]],[[561908,780578],[602,-583],[1828,959],[1540,342],[923,539],[1566,1228],[691,1051],[675,385],[1610,2412],[1030,2392],[1266,1648],[811,77],[1571,-1197],[1336,-592],[1790,-1149],[1844,-496],[743,-1337],[1450,-882],[597,-44],[1646,-1080],[736,-223],[-163,-921],[30,-1615],[749,-1326],[-479,-1387],[56,-574],[661,-1095],[498,-2107],[-26,-959],[1312,-1027],[557,-1383],[681,-531],[1227,-497],[228,-512],[896,-870],[1086,216],[720,-298],[346,-1086],[1000,-1959],[305,-1619],[306,-745],[1373,-1203],[762,-1270],[13,-1234],[772,-1383],[1379,-2001],[-72,-766],[343,-884],[2304,-2009],[2141,-1320],[2261,-1063],[1348,-135],[1379,-417],[1047,-38],[1112,-429],[1496,-820],[746,-635],[1027,-1438],[101,-1300],[-549,-915],[-285,-950],[-514,-469],[-2202,-1378],[-782,-1250],[-68,-770],[385,-1816],[-510,-538],[-1135,83],[-1699,-447],[-408,-262],[-1063,-2326],[363,-1703],[851,-595],[1539,-120],[1700,-543],[3054,-612],[1196,637],[1438,351],[769,898],[2728,72],[715,1173],[1724,674],[1355,-666],[563,897],[904,389],[1046,80],[1218,-371],[2996,1596],[276,1128],[581,1133],[712,194],[830,653],[1136,-197],[1303,778],[1240,-979],[643,-1322],[598,-2112],[523,-755],[1227,-1050],[729,-1033],[1759,-399],[1510,483],[1018,-105],[866,-553],[928,-1266],[25,-1841],[390,-1368],[561,-1222],[98,-773],[1102,-2284],[668,-833],[983,-515],[-72,-423],[-909,-958],[-1576,-1122],[-561,-2234],[-979,-757],[-2333,-770],[-1826,-1387],[-750,-1175],[-1475,-880],[-1107,31],[-1862,1025],[-1197,-632],[-1365,-957],[555,-2201],[191,-1913],[-634,-969],[-2933,-2686],[997,-1468],[6,-1353],[234,-1561],[1267,-1009],[1654,210],[1089,672],[794,145],[1648,710],[1360,1656],[1799,-186],[1126,-1029],[1928,1921],[1404,-573],[1436,591],[953,25],[1237,-728],[624,-114],[2024,343],[1188,-1410],[1576,-308],[525,-683],[1278,-842],[551,-875],[93,-1472],[1161,-2993],[-179,-1068],[1261,-1232],[694,-982],[45,-2602],[-223,-1199],[-554,-812],[-678,-334],[2842,-1249],[1349,-305],[1734,-1102],[1169,211],[2371,-1246],[1625,-1166],[1766,-472],[3099,1053],[1820,162],[2589,-296],[762,-1116],[471,-1078],[61,-1015],[-405,-1335],[-448,-655],[-1526,-1620],[265,-1436],[445,-794],[278,-1281],[365,-612],[922,-646],[1629,-1880],[599,-278]],[[683987,667545],[129,-1376],[-556,-2894],[111,-1639],[601,-1480],[401,-1502],[-341,-1517],[111,-1895],[-316,-764],[-251,-2431],[74,-2384],[-478,-615],[-1022,-778],[-994,978],[-1266,-414],[-1097,-834],[-399,-1284],[-1125,-931],[-2140,-949],[-1616,693],[-475,-73],[-696,-896],[-787,-2362],[-2,-2050],[874,-3940],[-257,-1669],[181,-555],[1025,-670],[128,-1212],[736,-1486],[-44,-913],[1643,-1740],[-181,-1096],[194,-1015],[1302,-841],[-140,-2068],[-577,-581],[269,-876],[827,-1402],[389,-1271],[687,-970],[74,-1945],[435,-938],[-236,-556],[33,-1066],[262,-742],[1051,-708],[528,-1563],[-1268,-1251],[-813,-364],[-1110,-47],[-604,399],[-628,-407],[-464,-804],[-962,-918],[-215,-959],[-1415,-1634],[-725,-2158],[-324,-1334],[-1366,-825],[-80,-759],[-1248,-1613],[-1447,-2168],[55,-1136],[612,-588],[-129,-1311],[-1319,-1214],[-500,-700],[-1582,794],[-1224,14],[-3179,-715],[291,-1267],[-1026,-211],[-1469,-44],[-1642,-240],[-2586,-1363],[-1005,214],[-2019,-406],[-2673,501],[-1589,-2458],[41,-573],[-758,-939],[156,-1193],[459,-664],[188,-891],[-135,-1541],[-726,-1450],[-81,-1036],[-926,-1810],[140,-497],[1249,-871],[1322,-1696],[1463,-1146],[210,-480],[-223,-1114],[-2124,-2786],[-208,-1060],[-795,-881],[-422,-1465],[22,-1450],[-2252,-1389],[-779,-640],[833,-1401],[-461,-797],[-27,-1157],[-864,-912],[-322,-1261],[-1113,-735],[-1683,-271],[-1763,-1003],[-1001,641],[-554,6],[-1513,-918],[-1482,-567],[-748,-748],[-653,-1030],[-283,-1305],[102,-717],[523,-952],[-58,-786],[-1324,-1031],[-1819,-674],[-860,-1073],[-285,-1023],[-1858,-1043],[-902,400],[-1604,152],[-1099,-414],[-688,-1062],[53,-1778],[-2522,-1998],[-1644,-923],[-2067,-1441],[-597,1261],[-1003,1313],[-1099,905],[-1850,418],[-1120,525],[-1169,1185],[12,1753],[594,1511],[241,1964],[248,527],[-227,2067],[-88,2698],[-1209,1099],[-994,-332],[-2275,-286],[-1161,202],[-839,-256],[-1721,27],[-767,169],[-2367,-343],[-843,-702],[-930,-9],[-1095,579],[-982,-250],[-464,-675],[-373,-1348],[-757,-526],[-2517,-1011],[-2918,-522],[-1594,-429],[-1226,-96]],[[584448,545378],[-487,612],[-1349,395],[-853,611],[-895,960],[-2192,1155],[-417,340],[-2043,58],[-1439,381],[-2547,266],[-511,-246],[-1065,51],[-1371,-448],[-404,-601],[-1235,435],[-271,958],[-335,3072],[-59,1550],[-523,1348],[-847,421],[-930,1257],[52,573],[-962,1550],[-136,2769],[-728,2837],[602,589],[-69,1832],[372,1271],[1092,1381],[-170,958],[-563,610],[-1095,667],[-221,866],[70,1609],[483,1531],[-582,1820],[-745,1686],[-894,902],[-2347,-989],[-350,-361],[-267,-1040],[-760,-1096],[-1695,21],[-290,-1634],[-1152,-1094],[-949,-94],[-374,-894],[-755,-992],[-797,-316],[-1325,-1194],[-1385,-550],[-1234,-1139],[-1878,-1104],[-364,-355],[-358,-3025],[-417,-1334],[-967,-1906],[-1074,-378],[-672,-1005],[-657,-449],[-3400,-1095],[-1191,931],[-990,1634],[-455,-217],[-2890,-399],[-701,698],[-1597,821],[-95,1483],[-518,922],[-21,1540],[456,1080],[-69,511],[-1314,2232],[-1005,1056],[-378,1189],[-496,609],[-333,1504],[-967,906],[-743,1147],[-129,1358],[-922,1872],[-178,1240],[-949,1945],[-1706,1583],[-722,-89],[-382,-689],[-890,-704],[-1834,-692],[-1342,-1416],[-554,-1048],[-1048,-30],[-1117,-334],[-2013,598],[-2402,356],[-2575,615],[-311,367],[-866,2471],[-503,425],[-521,1232],[-2186,-56],[-1492,627],[-460,1096],[-2465,-262],[-1887,-352],[-832,-799],[-1059,-83],[-715,-378],[-935,-1913],[-490,-1313],[-560,-949],[-1458,-60],[578,-1241],[-492,-2359],[366,-1062],[-77,-678],[1301,-929],[337,-921],[-1484,-2030],[-1080,-1129],[993,-2660],[-166,-1422],[-424,-745],[-1418,-1419],[-8,-670],[964,-1877],[-344,-884],[-1000,-453],[-51,-1368],[-550,-882],[-875,-376],[-1666,-193],[-1584,1078],[-1795,-316],[-598,-366],[-2169,40],[-962,1299],[-1555,-479],[-623,-1118],[-1266,-1568],[-829,102],[-720,-615],[-952,-409],[-690,-624],[-963,-378],[-2702,2415],[-1429,-1145],[-620,-1125],[-1892,-1197],[-1274,-28],[-727,-358],[-699,-852],[550,-876],[81,-1230],[-377,-657],[-133,-1235],[-1817,-2469],[-510,-1217],[-180,-1163],[-766,-421],[-749,1298],[-477,361],[-1883,-78],[-506,-599],[-1161,-171],[-1245,686],[-1430,265],[-2023,-1327],[-878,-750],[-517,-84],[-1208,358],[-822,2519],[-1185,1194],[-1144,367],[-376,154],[-901,-525],[-2590,590],[-1550,1151],[-1369,2689],[-468,630],[-1593,630],[-754,-158],[-348,488],[-680,28],[-501,1821],[-1064,2108],[827,1280],[282,852],[1161,1673],[-725,1558],[-348,1167],[-21,1796],[-384,1222],[-588,621],[-770,134],[-1476,688],[-441,1436],[-653,1507],[-1283,63],[-818,-1181],[-1558,408],[-893,-340],[-209,-410],[-2023,-690],[-678,95],[-1710,-2506],[-807,-305],[-1035,158],[-231,501],[-1059,165],[-1081,1358],[-552,283],[-30,1159],[-335,1573],[-448,403],[123,817],[-401,1275],[-2053,2285],[-1136,636],[-1819,353],[-1334,-244],[-1883,305],[-1607,-917],[-1172,-881],[-1354,-239],[-673,1037],[-979,512],[-1668,583],[-1303,-297],[-1261,-280],[-676,-770],[-990,-691],[-1137,-1094],[-1338,-2693],[-822,-931],[-875,-172],[-1208,325],[-925,-418],[-231,-812],[-471,-200],[-1089,-1537],[-429,72],[-185,927],[-455,445],[-618,1479],[-620,996],[-899,753],[-1607,77],[-1064,-980],[-477,-49],[-1397,578],[-1007,-51],[-957,530],[-1528,144],[-1980,-245],[-602,-1202],[779,-822],[-189,-1415],[-603,-799],[-1246,-422],[-635,-1301],[100,-1038],[-841,-837],[-1838,-3086],[-195,-802],[-1656,-1038],[-1206,-241],[-1282,74],[-601,-242],[-785,150],[-868,-251],[-1451,33],[-494,336],[-1545,98],[-1053,-631],[-1129,-1751],[-520,-450]],[[445969,199358],[832,1124],[1210,1162],[389,1243],[-206,591],[-1414,1034],[-151,1416],[283,500],[1660,-303],[214,915],[-69,1751],[290,1253],[-161,494],[484,1486],[-48,792],[248,1559],[944,1660],[476,1231],[-234,676],[-825,732],[-285,740],[275,2095],[859,1110],[406,1417],[-815,971],[467,944],[665,74],[955,-296],[960,-1048],[622,-1889],[1014,-224],[516,662],[755,2158],[676,720],[814,1294],[2200,903],[1326,-603],[686,111],[1006,1287],[608,2445],[-170,1690],[259,915],[697,806],[654,1254],[841,910],[2581,1227],[999,208],[1352,-644],[978,-1049],[2074,-311],[402,-613],[-21,-1208],[394,-810],[2255,-1086],[952,-1067],[501,-1434],[833,-584],[738,-140],[645,290],[699,707],[345,1292],[-394,1362],[-1116,1359],[-359,976],[820,1231],[1315,883],[1004,1746],[566,1999],[35,1661],[1129,1633],[-162,844],[-1567,747],[-453,756],[252,761],[644,693],[981,183],[715,1134],[-68,763],[-769,1721],[-1179,1421],[-206,1112],[1185,1051],[867,1817],[-1733,1471],[-577,1189],[329,1383],[1140,1087],[349,1137],[1989,3044],[-148,904],[26,1891],[338,580],[2157,499],[1440,-17],[1130,663],[731,-138],[1364,-760],[1852,286],[2538,-398],[1945,346],[900,-250],[1123,-634],[406,63],[1507,1021],[1195,-226],[727,326],[588,2022],[543,519],[932,297],[1426,-687],[964,98],[533,855],[1020,198],[877,626],[23,1495],[514,903],[1067,827],[-102,834],[302,2456],[1934,2628],[57,1269],[405,1109],[1423,1069],[1054,308],[605,1372],[1194,566],[440,609],[307,1630],[393,260],[1340,152],[1733,1111],[399,1333],[543,447],[1779,834],[1569,118],[1072,401],[1522,1791],[1482,73],[1258,-475],[2361,1266],[336,725],[1051,1062],[394,1260],[690,246],[1211,1306],[969,1567],[851,648],[2408,1300],[1266,1595],[636,7],[1168,582],[622,68],[546,-1629],[1704,-1418],[1131,108],[1128,495],[859,906],[2248,129],[1397,446],[967,502],[3089,2315],[390,909],[97,1548],[701,578],[415,1425],[2143,2443],[-201,2275],[459,2240],[-160,2003],[-780,3418],[-459,1648],[423,715],[823,700],[1829,1131],[1173,1315],[-111,3789],[-355,620],[-75,1483],[-423,1456],[1,1363],[1251,741],[1088,1853],[290,1168],[2805,2472],[232,797],[895,679],[602,1783],[974,615],[146,649],[2769,3279],[1203,506],[1228,1052],[871,997],[1388,494],[2423,-12],[1138,-518],[685,-20],[2277,845],[309,977],[531,14],[1036,-833]],[[591836,360349],[1210,-448],[963,-780],[939,146],[987,-646],[642,-1455],[847,-768],[2196,712],[885,-218],[560,-489],[1163,-228],[1246,-777],[1068,-443],[813,288],[1075,-834],[2040,-1178],[2380,-1155],[2116,-2046],[806,-918],[1067,-639],[2614,12],[1989,833],[1009,-482],[662,27],[1576,-336],[1991,-194],[-139,-1186],[408,-1285],[281,-2174],[1004,-3225],[1330,-1800],[729,-1601],[509,-1557],[2423,-3523],[43,-1942],[608,-1587],[1364,-1500],[1443,-441],[1863,-1431],[240,-487],[-80,-1090],[273,-2143],[-1849,-2074],[-716,-955],[-889,-2568],[296,-785],[1182,-113],[947,595],[539,-831],[309,-1306],[-224,-1755],[-330,-983],[21,-2004],[-574,-843],[-94,-1138],[-320,-1203]],[[635277,305398],[-1181,-724],[-2611,-741],[-1172,-1513],[-1408,-1373],[-1791,-985],[-1561,-64],[-1436,626],[-831,787],[-581,1040],[-1215,920],[-690,1117],[-331,942],[136,824],[-862,203],[-1911,912],[-1631,-877],[-825,-982],[-1478,-2178],[-449,-2101],[-408,-283],[-2126,-518],[-568,-1287],[-1356,-1601],[-76,-1007],[714,-1149],[-148,-1190],[-889,-1505],[-950,-1230],[-1264,-1936],[-1481,-871],[98,-883],[1194,-2271],[722,-1942],[360,-1643],[-381,-1276],[-1594,-432],[-550,24],[-292,-643],[-1591,-1100],[-263,-508],[-785,-443],[-828,-1385],[-1047,-885],[-371,-616],[-1137,-1168],[-548,-275],[-1146,101],[-880,-988],[100,-1453],[-505,-513],[-150,-712],[-551,-730],[-1797,-384],[-754,-671],[-839,-1177],[-959,-286],[-1065,-874],[-711,-1135],[-804,-302],[-92,-978],[-520,-583],[-1491,415],[801,-970],[298,-841],[-599,-1382],[162,-886],[1053,-490],[174,-1591],[-181,-1735],[-409,-1128],[222,-1543],[632,381],[791,-448],[1126,-1205],[760,-205],[1648,299],[831,-4],[1780,-490],[1333,-53],[695,249],[968,727],[392,720],[2155,-415],[363,-2707],[-264,-971],[556,-1601],[10,-1493],[721,-4540],[219,-982],[2042,-696],[722,-388],[807,-1254],[-414,-2500],[-441,-1190],[196,-907],[-433,-1416],[889,-1033],[403,-897],[-10,-738],[-446,-409],[-3066,-640],[-835,-58],[-702,-400],[-766,-913],[-161,-796],[463,-2515],[-585,-1675],[149,-1107],[-639,-828],[-979,-434],[-1122,77],[-1164,-1155],[-964,-509],[-2060,555],[-863,-248],[-1475,-2602],[-1880,-1881],[-1087,-533],[-896,-911],[-1377,-1991],[-1804,-676],[-781,-57],[-2240,615],[-1117,18],[-877,312],[-534,-217],[-765,279],[-899,1328],[-949,-116],[-2197,2121],[-1020,137],[-915,958],[-406,925],[-1585,801],[-845,-627],[-797,-115],[-1601,851],[-885,145],[-557,420],[-1194,2201],[-224,-1450],[-360,-873],[-495,-318],[-1548,343],[-1622,-1407],[-174,-1623],[586,-989],[-67,-975],[-841,-1764],[-680,-2205],[-350,-639],[1209,-402],[1946,-1503],[1247,-531],[525,-505],[2582,-1263],[891,-1462],[837,-119],[1561,-892],[1279,-379],[2250,154],[1356,-101],[2153,-507],[1291,-543],[979,-677],[1200,790],[-61,1073],[341,700],[933,309],[662,-186],[358,-570],[-1141,-2153],[-138,-1013],[1994,-1149],[798,-113],[374,-472],[1690,-1442],[829,-456],[1534,159],[982,-365],[2519,1058],[1082,1108],[1060,-927],[-110,-1809],[-599,-2686],[860,-1044],[-194,-702],[263,-2741],[-762,-942],[478,-379],[206,-764],[-362,-718],[-1119,-840],[-695,-1772],[-920,-440],[-2140,-365],[-2510,877],[-1182,-69],[-1089,877],[-962,-967],[-1562,-1173],[-1092,-1637],[-848,-498],[-2347,-409],[-456,-510],[-397,-1407],[-1113,-1203],[-53,-1098],[-396,-1364],[-1005,-22],[-1430,-948],[-185,-710],[-663,-281],[-1265,358],[-839,-740],[-2034,-734],[-986,432],[-2435,783],[-1738,-77],[-1080,-530],[-188,-532],[61,-1294],[825,-1987],[-408,-1693],[-723,-864],[-2390,-1169],[-1308,-1802],[-620,-451],[-1741,-583],[-609,152],[-1241,-1206],[-1146,-457],[-1219,-1790],[-1279,-202],[-4458,928],[-1307,-94],[-942,378],[-1481,868],[-1823,182],[-983,-695],[-1009,479],[-994,161],[-722,486],[-639,27],[-1076,687]],[[390858,205891],[1008,-498],[1723,-132],[1114,654],[-279,1126],[761,830],[1603,139],[810,627],[1082,75],[659,-1298],[-1753,-2112],[245,-954],[1894,-570],[1562,-903],[1473,-361],[596,-89],[1716,-1386],[2034,-2488],[541,-1083],[1049,-271],[2544,1101],[1204,-713],[596,-57],[1484,1059],[481,90],[924,-440],[1834,-561],[508,164],[1211,255],[2671,1360],[3109,-758],[430,772],[907,775],[2156,634],[1379,-220],[775,-427],[188,-693],[-1040,-1969],[-1,-1011],[1167,-629],[1950,-90],[1711,-758],[665,372],[1099,0],[1896,-1101],[584,-172],[898,200],[789,1355],[770,591],[1052,270],[1333,611],[1078,971],[921,1180]],[[445969,199358],[1633,-138],[754,325],[1023,-33],[885,-351],[2132,-82],[880,-1106],[1143,-638],[612,-770],[3977,-3213],[145,-777],[651,-212],[1931,977],[517,-163],[3345,232],[985,-1160],[1209,-791],[881,-898],[1382,-1109],[2650,-434],[959,-1240],[1383,134],[1298,-794],[840,-128],[562,-481],[1144,-226],[430,548],[1268,579],[1661,439],[1536,-248],[1491,-828],[545,-474],[949,548],[714,1058],[1022,264],[801,-448],[1278,157],[244,-1187],[744,-581],[1029,566],[1038,-145],[475,-809],[1477,100],[472,-423],[1430,-27],[661,488],[671,-121],[769,-623],[919,-297],[973,112],[1142,-299],[798,27],[920,-782],[911,-500],[794,-1395],[1032,-625],[1018,-1209],[2,-560],[553,-743],[1381,-71],[808,-558],[1564,-197],[911,-549],[3142,-2977],[428,-1189],[487,-2253],[-560,-953],[16,-1980],[961,-696],[1236,-1505],[3,-805],[-503,-969],[-900,-845],[245,-899],[753,-1493],[24,-980],[733,-1265],[1254,-699],[1101,52],[1077,-930],[733,413],[457,1345],[756,875],[523,182],[999,1040],[318,-597],[804,-575],[1322,-513],[592,368],[1226,-172],[1501,-659],[412,-847]],[[532461,157943],[-534,-1884],[-142,-2126],[204,-927],[-408,-337],[-596,-1492],[-859,-164],[-437,-1168],[-92,-918],[-722,-571],[-365,-1401],[745,-1579],[-82,-226],[906,-1372],[-24,-1675],[-889,-1826],[-946,-380],[-363,-459],[-154,-941],[293,-1669],[-181,-1075],[-841,-1113],[-757,-1331],[-338,-1232],[-1408,-393],[-271,-995],[270,-2049],[-367,-680],[-1560,-1017],[-1739,-191],[-1169,-723],[-1482,-1292],[-2127,-2101],[-65,-1001],[715,-2436],[19,-838],[496,-1172],[-20,-2018],[-540,-786],[-2308,-1507],[-601,-192],[-767,256],[-2897,-772],[-2420,-238],[-297,-893],[365,-1737],[941,-1325],[-358,-1510],[320,-680],[954,-529],[1727,-250],[471,-1180],[1020,-695],[191,-581],[-685,-2443],[-331,-691],[-97,-1480],[375,-1633],[1041,-561],[663,-1301],[1100,-1321],[777,-652],[705,-988],[881,-649],[2067,-975],[176,-354],[-283,-3570],[-791,-424],[-877,-1603],[-693,-469],[58,-535],[708,-512],[379,-1427],[-85,-708],[-1180,-912],[-1318,-618],[-573,-925],[-1866,-968],[-1038,-1366],[-57,-764],[449,-1639],[-300,-1219],[337,-1214],[1118,53],[-267,-1135],[190,-1081],[-366,-900],[-725,-460],[-102,-1167],[1678,-66],[1507,-564],[960,-599],[601,-989],[264,-1473],[-81,-1050],[-414,-707],[64,-909],[1601,-2591],[693,-740],[-287,-349],[446,-910],[137,-948],[1144,-512],[1845,-2440],[1446,-1042],[154,-402],[-60,-2166],[1233,-2098],[386,-285],[156,-1325],[1143,-1527],[58,-1263],[1138,-746],[364,-660],[986,-360],[638,-749],[491,-1179],[960,-278],[944,290],[1335,-520],[951,-650],[784,486],[704,-355],[545,-846],[1206,-284],[1159,-501],[311,-511],[-349,-193],[-473,-1181],[-1053,-662],[-492,-9],[-1306,-981],[-260,-786],[557,-1332],[42,-1668],[-253,-469],[-1009,-346],[-277,-528],[-723,745],[-954,98],[-698,-403],[-197,-864],[-873,-1057],[-2879,-1587],[-504,-2382],[-750,-1126],[271,-671],[-770,-2493],[259,-1619],[-488,-1243],[138,-913],[-308,-555],[122,-979],[-362,-522],[362,-1873],[550,-985],[42,-754],[-624,-573],[-852,-1268],[-22,-510],[675,-717],[-171,-839],[-724,-1628],[128,-451],[-782,-799],[-740,1051],[-409,1380],[53,779],[914,1779],[138,1274],[-787,833],[-767,1874],[-918,-312],[-1086,-37],[-3117,-1729],[-778,410],[-2440,1616],[-1058,275],[-642,843],[42,669],[-738,768],[-164,760],[-1375,847],[-372,872],[-667,637],[-608,1500],[-325,285],[-1719,439],[-835,639],[-291,761],[92,1018],[-201,1605],[-968,938],[-1190,809],[-243,781],[-753,615],[-1869,330],[-1274,55],[-580,387],[-2025,-372],[-795,204],[-2577,-755],[-410,2456],[-680,1278],[-1659,-143],[-1082,433],[-325,615],[-209,1403],[67,3022],[-546,943],[-687,-358],[-1115,182],[-1066,543],[-1802,-491],[-1178,599],[-956,524],[-1085,-132],[-1149,231],[-743,-755],[-1021,-502],[-1022,-258],[-1341,-644],[-1467,147],[-886,-174],[-481,-1539],[-2377,-413],[-847,228],[-927,-257],[-554,-471],[-2325,681],[-1684,217],[-2158,1676],[-830,1081],[-843,765],[-2198,680],[-1689,-1136],[-1861,-409],[-1743,-1005],[-1527,-325],[-1898,1828],[-1244,533],[-1146,57],[-1674,563],[-859,25],[-1580,-367],[-1598,1052],[-518,72],[-627,-82],[-1624,-2096],[-1188,-2117],[-613,-224],[-1923,-18],[-404,-332],[-232,-1024],[-1439,413],[-514,-659],[-1179,-196],[-454,894],[105,855],[-1786,1769],[-1379,1697],[-399,964],[-1689,1055],[-688,280],[-1392,-103],[-1950,-1083],[-851,633],[-622,109],[-818,575],[-1220,1642],[-887,297],[-721,-235],[-1213,251],[-2604,-1877],[-519,-1238],[105,-759],[-420,-438],[-2001,-304],[-1767,47],[-1271,-1564],[-1455,-1322],[-1624,-1231],[-327,-943],[-632,288],[-1902,1293],[-2782,638],[-809,-476],[-1185,-2176],[-727,-770],[-396,-1153],[-1279,-549],[-770,-3036],[-834,-1887],[-890,-855],[303,-1038],[-1527,53],[-545,-408],[-1481,-2476],[-167,-1578],[-1090,-1443],[-1711,109],[-712,-343],[-1145,1481],[-1748,662],[-773,948],[-1777,1293],[-972,1846],[-1101,1194],[-1474,1172],[-1268,-101],[-2193,788],[-1829,-454],[-2091,583],[-273,333],[-751,2171],[-1974,3373],[-530,2695],[853,206],[1243,686],[1900,-492],[869,949],[825,2084],[1004,425],[1071,50],[429,1177],[-597,668],[98,1573],[-646,191],[-436,-642],[-447,219],[-146,767],[-1517,-534],[-1002,-1070],[-877,-322],[-456,845],[-865,513],[-147,1563],[-873,1469],[-862,415],[-130,1639],[-529,2395],[-934,549],[-747,751],[-554,1113],[-1114,226],[-1071,486],[-847,-129],[-734,283],[-398,-601],[-1324,-806],[-918,-298],[-169,-1109],[-507,-711],[-907,-2484],[1177,-1449],[1091,-954],[691,-1874],[2702,-2186],[755,-1295],[1021,-1211],[302,-726],[-50,-1707],[-485,-995],[-1685,-1298],[-883,-241],[-1319,-1544],[-1099,-959],[-1385,279],[-873,-298],[-621,247],[-1090,21],[-533,-261],[-1105,-1009],[-709,-1169],[-898,-75],[-1222,410],[-907,539],[-1418,1426],[-1656,178],[-424,-148],[-1109,424],[-1676,69],[-1398,1025],[-1396,480],[-573,1522],[-1553,1396],[-1586,-1034],[-718,-878],[-1749,254],[-1390,-407],[-1649,-187],[-1180,239],[1109,1935],[300,972],[181,1438],[-1246,2745],[-1098,712],[-1722,1641],[-1325,2323],[-1279,1264],[-639,334],[-482,1055],[-774,290],[-1366,47],[-1954,750],[-604,0],[-817,549],[-1002,647],[-1541,-79],[-1781,737],[-1019,128],[-1080,1165],[-906,623],[-1230,-159],[-520,-944],[-1594,-1890],[-754,-1051],[-1780,157],[-691,1722],[296,1480],[-493,1172],[-79,1105],[-535,796],[-450,2232],[-324,574],[-711,402],[-1838,-176],[-619,746],[-799,467],[-989,-232],[-1059,1052],[-1289,410],[-1191,2132],[-1113,1571],[-1802,-638],[-950,-123],[-1721,1318],[-403,872],[-1104,351],[-577,1755],[-4,778],[939,2046],[109,1156],[1089,1011],[687,1000],[352,1549],[-303,1441],[-21,1680],[162,942],[1279,2958],[1000,1105],[617,1385],[221,1313],[856,1345],[1103,1401],[502,2105]],[[390858,205891],[-1528,988],[-1172,159],[-621,-919],[-270,-2631],[-466,-787],[-867,-760],[-354,-949],[670,-1560],[358,-1580],[695,-742],[162,-960],[-759,-1174],[-543,-347],[-980,112],[-1304,554],[-742,537],[-1224,146],[-1656,-89],[-1177,-746],[49,-931],[418,-1481],[1038,-2647],[653,-841],[586,-1764],[-467,-1096],[-1621,-1214],[-1084,-568],[-864,-1137],[646,-1681],[305,-1215],[-225,-988],[-527,-459],[-1833,-523],[-351,-474],[87,-928],[-555,-1163],[691,-1295],[822,-826],[1507,-596],[1131,-1119],[647,-1514],[561,-2476],[2388,-2069],[895,-1331],[408,-1017],[-31,-2665],[167,-1824],[-244,-912],[49,-884],[726,-1032],[1150,-489],[899,-1054],[633,-1772],[-332,-868],[-1842,-875],[-426,-994],[-34,-1711],[1021,-1989],[748,-1783],[-704,-1335],[-1821,-3009],[-1288,-1239],[-958,-1362],[-315,-762],[-956,-1421],[70,-734],[521,-640],[340,-997],[-205,-1887],[-738,-687],[-1675,-148],[-991,-1150],[-1061,107],[-698,-508],[-1315,-165],[-939,-373],[-1043,-1571],[-1333,-1103],[-387,-640],[109,-879],[952,-649],[318,-1147],[-491,-690],[-2124,-712],[-1342,421],[-2234,409],[-1153,707],[-1035,1194],[-964,-383],[-241,-1441],[1064,-526],[706,-677],[-410,-1354],[271,-1719],[-371,-1018],[-597,-332],[-891,-1013],[564,-945],[-301,-699],[255,-1552],[1105,-723],[156,-1065],[690,-886],[1538,-1013],[288,-1256],[543,-1194],[-363,-757],[508,-1974],[1432,-426],[829,-1068],[-61,-503],[995,-1038],[2645,-1003],[-307,-630],[-1576,-601],[-1264,-705],[-1680,-1981],[-37,-577],[420,-1033],[-829,-3328],[632,-760],[689,-1879],[54,-604],[721,-1199],[41,-864],[-1876,-894],[-452,-895],[-1035,-1388],[-545,-1089],[-836,-706],[-713,-285],[-2205,846],[-966,-1052],[-169,-640],[-1741,-944],[-2514,-2204],[-1205,-276],[-1273,84],[-384,-1096],[-523,-795],[-575,210],[-1733,62],[-1469,551],[-981,1523],[-1995,1232],[-798,225],[-811,602],[-2611,807],[-1829,2503],[-734,175],[-1939,-225],[-1380,343],[-350,660],[-618,427],[-660,-17],[-814,1384],[-2134,266],[-465,-267],[-2063,764],[-1288,713],[-1098,112],[-318,682],[-801,518],[-55,642],[-1283,955],[-1544,842],[-1177,54],[-736,-309],[-1658,466],[-1175,529],[-38,1177],[-424,996],[-1214,645],[-1059,10],[-512,-730],[-532,-79],[-1924,665],[-2740,-46],[-1871,1629],[-430,-9],[-240,1420],[-571,692],[-737,245],[-616,113],[-1250,-988],[-697,724],[-571,-87],[-740,975],[-1732,369],[-170,-816],[-470,-437],[-2140,38],[-1011,544],[-1836,-106],[-1022,-696],[-594,-708],[-1567,-524],[-700,-970],[104,-1509],[-153,-1346],[406,-1290],[-308,-874],[-652,-1028]],[[291087,88336],[-1420,423],[-1494,-508],[-1492,664],[-951,1264],[-2004,547],[-1781,34],[-767,343],[-1928,439],[-670,3],[-1253,579],[-1904,1902],[-980,-334],[-707,161],[-1369,750],[-361,602],[-1513,1288],[-1029,1086],[-1287,331],[-1067,774],[-619,1264],[-737,682],[-761,355],[-1535,1781],[-115,684],[9,555],[-1311,2048],[-480,287],[-1342,53],[-1700,1643],[-1668,1132],[-502,-15],[-330,-1075],[-840,-788],[-1143,594],[-2911,236],[-948,1435],[-2928,1868],[-607,923],[-377,1023],[-673,1023],[-1515,1193],[-1971,944],[-1076,861],[-1275,2081],[-282,1001],[-411,483],[-1740,564],[-1833,1743],[-1015,1483],[-775,604],[-1365,-425],[-1956,2048],[-963,2017],[-1559,1095],[-1347,1641],[-771,312],[-1082,-314],[-405,782],[-1340,1430],[-577,254],[-979,967],[-1286,627],[-659,1156],[-165,968],[-718,617],[-1105,474],[-1677,2072],[-1426,755],[-801,1302],[-703,5],[-892,-719],[-1668,166],[-710,398],[-1541,212],[-1268,-237],[-119,575],[348,904],[-95,944],[-1609,2198],[-1236,1365],[-883,620],[-2009,833],[-1432,134],[-1421,755],[-428,646],[-1233,2540],[348,859],[-432,871],[-1046,304],[-1078,1338],[-920,267],[-811,568],[-1387,1383],[-696,-20],[-1416,-568],[-1131,1418],[20,619],[-935,1003],[-952,140],[-1775,-193],[-987,336],[-694,977],[-411,2304],[-294,577],[-1197,-65],[-624,928],[-379,1179],[-1055,521],[-1415,-79],[-1438,-376],[-989,-488],[-1634,658],[-1262,230],[-627,668],[-509,1005],[-1243,342],[-1587,1413],[-481,651],[-331,1111],[318,844],[-172,1733],[-370,1468],[-633,1055],[-1475,172],[-682,-163],[-229,933],[-723,715],[397,501],[780,1963],[-1689,1417],[-417,1523],[-902,761],[-1089,-219],[-1477,250],[-1093,1190],[-795,514],[-1639,1669],[336,1205],[-165,379],[-2396,514],[-971,609],[-1418,518],[-593,-182],[-1342,728],[-1242,177],[-1030,718],[-87,394],[-894,785],[-1258,461],[-203,623],[-1335,1463],[-1426,710],[-1326,-20],[-803,-281],[-1269,101],[-1135,471],[-1367,-38],[-1644,1011],[-529,153],[-304,709],[-1072,213],[-3467,1302],[-375,658],[-854,586],[-1444,438],[-1298,112],[-421,439],[-154,1013],[292,432],[-528,1402],[-398,574],[-1033,861],[-243,1740],[816,730],[652,-404],[781,226],[99,1182],[555,1187],[1038,1520],[333,1009],[-243,1792],[-1015,904],[-1396,498],[-935,-35],[-1300,440],[-372,525],[-1206,-180],[-258,-759],[-753,169],[138,756],[-436,391],[-1341,-249],[-1104,65],[-1164,587],[-1507,-619],[-609,3],[-25,1118],[-321,2973],[-558,1584],[-455,1837],[22,1211],[-508,1408],[-743,775],[-1511,642],[-970,1076],[-1436,339],[-469,601],[193,901],[1233,2381],[1076,2655],[-24,2971],[-341,1257],[-663,556],[-1131,175],[-2474,-57],[-1179,165],[-539,305],[96,2160],[833,1518],[490,1273],[425,2026],[-571,1881],[-1389,922],[-288,388],[-1476,737],[-1492,3004],[186,906],[622,749],[477,1397],[92,842],[-636,2654],[-652,1758],[-579,615],[-1921,768],[-1391,222],[-1395,700],[-708,663],[-1227,1697],[-689,1727],[75,830],[1153,1141],[3651,1499],[301,496],[881,2721],[-524,891],[-1961,577],[-1683,813],[-590,1156],[75,3427],[436,741],[1091,771],[-1226,1724],[-1507,795],[-244,945],[-515,667],[-2070,1270],[-1849,526],[-1106,874],[-819,976],[-997,1619],[-219,902],[267,1033],[852,860],[-166,1398],[-1187,1290],[-840,143],[-789,-450],[-548,-1060],[-35,-1207],[498,-2618],[-306,-1276],[52,-1038],[-353,-1746],[-696,-1739],[-478,-2316],[411,-458],[2093,-1198],[1180,-924],[572,-845],[335,-1274],[-203,-842],[-734,-1273],[-613,-340],[-864,297],[-1028,1027],[-994,657],[-3193,804],[-1931,863],[-1367,1338],[-730,1570],[-165,803],[-578,648],[-1974,176],[-935,-109],[-1125,-586],[-2527,-2282],[-1011,529],[-380,518],[168,1133],[1698,4526],[-180,680],[-1047,1035],[-956,557],[-970,1598],[-1523,4277],[-94,1109],[64,2621],[-212,654],[-579,333],[-841,12],[-1351,-429],[-630,-459],[-2289,-2621],[-774,-1502],[213,-1781],[-297,-2221],[-460,-584],[-1153,-245],[-1466,-38],[-2259,-412],[-2113,-763],[-1082,-1207],[-718,-15],[-1493,2355],[-1888,2379],[-888,2451],[-408,549],[-3666,395],[-1693,-4],[-672,489],[-334,708],[51,1297],[413,940],[254,1560],[-1152,1102],[-1512,-170],[-2018,-1458],[-1352,-151],[-615,254],[-1652,1194],[-1507,3112],[-1031,1293],[-1529,780],[-2423,4302],[-925,2278],[-414,1933],[-417,565],[-1233,962],[-990,2402],[-618,1049],[-835,616],[-2229,1054],[-1635,1494],[-995,554],[-1757,80],[-1582,480],[-2523,1631],[-1522,762],[-736,874],[-1208,935],[479,1185],[627,606],[1120,462],[2026,1779],[874,1394],[1388,1664],[905,646],[1198,429],[1220,68],[1088,-293],[1045,-597],[897,-926],[1164,-519],[710,296],[1344,1438],[1223,2018],[201,986],[356,367],[3105,1702],[1803,1256],[1436,1672],[657,1591],[408,141],[1123,-400],[640,-847],[1098,-973],[2739,-1254],[1853,32],[1375,-219],[1284,-558],[1595,-459],[3021,66],[2811,-1524],[1663,-217],[1014,790],[943,183],[2278,-131],[1619,-536],[1423,-852],[1312,-1202],[1134,-1423],[837,-1872],[671,-1104],[1225,-1185],[2586,-621],[358,-303],[748,-1782],[801,-1211],[1432,-1139],[1748,-856],[827,-907],[1038,-1491],[1374,-1031],[1713,-1945],[1484,-907],[1410,-356],[2627,-1522],[724,-93],[627,316],[2544,299],[1596,-1234],[969,-1633],[1144,-729],[1157,-183],[935,128],[3043,-752],[5437,-175],[1441,53],[476,253],[425,873],[452,1954],[632,732],[721,219],[1672,-135],[1212,-499],[963,-1280],[558,-1140],[1709,-2045],[908,-525],[1697,383],[1614,1532],[501,1159],[317,1674],[648,1358],[2197,1096],[667,1258],[1132,557],[1166,-250],[734,167],[2057,857],[370,281],[1409,197],[423,-163],[2252,-2202],[972,-245],[1415,273],[2029,-2746],[128,-970],[986,-1697],[1530,-92],[927,416],[1261,-224],[804,-526],[274,-788],[-48,-2040],[711,-2182],[1263,-1323],[1962,-1097],[1780,-147],[1888,-1],[1337,411],[3101,307],[2445,973],[1270,1192],[1481,967],[1278,430],[483,632],[278,985],[1031,907],[661,1141],[836,402],[1885,210],[865,-160],[1115,447],[889,680],[1805,1066],[673,-20],[804,-1074],[774,-421],[2435,-596],[1711,707],[514,-155],[926,-1184],[293,-1340],[1748,-1772],[637,-329],[4013,-1260],[1141,-182],[622,-573],[2157,-289],[588,-430],[610,-1136],[134,-1612],[-696,-1838],[-810,-848],[-271,-978],[28,-1714],[1357,-2482],[52,-1644],[462,-1357],[-247,-1334],[-1100,-1430],[-311,-1061],[241,-590],[837,-412],[2502,-757],[934,-564],[1010,-925],[934,-1185],[752,-490],[2123,-139],[1094,-862],[-48,-1476],[1162,-1691],[426,-1470],[231,-1573],[930,-2206],[1043,-855],[1215,-1356],[1385,-2260],[750,-775],[926,-499],[1982,-508],[842,-621],[730,-901],[384,-1677],[-323,-742],[-1375,-868],[-1017,-3511],[27,-872],[-184,-2475],[569,-1148],[995,-632],[1990,-238],[794,-353],[488,-555],[1031,-2721],[1118,-1594],[269,-1250],[-1262,-1694],[-1092,-892],[-2841,-1521],[-486,-705],[974,-820],[2877,354],[4064,-289],[2007,294]],[[209501,254649],[298,-1067],[470,-2612],[484,-799],[608,-408],[2059,-486],[671,82],[571,-1308],[-82,-751],[-501,-1140],[725,-998],[515,-1387],[487,-573],[2049,-1392],[1490,-727],[792,-2491],[590,-137],[928,-800],[1023,-340],[1318,-884],[496,363],[1283,-471],[1419,-322],[2353,374],[1410,-1398],[813,-1381],[647,-1939],[478,-705],[1732,-1298],[727,-985],[2574,958],[1689,-262],[1037,66],[1061,-2199],[1194,-2165],[957,-2304],[1017,-289],[1859,623],[2698,182],[1156,522],[1137,-104],[1325,572],[1007,-428],[423,-608],[1052,-254],[1669,972],[782,-671],[2451,-642],[1031,-504],[1110,-243],[1430,-1220],[679,-961],[1618,-1859],[112,-853],[553,-984],[2456,-1008],[1416,-987],[1300,-504],[1633,398],[1028,-474],[1501,121],[831,-473],[868,-2044],[505,-465],[1130,-368],[1207,-1004],[1158,-448],[715,334],[608,637],[1948,-339],[2299,-1223],[525,-593],[1656,-876],[869,-696],[1452,-742],[1274,-380],[1078,-1006],[783,92],[1483,618],[760,1031],[-616,2343],[-246,3051],[171,748],[674,879],[1487,-53],[878,193],[1327,1706],[549,1674],[368,1678],[532,1304],[911,964],[2726,1849],[453,1271],[733,1265],[-228,3239],[-609,1205],[-425,1365],[68,571],[1102,846],[340,967],[335,1715],[197,1881],[350,548],[310,4508],[690,1129],[1322,1219]],[[310857,243680],[1112,-755],[1738,-642],[2446,-1350],[1230,-1865],[915,-345],[949,-741],[979,-404],[1409,-2886],[2504,-2994],[1389,-1927],[397,-1582],[159,-1785],[1221,-1283],[447,-726],[709,-3467],[13,-2617],[150,-987],[1982,-1078],[1436,-1207],[808,-1297],[-585,-693],[-29,-2580],[997,-468],[1593,-1622],[790,-248],[1727,-30],[1697,130],[1040,-341],[1305,582],[1975,85],[2114,-766],[2250,224],[1181,-518],[575,-735],[1046,693],[1686,-791],[1759,638],[499,-114],[1305,-1036],[2207,-1034],[344,-11],[3391,1981],[2851,-90],[927,-260],[1374,175],[1630,-798],[1602,1254],[1225,114],[1812,443],[1545,560],[4294,10],[1294,533],[950,38],[949,-403],[956,-8],[1542,345],[2277,-225],[831,198],[1686,-257],[1937,-1153],[1115,6],[-317,-589],[-1339,-1090]]]}