{"type":"Topology","objects":{"districts":{"geometries":[{"properties":{"DISTRICT":"BARA","STATE_CODE":2,"PR_NAME":"Madhesh Province"},"type":"Polygon","arcs":[[-8,0,-10,1]],"id":7},{"properties":{"DISTRICT":"DHANUSHA","STATE_CODE":2,"PR_NAME":"Madhesh Province"},"type":"Polygon","arcs":[[-6,2,-18,3]],"id":18},{"properties":{"DISTRICT":"MAHOTTARI","STATE_CODE":2,"PR_NAME":"Madhesh Province"},"type":"Polygon","arcs":[[-16,4,5,6]],"id":39},{"properties":{"DISTRICT":"PARSA","STATE_CODE":2,"PR_NAME":"Madhesh Province"},"type":"Polygon","arcs":[[7,8]],"id":53},{"properties":{"DISTRICT":"RAUTAHAT","STATE_CODE":2,"PR_NAME":"Madhesh Province"},"type":"Polygon","arcs":[[9,10,-14,11]],"id":57},{"properties":{"DISTRICT":"SAPTARI","STATE_CODE":2,"PR_NAME":"Madhesh Province"},"type":"Polygon","arcs":[[-20,12]],"id":64},{"properties":{"DISTRICT":"SARLAHI","STATE_CODE":2,"PR_NAME":"Madhesh Province"},"type":"Polygon","arcs":[[13,14,15,16]],"id":65},{"properties":{"DISTRICT":"SIRAHA","STATE_CODE":2,"PR_NAME":"Madhesh Province"},"type":"Polygon","arcs":[[17,18,19,20]],"id":68}],"type":"GeometryCollection"}},"bbox":[84.48602239200005,26.422190956000065,87.01675020700009,27.46289220700004],"transform":{"scale":[2.53073034573038e-06,1.0407022917022648e-06],"translate":[84.48602239200005,26.422190956000065]},"arcs":[[[191901,897291],[795,-1078],[1625,1147],[751,-160],[90,1891],[974,3258],[1273,871],[1705,-740],[1272,1844],[860,98],[529,1546],[667,298],[524,-842],[692,643],[116,-1769],[443,-1423],[-169,-1201],[426,-2455],[-147,-2421],[1398,-2746],[1667,1770],[492,-242],[1298,863],[1107,-1474],[1058,-220],[1112,-1484],[240,1639],[-388,1896],[152,1363],[1208,1448],[1872,622],[739,1183],[564,-147],[287,-1553],[907,-1317],[1185,783],[541,1046],[1208,-241],[395,1205],[292,1230],[796,680],[769,-377],[514,1281],[923,-69],[352,1344],[1381,1037],[234,-1129],[881,-784],[-26,-1522],[503,-917],[1007,-95],[394,1046],[752,56],[145,-1230],[1550,3321],[1509,-926],[1112,111],[3145,-1720],[768,-780],[398,-2609],[1293,-1557],[-280,-3069],[609,-756],[366,-3831],[-28,-5077],[-443,-1336],[336,-3738],[420,-1786],[427,-3585],[1570,-3681],[185,-1584],[1537,-3538],[272,-2947],[730,-1100],[1008,-65],[631,-630],[859,362],[1861,-808],[420,-1354],[459,-2028],[15,-4921],[611,-3111],[-96,-1643],[363,-2375],[1500,-224],[808,-5764],[-191,-2880],[2193,-576],[2084,-2452],[513,-2799],[560,-1255],[934,-383],[887,-1800],[-219,-2786],[227,-1808],[300,-5463],[1343,-2739],[931,-1257],[189,-2506],[1209,-1665],[451,-1811],[822,-424],[1330,387],[1371,-1532],[1340,-646],[715,-4211],[332,-636],[1772,-1062],[689,585],[1495,283],[-586,-2852],[-839,-1862],[707,-1175],[1187,-1076],[3012,-1105],[1238,-1055],[1650,510],[504,872],[551,2677],[1070,901],[1694,-1833],[364,-2343],[599,-660],[2379,1530],[799,-2042],[1240,-679],[1722,1455],[795,-871],[846,-187],[1158,-959],[560,1954],[1367,2169],[902,876],[1585,91],[1028,-2012],[1372,-188],[981,-1370],[14,-1891],[1073,-5560],[1511,-2895],[-438,-3403],[319,-1395],[849,-799],[348,-1349],[1196,164],[1394,-839],[776,1721]],[[273661,429271],[-3291,-694],[-1003,59],[-2321,764],[-2330,1235],[-5421,493],[-1473,-1598],[-453,-1578],[-1892,792],[-2066,1449],[-558,1123],[-4965,1074],[-136,-1054],[-2095,168],[-272,-667],[-2102,227],[-1345,-3860],[-1295,423],[-1201,1291],[-871,-1753],[-690,-472],[-52,-1912],[1471,-4297],[-1087,-1233],[308,-1957],[-695,-403],[-448,-1275],[1137,-878],[46,-1026],[-1271,461],[-472,647],[-194,1645],[-601,-288],[-1602,2887],[455,-2675],[-1501,197],[-1224,-1480],[-1927,-463],[-169,-2465],[-819,-1687],[-437,117],[-440,4307],[1155,2477],[-771,1308],[-703,-1389],[505,-1532],[-411,-1107],[-1020,585],[-726,-1529],[656,-2540],[-392,-1176],[-5505,1760],[-893,565],[-3179,1370],[-1862,1011],[-2549,778],[56,1322],[2607,2940],[57,2976],[-610,457],[-297,3498],[171,815],[1133,99],[-804,3596],[372,1707],[47,1790],[1030,-387],[2095,971],[-28,1863],[597,280],[480,-2325],[1028,-79],[-308,1994],[560,2028],[669,513],[379,-1230],[1820,1209],[697,784],[140,3976],[844,-443],[623,-2552],[996,2096],[-75,1361],[-1525,1580],[-1000,-739],[-163,1614],[729,1130],[-3835,1470],[-3024,811],[-2714,456],[-2547,-131],[-823,1142],[-1138,486],[-4839,1171],[-568,398],[-830,1935],[-3581,5910],[102,1980],[1423,1140],[485,-1615],[1015,-287],[545,5108],[-1117,2387],[-2693,983],[-1627,234],[-2110,907],[-4337,1021],[-557,4929],[620,1557],[-960,2534],[957,1504],[-657,2342],[751,644],[525,1823],[1113,409],[788,3746],[-238,1101],[-890,1548],[50,1359],[1103,235],[-2854,9465],[-1556,5397],[-873,2085],[-576,712],[-316,1573],[-2297,706],[-462,-1155],[-1021,-15],[-766,1185],[-3004,2712],[-3966,3783],[-1668,838],[-868,-786],[-1209,-289],[-2682,1348],[-2886,-952],[-3268,2189],[-651,-495],[-1364,2827],[-1777,-378],[-753,-907],[255,2669],[-824,1734],[-31,1482],[-4169,2288],[-3618,2822],[36,1144],[-1117,-207]],[[561849,683520],[1367,-1111],[1192,-456],[731,-2280],[814,-603],[1495,-362],[629,-1452],[3405,-1901],[3224,-3766],[35,-2369],[-809,-5910],[-108,-2517],[443,-3372],[1492,-7780],[955,-3628],[363,-2634],[888,-1373],[673,-2334],[950,-33],[233,-1609],[-336,-2484],[1246,-376],[880,679],[2602,-4589],[-156,-2648],[562,-3348],[838,604],[282,-838],[291,-2987],[-257,-2721],[663,-1491],[742,-4282],[-99,-2131],[467,-2888],[-320,-1838],[729,-3873],[898,-2037],[371,-2422],[1072,-3368],[1939,-4673],[237,-2177],[1099,-1488],[457,-3723],[776,-2242],[1059,-1919],[1279,-488],[1350,-1126],[1032,-1860],[774,-225],[931,1009],[1595,-1813],[672,215],[586,-1629],[1122,1417],[2492,-788],[1459,1016],[884,-172],[1108,550],[2844,-898],[1818,-267],[1403,610],[435,964],[708,-320],[81,-1671],[707,-229],[2056,-684],[2085,491],[842,-79],[2286,524],[1330,-388],[2169,247],[843,-616],[1244,94],[1425,686],[1446,-270],[842,-740],[941,-2],[808,-647],[1109,-89],[532,-852],[1902,-1044],[2354,-2961],[1246,-744],[2067,-2490],[2320,-1945],[2219,-2926],[1961,-1944],[1463,-2463],[730,-117],[1003,-1332],[1037,-484],[2578,-3182],[3809,-2245],[1439,-2729],[1020,342],[1771,-2169],[844,-227],[985,-2141],[843,3],[1910,-2070],[598,239],[285,-1744],[-422,-2176],[196,-1084],[1485,1276],[427,-1466],[35,-1802],[742,-1004],[1931,-3855],[1172,-432],[872,-1636],[1973,-1884],[1712,-3069],[383,-1963],[638,-486],[1080,-3646],[588,-1436],[738,-814],[285,-1612],[685,-446],[299,-1795],[1239,-934],[1529,1235],[632,-48],[385,-1175],[49,-2122],[746,-2657],[1032,-1914],[422,-1818],[881,-681],[572,-1308],[1302,-1644],[1206,-956],[687,-1783],[1040,-1133],[1061,-4044],[-373,-1073],[116,-2480],[-177,-1335],[247,-2196],[881,-1786],[-170,-4506],[-1104,-2594],[-1604,-175],[-1556,2814],[-876,592],[-768,-2990],[-387,-3301],[-539,-2795],[-1723,-1931],[-589,-281],[-2944,668],[-1635,-56],[-704,-2447],[-249,-2202],[729,-6107],[-283,-3096],[-887,-1033],[-1144,1700],[-701,2469],[-170,3268],[-886,1182],[-2262,1817],[-1676,686],[-910,4127],[-562,1116],[-3170,-1286],[-2011,2199],[-2223,4422],[-1067,3266],[-791,956],[-2156,4310],[-1874,2842],[-1243,1519],[-1841,1435],[-411,3835]],[[657067,178946],[-951,-1466],[-775,-1885],[-2428,1246],[688,5687],[682,4065],[568,470],[-887,11132],[-1043,477],[-1671,-48],[-4916,792],[-346,404],[-7023,6369],[-5166,5930],[-4003,4470],[-1604,2173],[-563,3268],[-844,3271],[-764,868],[-5971,2314],[-10226,6149],[-177,-1374],[-1662,-1411],[-1424,-2559],[-2010,-551],[-760,-1197],[403,-861],[-446,-1551],[-168,-2141],[-546,-618],[-1560,2278],[-1187,-339],[-1208,-988],[-4796,1722],[-2553,520],[-655,808],[-1390,132],[-741,-1078],[-463,-2220],[-1173,194],[-782,-1741],[-166,-1187],[-1279,701],[-518,-2047],[-594,551],[-1582,-2064],[-1140,-2080],[71,-1474],[-600,-1600],[244,-1732],[-10,-2459],[-591,-1735],[296,-2689],[403,-718],[539,-2913],[-1642,-6365],[-777,467],[-1309,-3395],[2,-2762],[617,-1273],[-841,-4046],[-1211,798],[-871,-354],[-128,1299],[-772,1556],[-830,-640],[-1265,-1948],[-825,2411],[-786,-791],[164,-933],[-1059,-2498],[301,-1903],[-825,163],[-617,-634],[-664,791],[-2588,-1440],[-540,400],[-480,-2594],[-82,-1892],[-1127,408],[-1302,-1041],[-255,-1325],[-1205,-665],[-46,-855],[-894,-695],[382,-1864],[-314,-2949],[-1271,-362],[-487,-776],[-771,1162],[-709,-67],[-1550,-8375],[-120,-2516],[-1015,-1142],[-1196,1332],[-1036,195],[-620,-2206],[-985,-411],[-1366,-2526],[-662,1008],[-616,-1621],[-204,-2573],[-1104,-1409],[-597,-1536],[-1631,-1879],[-1288,1755],[-1423,-1346],[-359,-1781],[-1290,118],[-295,7646],[3725,12476],[-2029,13831]],[[526387,709906],[483,1206],[1164,1180],[1010,3168],[1088,1293],[855,-804],[1259,-404],[1819,-2984],[2292,-2453],[947,-1428],[-1138,-3990],[-336,-3157],[-835,-706],[-467,-1536],[-743,-854],[391,-2045],[1096,-2385],[1135,-437],[1708,-3240],[1344,-727],[1869,-2164],[452,-3635],[1267,-1166],[480,-2481],[1085,-2815],[802,781],[1696,5157],[1127,2667],[1051,1536],[371,1655],[2429,3705],[790,2742],[1753,-1163],[1401,-3719],[861,-198],[904,-1924],[1078,-1657],[861,-233],[649,-1660],[1464,-1511]],[[561849,683520],[-753,-1324],[-576,-3890],[-552,-1185],[1958,-7346],[1258,-2914],[2103,-2319],[732,-1897],[169,-2054],[1007,-3212],[1001,-1855],[3770,-3600],[980,-1207],[1264,-2798],[628,-3874],[110,-2565],[-279,-4188],[-900,-3895],[-376,-4107],[374,-2621],[3112,-7352],[546,-3582],[63,-2642],[-552,-2365],[-1506,-5142],[-1530,-3619],[-930,-4190],[-1116,-2196],[-1484,-680],[-885,418],[-1790,137],[-937,783],[-779,-533],[-398,-1130],[-418,-3466],[168,-1448],[719,-788],[1798,1553],[1441,-2204],[960,-3614],[13,-2279],[-510,-2162],[-860,-2429],[-1105,-2454],[-1480,-2722],[-671,-1910],[-706,-3088],[-786,-5405],[347,-4969],[740,-1671],[-215,-4763],[-28,-5089],[-372,-2475],[-1102,-5638],[-541,-5162],[255,-4470],[-304,-3978],[-819,-6585],[484,-2003],[4067,223],[122,-641],[-429,-4137],[-15,-5416],[-571,-1674],[-657,-3978],[481,-3983],[-195,-3613],[-676,-2339],[109,-2466],[224,-3326],[-481,-3771],[-1634,-1243],[-352,-2790],[-700,-1123],[-339,-1390],[363,-1756],[-413,-1448],[-347,-4683],[-852,-2856],[163,-2332],[-79,-1034],[-1142,-7170],[258,-2716],[-181,-2508],[459,-2526],[-1551,-4440],[-517,-2776],[210,-3029],[710,-1314],[1501,-806],[2277,-1974],[552,574],[1449,-755],[1788,306],[-474,-1984],[-80,-1639],[644,-1260],[-65,-2484],[511,-1578],[-137,-3918],[138,-1485],[618,-1188],[-505,-3474],[328,-813],[281,-3482],[-422,-1044],[70,-3507],[-548,-1125],[-576,-2942],[658,-3335],[-650,-908],[-235,-3983],[366,-4325],[-323,-4575],[-563,-2211],[-700,-3760],[-420,-1100],[-29,-1564],[466,-3294],[-236,-911],[-939,499],[-267,-1226],[764,-2728],[-721,-4186],[-316,-3195],[770,-1440],[-350,-2314],[-189,-5309],[-372,-714],[-759,209],[-750,-2664],[-467,590],[-809,-1800],[-365,-2500],[-769,-2406],[123,-1613],[-182,-2326],[64,-2644],[-857,-2961],[-1267,-3107],[-1705,-3033],[-2264,492],[-557,-2617],[69,-2203],[-525,-2523],[414,-2284],[-215,-2435],[-386,-1126],[868,-1640],[-16,-848],[1650,-1656],[1275,-4017],[-274,-3303],[173,-4065],[903,-3374],[674,-809],[54,-3435],[304,-1235],[-98,-2495],[-739,-487],[281,-2750],[-537,-1021],[27,-1439],[-756,-283],[154,-2142],[-332,-3454],[-554,-1038],[137,-2083],[851,-1452],[-1081,-2885],[556,-863],[389,-1751],[765,-771],[138,-2840],[1237,-1542],[96,-2674],[1540,-873],[1490,-2090],[844,-2814],[437,444],[264,-2634],[-290,-3524],[-661,-2144],[-166,-1736],[-478,-705],[-2015,-1508],[-82,-1328],[371,-1528],[2062,-1514],[1042,-323],[-595,-7208],[398,-2759],[-545,-1073],[-882,194],[-1276,-969],[-1380,-4801],[-1637,-694],[-796,-1592],[-454,-58],[-98,-2064],[-1008,-321],[-839,-1020],[-373,-3448],[-728,-1683],[-733,1211],[-1177,155],[-449,-2730],[-760,387],[-185,-1903],[-575,-1690],[-405,-2412],[-1498,264],[-943,-1090],[-194,-1170],[368,-1996],[-558,-5787],[-2851,601],[-168,-1738],[-954,-2089],[-483,-3960],[553,-857],[757,717],[20,-3937],[-625,-2206]],[[540911,174639],[-644,4109],[-1953,434],[-788,794],[-1638,210],[-2794,1003],[-648,236],[-81,-7341],[-237,-1982],[-3138,494],[-1955,611],[-478,1146],[-5127,10553],[-764,8987],[-2564,1242],[-2341,624],[-2794,1857],[-1892,496],[-3096,1219],[-3796,6047],[-2587,1556],[-1592,766],[-1457,2630],[-3038,6777],[-368,2024],[-1811,3341],[111,1698],[489,138],[472,1537],[277,4583],[309,1401],[-1053,521],[-697,1299],[-817,65],[-669,2394],[-1128,2248],[458,3158],[-646,569],[-21,7027],[-455,1378],[614,1327],[-583,1529],[-126,1619],[690,4998],[19,4154],[-649,2135],[520,759],[-172,2754],[761,3263],[-407,542],[-179,2543],[499,1310],[270,3503],[395,3003],[-485,564],[-289,2234],[844,4027],[498,-54],[-11,2311],[-318,1430],[1163,1639],[-743,3067],[367,1794],[1420,1612],[-1264,7437],[-842,4462],[1523,15149],[357,4219],[631,8328],[-259,16642],[-1150,2815],[-1173,3858],[59,5103],[-3045,11672],[-2687,4310],[-3922,7154],[-4360,4545],[-5133,6076]],[[191901,897291],[-140,-1910],[-904,-3584],[349,-1430],[-72,-2204],[-543,-2976],[343,-2844],[-923,-2337],[-274,-2094],[303,-8090],[1232,-4342],[454,-3082],[-612,-1532],[104,-4741],[-150,-847],[-1417,390],[-638,-926],[215,-2003],[-1571,-2185],[40,-2776],[-487,-4269],[999,-9598],[998,-5710],[1373,-4147],[694,-1313],[1690,-6839],[351,-2362],[-65,-4999],[-371,-3519],[-556,-3577],[-188,-2527],[-497,-3485],[-1419,-5706],[-559,-7820],[-104,-4209],[0,-3740],[388,-2576],[-254,-6164],[-281,-3900],[-1075,-3772],[-584,-5821],[479,-2930],[8,-3851],[-422,-3167],[-278,-607],[-1738,-1693],[-473,-2100],[-102,-2654],[-473,-2726],[-761,-2082],[-355,-2800],[-17,-3169],[202,-1862],[-178,-1768],[-1360,-6170],[-177,-2432],[178,-1473],[625,-1639],[742,1822],[760,-1068],[-499,-2171],[16,-2060],[523,-664],[741,-3347],[-583,-920],[0,-2355],[-558,-3295],[-911,-1860],[-195,-2098],[901,-2519],[1137,-2020],[1264,-1452],[-464,-2191],[-111,-2134],[421,-1085],[100,-2356],[-473,-3151],[-583,-611],[-338,-3580],[-867,-2048],[-812,-724],[-182,-1580],[-2043,-3143],[31,-5171],[-614,-1842],[-627,-135],[220,-2933],[-183,-4041],[288,-2767],[-1178,-2183],[-772,723],[-283,-1582],[-1437,-369],[-709,-598],[-1590,-5642],[1527,-2989],[-102,-1913],[456,-1920],[2485,-1525],[299,-510],[-239,-3769],[-470,-981],[-1062,-915],[-1518,748],[-1658,1920],[-2376,1079],[-2363,-8514],[-574,-2455],[-1408,-4930],[-2571,-9725],[688,-3415],[134,-2222],[-373,-2250],[-900,-3490],[1085,-1745],[1399,503],[2349,167],[1501,1017],[794,419],[-34,-1949],[-800,-1229],[-379,-2451],[-206,-3371],[-1207,-2520],[407,-2512],[-19,-1563],[-1071,-2833],[-758,-565],[-389,-2157],[-684,-31],[-398,-1863],[-644,394],[-952,-2977],[-419,-3005],[-1316,-464],[-491,-2084],[-843,-365],[9,-1808],[-931,-1488],[-874,-4016],[-2021,-1302],[-595,-1075],[-358,-1771],[-739,-1495],[-1328,-1309],[-1249,2104],[-1373,-48],[204,-1313],[-594,-3619]],[[151091,539352],[-572,421],[-1134,2792],[-1199,835],[-787,-565],[-368,1612],[550,1092],[-968,2250],[1160,310],[90,1952],[-488,1633],[297,1258],[-1739,197],[-509,1356],[-260,3376],[779,3232],[749,446],[-153,1308],[-6416,5619],[-2362,3024],[-1091,2208],[-768,265],[-868,1085],[-1174,384],[-1171,-756],[-809,181],[-802,-572],[-788,-1826],[-412,-1960],[-517,-329],[-411,2434],[-603,-282],[-686,-3262],[376,-786],[684,1187],[442,-440],[-2,-1836],[-341,-1745],[-852,1018],[-404,-1608],[65,-1879],[-508,-2022],[-1657,-1777],[-340,-3354],[-377,173],[-191,2333],[-675,760],[-382,-3644],[-646,-1386],[-374,-3024],[-2079,2570],[-889,-68],[588,5020],[-329,1616],[449,566],[295,2524],[-900,470],[-974,-949],[-625,3287],[48,2482],[-3669,3401],[-944,-466],[-1464,-3149],[-1010,-923],[-424,-2473],[-538,-1404],[-562,-3256],[-398,-1053],[-1219,-1541],[-3526,3875],[-5836,6615],[-1565,1134],[-594,-1374],[-1656,169],[-1465,1421],[-316,2281],[-730,139],[-269,2145],[-727,20],[-192,1494],[-1762,-30],[-3226,5341],[-5978,3344],[-2526,1671],[-5967,5619],[-3402,3065],[-1630,1686],[-3650,3266],[-35,2019],[555,106],[-399,2182],[1257,443],[-681,5127],[-101,1756],[-496,1516],[568,1471],[297,2343],[-719,1833],[494,548],[525,3600],[544,798],[-458,1903],[355,2619],[1380,1333],[574,1143],[150,1946],[1625,-1207],[277,1942],[-1326,1468],[631,1554],[896,-1704],[482,2028],[1841,1482],[-257,2390],[243,691],[1016,-1633],[116,2670],[1019,-442],[465,1571],[-1500,1330],[-921,153],[256,1361],[1104,-1023],[751,1915],[272,2516],[1281,-2162],[490,500],[37,3647],[267,1126],[-100,2818],[-546,880],[168,3691],[-1325,-1767],[-377,3003],[575,924],[430,2388],[865,153],[928,1134],[9,3803],[-690,1606],[136,2546],[1303,3808],[-423,2045],[521,2841],[-654,214],[393,2263],[502,417],[656,4188],[850,3596],[-341,4340],[206,1761],[-994,1141],[559,1264],[48,1550],[670,1180],[984,3774],[-822,1536],[-1122,-1500],[-834,1940],[-1052,1725],[186,2717],[383,1071],[890,473],[168,1444],[-801,1261],[-1005,-702],[-327,1841],[2111,3576],[599,2168],[-326,2445],[1368,1459],[-1007,2204],[-409,-390],[-752,2806],[924,1800],[315,2611],[-4,1836],[368,4079],[-948,2153],[-195,1514],[1033,2223],[403,2500],[649,972],[-51,1484],[593,658],[-1049,3447],[865,580],[335,1733],[1230,-230],[-446,2651],[-48,4697],[-124,1192],[-747,143],[-825,2462],[182,2463],[-958,3670],[-527,3670],[-308,299],[-1846,9200],[-370,1197],[-1439,6899],[-7478,32797],[-1966,8439],[-1975,8017],[-2459,9442],[-1847,6796],[-3695,11933],[-158,756],[-1402,1440],[-4002,-1371],[-224,-930],[-1511,1408],[-343,1171],[-1441,407],[-2481,1912],[-646,-173],[-1001,897],[-1131,44],[-628,996],[-1410,350],[-1305,1360],[-1100,258],[-4034,3024],[-1049,-103],[-862,581],[-2649,1026],[-2290,-462],[-1099,661],[-1317,69],[-1301,1033],[-1855,-318],[-1703,1228],[-399,-413],[-794,1074],[-1286,192],[-876,1320],[-1051,-1001],[-2159,559],[-762,1219],[-1348,359],[-1427,-167],[-520,1060],[-1400,45],[-2831,1612],[-633,-110],[-1667,1101],[-178,2228],[-521,2778],[-92,2251],[556,819],[852,2322],[189,2047],[1592,1023],[677,1358],[66,1285],[679,1328],[2436,-139],[274,844],[55,2432],[604,1131],[2323,-363],[489,1524],[3428,1636],[1694,-681],[2488,-2237],[805,2833],[2596,1357],[163,2160],[-1423,3680],[-179,2417],[-349,4082],[77,3408],[432,1555],[1132,494],[1880,-455],[960,368],[401,800],[-258,3409],[-503,1703],[-1673,673],[-580,981],[-2034,778],[-663,1595],[1680,1175],[557,2174],[631,1258],[801,506],[677,-1474],[1823,-128],[-91,8576],[836,3153],[361,2590],[183,4294],[519,1799],[589,588],[704,1767],[153,2787],[486,4420],[-360,2100],[634,2720],[-207,4191],[221,1622],[1025,2383],[1753,564],[536,-693],[477,-1826],[2115,-1695],[89,-1959],[1035,-2644],[1060,414],[891,-202],[980,1922],[897,-77],[612,-1578],[1499,-1184],[1784,1293],[1323,-1048],[532,-1766],[1646,1969],[948,582],[953,-1971],[1890,-811],[1730,204],[1082,-436],[682,-1346],[1142,257],[931,772],[384,-1676],[640,-505],[384,-1345],[1368,-2628],[1400,-572],[1156,201],[578,-1238],[48,-4222],[188,-2055],[645,-1497],[251,-3416],[290,-1653],[548,-286],[1802,1309],[1549,2139],[1204,-514],[854,831],[489,-3238],[716,-139],[2340,-422],[2831,325],[2430,1007],[747,1218],[1857,761],[1280,-261],[3471,-109],[905,847],[1465,-502],[502,-778],[1352,820],[637,-801],[1414,-428],[364,343],[-117,2442],[638,1512],[-53,1469],[429,1699],[1010,1815],[388,2796],[1045,345],[2423,-125],[196,-1873],[1431,243],[591,-1807],[856,1520],[606,5],[2293,-4308],[1023,-328],[1491,-1461],[956,1668],[2383,-54],[390,537],[1465,-729],[654,1633],[502,-432],[1227,194],[188,-926],[1751,-1375],[190,-1128],[1815,262],[623,1446],[1988,731],[1003,-645],[1490,-1956],[-52,-2077],[3466,-6497],[1206,-1422],[-245,-746],[745,-7433],[1087,792],[877,2086],[1479,445],[1278,-463],[1250,581],[1807,-3210],[1388,1435],[888,-1179],[813,-2100],[776,556],[423,-1020],[29,-1868],[1192,122],[628,-2807],[633,-258],[640,-2421],[926,-2422],[-333,-1047],[487,-3804],[1765,117],[1454,-505],[413,-765],[737,351],[541,-887],[1585,510],[1464,1510],[2043,-1503],[705,-1362],[-289,-945],[195,-1798],[953,-3839],[680,-1379],[2278,1348],[697,-17],[379,-1665],[899,-105],[1526,-2589],[79,-3698],[462,-3133],[855,-2492],[649,-270],[1571,2605],[1002,-378],[681,-1620],[443,-135],[923,-2287],[1293,-352],[662,-1262],[914,-320],[765,-1884],[1099,-4356],[1099,360],[1114,892],[433,-933],[1206,1793],[509,-747],[1471,51],[39,-2476],[887,319],[1635,-1911],[710,522],[361,1160],[89,2056],[589,1510],[1024,-613],[800,-2745],[-435,-2172],[552,-1958],[405,223],[1647,3075],[909,1014],[279,-585],[-71,-2755],[340,-1595],[762,-1556],[777,-638]],[[273661,429271],[-273,2443],[-748,847],[-1218,153],[-767,1325],[-1149,3935],[488,1605],[745,-1706],[769,-638],[701,485],[-391,1890],[6,1654],[-659,989],[-484,3166],[-111,1932],[-1065,2170],[-549,126],[-52,1972],[1527,-252],[2043,-767],[850,2084],[-163,3168],[-810,457],[-913,2096],[269,1787],[1730,-564],[167,1694],[-78,2855],[404,1328],[-398,1307],[-19,2246],[-372,2024],[-583,660],[-905,2447],[452,2636],[-460,2451],[896,-459],[572,1110],[1247,1182],[385,1957],[70,3667],[-267,3188],[-751,-19],[-361,-1368],[-1149,551],[-955,953],[-121,1495],[-1319,1615],[-78,1071],[-1049,1415],[-113,2359],[1631,3508],[2366,-1318],[530,1255],[95,3521],[-2184,3698],[-537,3406],[985,3246],[-332,2634],[424,6856],[379,994],[284,3613],[-240,3279],[-1152,1729],[-1876,-170],[-398,1029],[334,3595],[453,2764],[930,2758],[645,2756],[727,168],[-145,1566],[471,2592],[802,1100],[812,348],[-404,2291],[813,1846],[72,942],[1458,2032],[1088,572],[1147,1427],[148,1541],[-379,1584],[140,1285],[-1499,692],[-570,3127],[522,2563],[569,1209],[533,-304],[823,1087],[1874,154],[893,678],[827,2285],[202,3142],[348,1055],[-271,1500],[-2145,3186],[-2186,1057],[-1274,-1223],[-1556,386],[-693,1753],[-126,2253],[663,1073],[4022,-356],[461,-363],[3917,617],[334,2155],[-715,1461],[-905,-556],[-920,1290],[617,2207],[586,996],[154,1404],[-625,2504],[-1459,-180],[-994,-2306],[-1363,-651],[-1336,1901],[241,2406],[1136,2238],[425,2650],[477,-45],[1187,3627],[-66,3902],[664,1087],[1387,-2461],[938,1236],[400,2301],[-178,2557],[-806,3176],[-908,1062],[-589,3689],[933,2346],[626,-624],[501,2043],[1132,1706],[-96,2741],[-689,2906],[436,2159],[-248,2371],[-1298,2780],[-529,6238],[370,3878],[1570,5303],[2010,4008],[1842,2890],[657,719],[2176,3575],[888,1039],[1320,2227],[2992,5903],[-173,3080],[229,6621],[514,1973],[762,1037],[2866,7304],[1066,1659],[723,2205],[270,3311],[88,5134],[1087,7142],[-57,4431],[400,3304],[123,5974],[337,1604],[1061,3242],[200,1990],[535,2157],[907,2588],[206,2441],[1040,2711],[224,3620],[1013,2196],[-129,1830],[-943,2289],[-146,2516],[248,1946],[2171,2031],[1095,2330],[-660,1543]],[[310405,774078],[403,703],[1362,804],[2265,-833],[432,2349],[2867,-172],[2032,1808],[1284,-666],[727,-1044],[1027,-657],[1314,-511],[1326,1835],[979,-1271],[965,36],[1382,-2551],[633,-639],[1402,-450],[884,-1306],[3221,-2379],[580,80],[1609,-2464],[837,-800],[848,1078],[2599,1474],[448,-149],[593,-2440],[1329,-3643],[1205,-2481],[670,97],[345,-2118],[1271,1607],[2119,-967],[576,207],[1359,-1860],[1493,1970],[1720,-2992],[1143,-1378],[1320,450],[844,1629],[1023,-636],[499,1315],[1323,-2784],[300,-1266],[-452,-4915],[132,-2310],[933,-1844],[1355,95],[499,-472],[893,687],[1385,-90],[1687,-2441],[944,-2909],[926,-1250],[1475,1061],[901,1651],[924,144],[559,-1347],[1100,-990],[1238,-416],[844,-2647],[2035,-549],[1047,548],[1663,-671],[770,-2558],[-225,-3523],[806,-727],[735,-2198],[-347,-1743],[-82,-5296],[248,-1598],[1144,-677],[551,-1516],[2362,456],[1700,-919],[485,-2276],[1525,-1387],[591,787],[2423,252],[2370,1424],[1126,1445],[1978,3847],[446,3609],[1009,340],[1267,1680],[868,-2045],[98,-1023],[-487,-2148],[-983,-1845],[441,-1801],[1168,-1062],[86,-1916],[-504,-868],[-2789,654],[-979,-1011],[-403,-1353],[-1031,-5924]],[[332858,309553],[-1604,612],[-97,1320],[-991,2171],[-1611,422],[-2513,2004],[-1334,657],[-3663,468],[-2252,464],[-2657,193],[-1770,145],[-7535,1723],[-1165,1105],[-1284,1776],[-2502,2074],[-2981,1458],[-2307,678],[-1162,-335],[-3533,-2025],[-1330,-1327],[-2912,-835],[-2324,3477],[-679,1627],[-1453,5444],[-1182,638],[-2317,12103],[758,394],[495,1742],[-24,1358],[-657,2689],[119,1595],[-523,1177],[-2160,-519],[-201,1079],[319,1848],[-363,1568],[-1423,-879],[-671,679],[-500,2610],[1051,1642],[140,1007],[-2246,8480],[99,5256],[3049,6703],[854,3547],[834,1416],[864,3787],[161,4138],[454,3165],[-201,1015],[-604,6961],[127,4924],[719,10299],[-98,3617],[-411,2076],[-664,1152],[-2753,-249],[-2583,-596]],[[809112,351954],[2161,-2118],[-172,-2144],[889,-1240],[476,843],[1436,-652],[1885,-1304],[131,1727],[1136,2843],[664,-34],[508,1071],[788,338],[486,2031],[1861,-687],[458,802],[772,-2074],[99,-2595],[-242,-2498],[621,-1864],[746,612],[913,2687],[964,595],[868,-781],[995,100],[-381,-2299],[336,-1866],[-255,-1028],[16,-3027],[-344,-1568],[-1036,-2536],[-432,-1645],[28,-1483],[-1526,-167],[-418,-1905],[9,-1743],[-673,-821],[-273,-1517],[-845,-2407],[-766,-1240],[-225,-1352],[-1025,-2749],[-146,-1966],[-595,-1824],[-625,-848],[-577,-1745],[43,-1394],[1084,-1048],[1378,123],[1348,-376],[1649,-1341],[1007,-2167],[1655,-1047],[-95,-2206],[-772,-3939],[472,-2609],[-146,-3311],[-321,-2290],[159,-2308],[566,-1650],[1540,-1620],[939,-2062],[199,-3410],[1063,-718],[-728,-4080],[774,-3720],[43,-2478],[971,-939],[552,-4389],[478,1228],[1049,-129],[1847,-265],[1236,685],[824,2048],[683,-489],[93,-2405],[677,-2014],[153,-1391],[896,-2184],[1546,-1623],[941,4435],[1208,1094],[880,-1100],[976,-473],[1518,-2745],[988,-256],[243,3838],[1182,346],[892,2172],[306,1539],[1785,-930],[983,648],[887,-1044],[1405,-4270],[196,-2046],[795,-822],[1062,1804],[1360,329],[368,-429],[401,2292],[862,2156],[240,1689],[1465,4538],[315,1778],[694,-616],[964,-2497],[-45,-1267],[812,-2899],[-439,-1154],[304,-2119],[725,-1206],[2056,-1554],[466,-1056],[2409,-1340],[2694,2024],[720,2327],[1374,2978],[628,2434],[1594,1046],[323,3910],[884,1587],[-28,1579],[1042,590],[804,-436],[982,352],[397,893],[1715,-1278],[1085,864],[544,1792],[2022,57],[997,1544],[700,-892],[536,1460],[2080,-17],[669,-2179],[-166,-3743],[946,-660],[347,-3656],[531,-1401],[519,-154],[360,-2334],[879,841],[1747,-2716],[274,-2057],[-400,-2370],[-256,-3763],[476,-265],[237,2022],[1018,852],[541,1945],[95,1484],[878,2467],[1318,-634],[1004,2317],[703,710],[429,1420],[945,-762],[1075,1590],[537,2007],[1295,298],[1043,-983],[211,1333],[938,1647],[1178,976],[828,1824],[1178,414],[938,2194],[1158,149],[858,1943],[621,209],[796,306],[1556,-1871],[296,-2078],[1357,-462],[655,-738],[632,464],[205,1302],[1311,-343],[1220,2799],[600,1969],[1470,-833],[369,-678],[907,-247],[1993,-1254],[872,-1253],[-12,-1980],[460,-883],[491,-2436],[86,-5627],[477,-1331],[212,-1840],[-441,-1383],[-127,-1871],[765,-651],[513,2005],[1207,409],[680,-1751],[1065,1618],[-163,2843],[1152,-255],[1378,2182],[597,-252],[237,2362],[931,1080],[970,-861],[681,69],[-138,5683],[521,3363],[1526,1933],[264,747],[1309,-197],[820,-577],[902,591],[1607,-1644],[759,819],[316,1661],[1117,3218],[40,1579],[470,1515],[957,1688],[787,1990],[1558,2159],[57,1507],[531,1295],[635,51],[1096,2541],[222,2212],[-432,898],[1519,1700],[0,1652],[1245,468],[332,1710],[-608,1786],[-405,3187],[145,1468],[-224,4315],[324,3171],[-298,3573],[1926,1148],[1924,3531],[615,1738],[677,564],[1329,-2468],[504,-1342],[589,-4885],[-310,-2045],[-856,-3653],[-34,-1520],[1239,-3201],[743,-2823],[1065,-2885],[2372,-4104],[644,-353],[1708,-2985],[1893,-753],[822,259],[1899,1632],[3045,1700],[1281,-229],[1126,-3161],[418,-2342],[294,-5018],[594,-2966],[953,-2337],[1591,-2036],[714,-531],[904,-3767],[153,-2387],[-198,-4276],[345,-2093],[1415,-3315],[1099,-1479],[172,4285],[648,729],[757,-907],[638,1553],[1595,2964],[-38,1746],[551,1073],[532,-1559],[1819,184],[877,1793],[-161,-2760],[208,-2314],[1145,-4676],[380,-3745],[-16,-3530],[144,-3698],[-1034,-2738],[-378,-3374],[468,-2590],[83,-2925],[466,-1815],[36,-4253],[-217,-776],[-2300,-2957],[-391,-961],[-624,-4196],[-725,-1644],[-131,-3474],[-550,-1127],[-940,117],[-1426,-1138],[-450,-1939],[-1050,-2386],[-247,-2712],[237,-1720],[-1014,-3763],[120,-3543],[-119,-1464],[-1210,-1757],[-241,-1934],[358,-1349],[-121,-1557],[-2614,-3609],[335,-1750],[2024,-6720],[818,-3161],[878,-5443],[104,-2500],[-195,-1696],[-1760,-7230],[-756,-4956],[-107,-2745],[474,-3400],[913,-2529],[1689,-3016],[675,-1915],[277,-3723],[-1695,-3388],[-1433,-3348],[-1344,-2574],[-1817,-2614],[-1042,-1816],[-341,-1516],[-673,-3027],[-1012,-1707],[-412,-2657],[-563,-2028],[-1779,-3017],[-1952,-878],[-1186,-3045],[-1161,-2107],[-2072,-381],[-1863,-1234],[-910,-920],[-2116,-1000],[-1070,-2961],[-1622,-3775],[-1131,-3343],[-979,-4538],[-998,-2428],[-729,-3276],[-353,-2598],[171,-2522],[613,-2515],[-594,-2737],[-664,-1461],[-1170,-878],[-716,-2579],[-97,-1176],[-1210,-2532],[127,-1730],[-929,-1364],[-187,-1087],[-4311,-607],[109,-1449],[-727,-60],[-74,-2084],[-511,-2061],[986,-3520],[-365,-918],[749,-5038],[-354,-3004],[738,-82],[92,-2767],[-381,-1896],[81,-1554],[-1038,-850],[-1926,66],[-1092,-484],[-828,-2346],[-1425,-614],[-828,-1979],[-619,-203],[-349,-1272],[-819,-199],[-677,608],[-1289,162],[-301,2278],[-537,376],[-998,-1153],[-634,-97],[-96,-1692],[-515,-565],[-20,-1809],[-655,-778],[76,-1574],[-450,-1083],[-1686,-874],[-827,985],[-1492,-355],[-148,-4184],[591,-1080],[-247,-1012],[-762,799],[-622,-2188],[-1450,1052],[-516,1153],[-373,-2304],[-764,865],[-643,-1951],[-11450,7015],[-4705,3558],[-4889,4480],[-2461,2072],[-1279,1312],[-634,1173],[-1528,-637],[-1068,-2804],[627,-4441],[-752,-354],[-720,678],[-61,-3314],[-1224,-404],[-514,-1084],[-913,-97],[-310,-1036],[270,-1903],[-150,-1341],[-708,-48],[-793,-1368],[-794,-4186],[-952,-490],[-221,-1654],[1007,-136],[-150,-2790],[288,-1922],[-1169,-1107],[-1380,-3074],[-1190,1064],[-141,-1979],[-570,-204],[-1321,888],[-487,-1720],[-742,1174],[438,1763],[-860,1013],[-448,-1763],[-869,1313],[-1949,8365],[-6028,1517],[-1803,727],[-135,1944],[-567,3411],[-1077,1388],[99,4464],[-334,217],[-477,395],[-258,1610],[-1219,-267],[-5360,3062],[-7421,4432],[-7244,4593],[-484,418],[39,1576],[-798,841],[-799,-243],[-497,-1430],[-579,1130],[-67,1622],[-801,1249],[-1339,618],[75,2702],[477,1710],[-5,1338],[692,1984],[-471,1359],[-859,-179],[-17,2021],[-899,-201],[-789,1025],[-389,2542],[-817,-734],[-452,905],[-856,207],[-299,1614],[-713,449],[-362,-1287],[-770,971],[-5097,3822],[-3278,2735],[-2921,405],[-1181,653],[-3147,1894],[-352,2105],[-1877,3200],[-468,1946],[61,1549],[-878,3819],[-2453,5544],[-358,1450],[541,1299],[-475,5741],[-1080,-553],[-524,3310],[98,2984],[-1070,1256],[-335,2039],[-861,1331],[-1204,3334],[-688,8],[-1084,1019],[-2341,1157],[-1289,2013],[-2532,620],[-1565,-2409],[-822,-1705],[-4907,1865],[-2373,1116],[-1874,3604],[-2617,3594]],[[332858,309553],[571,2021],[1308,2722],[407,1345],[354,3791],[151,5155],[400,-445],[1764,445],[1161,-758],[1808,197],[1047,661],[949,1248],[-373,2884],[-1816,1911],[44,2924],[267,1769],[-279,3682],[-2429,1021],[-2772,96],[-583,924],[2448,2483],[1030,2799],[477,3647],[-315,2398],[-2162,5091],[-1249,3409],[-2299,269],[-1129,3840],[-487,1841],[1009,2049],[288,2110],[-645,3098],[661,2595],[643,753],[197,2259],[506,1935],[703,476],[864,2240],[-77,4093],[496,2358],[793,4281],[511,1417],[1070,912],[500,-874],[2395,879],[915,610],[823,1750],[662,3707],[19,4691],[-528,2820],[-3262,4345],[-206,1063],[-2,488],[-269,1933],[414,1849],[582,-139],[1060,1523],[288,1841],[717,822],[1042,2059],[1429,1482],[714,1306],[1467,1596],[998,-151],[2497,2027],[868,2531],[1613,2058],[1148,2631],[1132,539],[1605,-8],[731,-1069],[1061,1024],[657,2532],[-37,2928],[1063,5212],[-560,2615],[-90,1672],[-950,2134],[26,3098],[-325,1591],[-333,3982],[-221,4363],[91,1463],[-932,2108],[-371,1728],[-2,2246],[352,2711],[920,1695],[696,3680],[1164,2931],[1349,4694],[544,4776],[-446,8883],[1191,3125],[-703,1555],[-372,1836],[60,1443],[504,1477],[-647,4248],[-670,2693],[-103,1902],[384,1430],[340,2843],[1396,2956],[-135,2870],[148,3101],[-201,1956],[-1076,3215],[-259,3681],[-1921,4883],[-894,1015],[-744,2734],[10,3586],[-991,2773],[401,1594],[601,4199],[1205,2605],[1183,1248],[758,2488],[8,2354],[1349,2023],[315,5536],[677,2635],[2367,697],[744,780],[661,2102],[74,2099],[-203,2056],[359,3080],[1158,3833],[1481,2106],[1109,151],[661,976],[169,1498],[-92,6472],[516,1733],[2546,2445],[793,1446],[318,2516],[-985,5826],[-179,3568],[212,5970],[1073,3876],[964,741],[1260,-703],[966,756],[976,3061],[768,1394],[539,4736],[876,1782],[1834,1881],[626,2241],[535,943],[1546,1249],[739,1533],[1785,4529],[1097,3636],[141,1930],[-361,2737],[638,3764],[1261,2858],[977,866],[619,1285],[1917,2338],[1533,4179],[282,3774],[619,2923],[-6,2457],[-623,4287],[136,1193]],[[397418,703478],[674,-503],[967,-4307],[803,-2943],[2107,-2877],[1273,276],[2131,-398],[1165,-1390],[1330,658],[2081,-1729],[2714,-440],[1065,578],[617,1516],[244,3379],[676,1947],[1131,462],[1766,-2114],[49,-1486],[1004,-144],[985,-2174],[-189,-1613],[1991,-50],[-942,1563],[167,3241],[504,601],[1417,373],[1208,-2142],[1038,-670],[674,819],[1574,-1147],[1193,-35],[93,-2112],[673,-3951],[1706,2553],[1307,3540],[841,472],[1116,-1183],[792,763],[1393,-560],[1311,-1748],[912,-454],[840,1937],[1407,849],[1052,-1705],[611,-1949],[1220,-153],[2023,2063],[572,-927],[1788,-636],[652,-1125],[948,1685],[847,-1480],[1334,-1627],[1127,467],[902,3287],[2054,794],[676,714],[426,-762],[932,1021],[411,157],[1221,2217],[1025,4767],[641,614],[680,1637],[974,-331],[-106,2361],[677,573],[1844,474],[1084,3600],[161,1773],[1589,2190],[578,2335],[926,693],[1625,1],[1654,2078],[1559,4983],[130,1841],[785,83],[850,1177],[843,2293],[583,863],[456,2929],[1371,1889],[555,34],[1170,-1179],[903,98],[3771,2714],[1293,417],[1196,2708],[566,3237],[542,790],[738,-341],[1617,-2540],[1462,-1456],[1762,-238],[1547,-2362],[1175,-482],[1142,799],[493,-1614],[974,-770],[1077,58],[2017,-1210],[359,-909],[1243,-1159],[2086,-127],[695,-1631],[1450,-2232],[674,228],[434,-1204],[1587,-1313],[511,-911],[582,340],[2040,-1837],[575,-2256],[1046,-1836],[1416,-1751],[873,-10],[2010,-2566],[838,-655],[1404,-2317],[875,118],[1082,-641],[656,213]],[[526387,709906],[-258,-1690],[-1088,-1272],[-831,-2508],[138,-4049],[-1430,-2941],[-798,-2621],[-1572,-2792],[-563,-2770],[-381,-675],[-1918,-931],[-351,-1853],[68,-2429],[-387,-2790],[279,-2283],[823,-3120],[960,-1041],[-9,-1177],[-779,-740],[-850,-1644],[-661,348],[-255,-2512],[1270,-1857],[821,-382],[600,-1362],[-611,-2339],[-1061,-1820],[-622,-1914],[156,-2059],[910,451],[514,1435],[1499,-600],[495,-2286],[-469,-2078],[-304,-2807],[-461,-457],[-1172,1088],[145,-1673],[972,-1423],[-87,-2472],[-956,-1060],[-397,1388],[-645,606],[-893,-395],[-752,-2603],[-573,129],[-360,-1852],[759,-1431],[-679,-1937],[-577,-773],[-211,-2734],[-875,-1337],[169,-2557],[-514,-2339],[328,-2348],[-844,-3456],[-739,-1442],[-2856,-8482],[-1117,-2723],[-892,-3438],[-1207,-1936],[-1703,-1914],[-465,-899],[-1081,-4142],[-761,-4205],[-590,-2298],[-1230,-3572],[-281,-2963],[172,-4428],[-1474,-9049],[-1242,-4491],[-379,-3313],[-39,-4311],[-546,-4224],[401,-3872],[-5,-3524],[-1147,-4304],[-803,-1093],[-129,-1486],[546,-4702],[-257,-2072],[-722,-3150],[84,-3817],[-392,-2346],[-930,-1681],[365,-2791],[-1189,-4173],[-386,-5186],[-1140,-1684],[-264,-2373],[-1420,-3099],[-55,-3388],[-516,-1744],[588,-1292],[-1200,-3177],[443,-2065],[-776,-1318],[-1687,-1442],[343,-1862],[-406,-1065],[898,-2842],[-759,-712],[-807,1111],[-692,-934],[-280,-1249],[1616,-987],[82,-2225],[-1583,689],[-608,-1193],[732,-740],[-221,-1527],[107,-2793],[1304,-1783],[311,-1271],[-549,-1284],[-580,1140],[-532,-697],[-703,-4243],[-1,-1175],[1593,-316],[-1629,-2311],[-712,-4278],[-1941,-876],[-431,-936],[108,-1764],[-533,-2295],[-350,-4940],[-297,-2058],[-1242,-2459],[-1063,189],[-422,-660],[335,-2720],[481,-590],[-341,-2507],[105,-1815],[-374,-1604],[-1006,1105],[-932,-1064],[-64,-1213],[-712,-1042],[-323,-2026],[-1810,-3081],[587,-1955],[43,-2811],[273,-1245],[-728,-1428],[-46,-1378],[576,-3774],[1022,-3769],[-124,-3969]],[[472793,404321],[-337,424],[-6486,4074],[-5303,3145],[-2850,1950],[-3144,18253],[-4136,1384],[-1811,-3954],[-4719,-11216],[-626,-988],[-5380,-6001],[-1675,-1716],[-871,-1400],[-399,2913],[633,2122],[-1528,5915],[-812,-1132],[-117,-1191],[-780,33],[-4,3033],[-593,-71],[-528,1528],[-1292,-3953],[-997,-5499],[-1365,-9313],[-150,-550],[-3187,2946],[-1674,-9321],[-3630,3324],[-708,-221],[-5933,-14652],[-3008,-7577],[-4275,2011],[-591,291],[-2196,-1965],[-834,-1244],[-803,-1590],[379,-1331],[-696,-778],[372,-1538],[-334,-2621],[-10,-1834],[-602,-1812],[543,-2054],[-523,-2018],[-6009,4821],[-486,-265],[-216,-3543],[104,-3335],[-368,-1992],[-1686,-2511],[-2390,-1334],[-1483,-446],[-642,-1317],[-1494,-1797],[312,-888],[-1411,-1198],[-802,-1350],[-800,30],[-3098,3330],[-260,520],[-3093,3311],[-1078,1100],[-699,-2628],[-712,-1101],[-1847,-172],[-760,988],[-1818,3173],[-3992,815],[-618,-1954],[-498,-3292],[-836,-2783],[-1975,-4209],[-2244,-3048],[-3109,-1121],[-1206,-4951],[-348,-844],[-1274,-5609],[-723,-1568],[-524,-53],[-1112,-1884],[-680,-383],[-1613,1131],[-806,1220],[-655,2307],[-2604,-2992],[-2833,-5974],[-5347,-11811],[-3222,3033]],[[657067,178946],[1214,3837],[656,2715],[755,4222],[839,5986],[-124,2121],[-527,3042],[-579,1730],[-715,946],[72,2451],[307,1152],[883,1368],[2678,1149],[480,-48],[1093,-1773],[1343,1828],[378,2223],[10,2668],[307,5175],[707,1277],[1983,-83],[2451,2313],[419,958],[921,4237],[1199,3287],[1499,630],[1567,2474],[434,2504],[-410,5118],[112,2198],[1236,7784],[-213,1580],[-1025,1935],[-834,8513],[-706,528],[320,1368],[194,879],[-218,2298],[-737,4073],[208,1028],[122,4039],[-1502,2413],[-341,3174],[-588,1956],[-1116,1414],[-831,4769],[-121,2640],[-711,4136],[-821,2783],[-474,3157],[-8,3380],[-538,3961],[-520,1409],[-846,814],[-911,186],[-2367,-224],[-1557,2200],[-930,3022],[77,2276],[-1084,5247],[-2132,5097],[-526,2662],[324,2290],[-195,5912],[-651,3389],[-701,3409],[348,2809],[1696,3936],[431,1643],[610,5684],[26,3387],[-340,3406],[396,4189],[455,1960],[462,4109],[-41,2148],[-354,1786],[-1644,5876],[-161,1431],[130,4298],[385,1957],[951,1937],[573,2508],[234,2807],[-562,1976],[-159,4265],[-1493,1672],[-2024,2761],[-685,4882],[-1112,2694],[87,2378],[624,3357],[-416,3042],[-1279,4038],[-1013,5493],[-140,2743],[223,1274],[-1256,2177],[-298,1835],[45,1772],[840,3115],[356,2237],[-512,2768],[-369,3309],[-44,4113],[257,5277],[493,1968],[870,713],[573,2433],[846,827],[438,2574],[1140,3170],[1715,2388],[721,2489],[1001,1871],[1043,945],[884,156],[677,-1278],[-530,-3845]],[[661394,487608],[-482,-3331],[53,-2448],[541,-1753],[-730,-3052],[386,-1482],[1081,-1624],[447,-1296],[846,68],[2215,-816],[264,-2973],[1340,-1980],[541,-270],[1394,-6794],[657,-1406],[775,-48],[577,936],[860,-27],[623,-1305],[439,-4463],[1260,224],[1562,-672],[337,-1073],[1171,-615],[565,-1838],[1346,-1677],[1810,-1278],[2802,-3590],[1606,-1685],[1560,331],[1800,-1442],[1935,-5155],[743,-1278],[2600,-7061],[576,-1102],[1890,-1489],[915,1831],[256,1647],[1665,1951],[910,1761],[117,1127],[2322,2640],[593,1476],[1586,1210],[698,3248],[493,972],[1440,779],[1400,1216],[1284,-188],[1887,2059],[1627,-110],[1439,-1283],[1741,706],[351,-1043],[862,-274],[2188,-2630],[1266,986],[1399,-3438],[1313,1321],[1138,-1487],[912,-271],[1305,548],[501,-334],[1714,169],[1203,666],[1947,374],[898,-395],[1856,-2256],[1508,602],[1967,-1127],[1151,-1807],[1682,-125],[1219,-2363],[1537,2348],[-211,2066],[313,3030],[823,2022],[1014,1721],[137,4386],[390,2214],[614,1143],[-204,2268],[219,2515],[603,1969],[771,728],[953,2816],[-50,2574],[274,863],[-332,1727],[698,1109],[847,-1327],[1408,11],[572,513],[1285,-216],[663,1290],[539,-831],[1289,-548],[1131,1373],[770,-1866],[585,-512],[2435,-283],[801,-959],[1214,242],[234,-1217],[1608,-1805],[977,428],[951,-875],[1003,-1699],[1030,-2451],[1986,-2919],[742,-171],[1987,-3357],[634,-215],[759,-1455],[680,83],[535,-1067],[1342,-427],[616,-803],[1331,192],[967,-782],[549,365],[1187,-313],[1524,875],[1367,-545],[1563,420],[476,839],[225,-1776],[-1075,-3642],[880,-6779],[609,-1589],[-638,-1124],[854,-3024],[1668,-777],[733,-859],[1149,-2984],[859,-1059],[577,-3155],[-446,-555],[1385,-3312],[1473,915],[1633,-1318],[285,-1480],[236,-4136],[-180,-2096],[341,-1216],[1178,-573],[794,364],[310,-1560],[-435,-1927],[712,-2642],[811,1303],[284,1774],[696,-40],[487,-1290],[589,-3545],[-117,-1083],[426,-2731],[-508,-2572],[1210,-219],[1262,780],[893,-756],[2579,-283],[1116,529],[900,3405],[836,831],[1941,431],[1294,-513],[811,-956],[165,-1163],[-407,-1838],[1275,-1389],[-164,-2248],[-1041,-3765],[294,-1839],[-282,-2056],[597,-2905],[61,-2606],[-1184,-1157],[-734,-2278],[-574,-3341],[-853,-1219],[412,-2779],[-1950,-3647],[-124,-1285],[-1553,2436],[-901,-2570],[628,-787],[-114,-1358],[-1619,-3491],[-130,-3311]],[[809112,351954],[-702,-2351],[-1731,-1231],[121,-1675],[-865,-3383],[-41,-1924],[432,-1632],[-331,-2440],[541,-1878],[-532,-3829],[-3,-2535],[-257,-1453],[-970,-1918],[231,-2425],[1185,-3345],[503,-2396],[1176,-2298],[156,-5673],[-620,-1541],[-1334,-238],[-847,-1473],[-2796,-2812],[-871,-408],[-555,-1045],[-692,-2847],[-1001,-2897],[-386,-2115],[165,-1766],[-1325,-3312],[545,-5477],[1117,-3443],[-21,-2713],[-415,-2670],[144,-3360],[1377,-4495],[234,-1923],[-182,-2435],[-1046,-3571],[-38,-1436],[799,-4608],[18,-3331],[-999,-2962],[-546,-3075],[-3,-1728],[-604,-3223],[224,-1922],[-659,-2564],[-1432,-2120],[76,-2207],[-211,-3990],[422,-1549],[339,-1515],[1285,-1442],[482,-2689],[-132,-1276],[290,-1758],[-457,-3574],[1158,-3492],[117,-3072],[-666,-1649],[548,-3309],[710,-1683],[210,-1941],[416,-684],[609,-3998],[-308,-1239],[6,-1956],[-363,-4017],[261,-1869],[-195,-2905],[197,-1753],[-518,-1210],[308,-2454],[1004,-2316],[-539,-3024],[-1095,-2047],[-800,-2767],[-520,-720],[-215,-733],[207,-2474],[-1076,-2937],[-2128,-2401],[-578,-3553],[-676,-2434],[294,-9316],[719,-5161],[-156,-2461],[-1439,-3714],[-1910,-3172],[-760,-3287]],[[791192,122310],[-4759,6537],[-6832,10553],[-441,495],[-9980,4710],[-1215,949],[-11083,9264],[-1637,1445],[297,2774],[370,620],[161,4217],[-426,444],[-8157,5308],[-7701,5104],[-5910,1600],[-747,2325],[616,3240],[976,2108],[255,2279],[-460,633],[-3652,1847],[-2508,603],[-2242,236],[-5299,162],[-5923,-6468],[-6814,3916],[-5940,-1631],[-2895,-809],[37,1367],[-478,822],[-418,-1829],[-584,-907],[-116,-1500],[-588,-626],[484,-1991],[-265,-1239],[-1239,535],[-626,-1277],[296,-1158],[-800,-839],[338,-2556],[-1210,292],[-71,-2052],[-917,333],[-260,-2281],[-908,-1007],[172,-1372],[-344,-3229],[174,-1965],[-1350,1602],[-239,-1553],[-750,654],[-766,-1598],[-1244,838],[-988,-1366],[-1563,-1430],[-1705,2750],[-357,1359],[-942,-429],[-870,1127],[-697,2849],[-677,-248],[-842,-1482],[-490,2472],[-708,-2735],[-843,-925],[-489,2114],[419,1630],[-250,1977],[271,2007],[-566,4401],[-67,2512],[-1359,1274],[-532,1842],[1473,885],[-662,1852],[-1460,526],[-777,-225],[-564,-1288],[-1063,33],[-2570,1671],[-852,-1421],[-894,3044],[-405,-289],[-1121,-2388],[-1686,-285],[-1005,615],[-1749,-2989],[-548,-1572],[-1285,-220],[-2084,-937]]]}