{"type":"Topology","objects":{"districts":{"geometries":[{"properties":{"DISTRICT":"BHAKTAPUR","STATE_CODE":3,"PR_NAME":"Bagmati Province"},"type":"Polygon","arcs":[[-10,-8,-5]],"id":9},{"properties":{"DISTRICT":"CHITAWAN","STATE_CODE":3,"PR_NAME":"Bagmati Province"},"type":"Polygon","arcs":[[-2,-12,0]],"id":11},{"properties":{"DISTRICT":"DHADING","STATE_CODE":3,"PR_NAME":"Bagmati Province"},"type":"Polygon","arcs":[[1,2,-23,-18,-6,-13]],"id":16},{"properties":{"DISTRICT":"DOLAKHA","STATE_CODE":3,"PR_NAME":"Bagmati Province"},"type":"Polygon","arcs":[[-34,3,-21]],"id":19},{"properties":{"DISTRICT":"KABHREPALANCHOK","STATE_CODE":3,"PR_NAME":"Bagmati Province"},"type":"Polygon","arcs":[[-16,-11,4,-7,-36,-20,-27]],"id":29},{"properties":{"DISTRICT":"KATHMANDU","STATE_CODE":3,"PR_NAME":"Bagmati Province"},"type":"Polygon","arcs":[[-14,5,-19,-30,6,7,-9]],"id":35},{"properties":{"DISTRICT":"LALITPUR","STATE_CODE":3,"PR_NAME":"Bagmati Province"},"type":"Polygon","arcs":[[-15,8,9,10]],"id":37},{"properties":{"DISTRICT":"MAKAWANPUR","STATE_CODE":3,"PR_NAME":"Bagmati Province"},"type":"Polygon","arcs":[[11,12,13,14,15,-26,16]],"id":40},{"properties":{"DISTRICT":"NUWAKOT","STATE_CODE":3,"PR_NAME":"Bagmati Province"},"type":"Polygon","arcs":[[17,-25,-31,18]],"id":48},{"properties":{"DISTRICT":"RAMECHHAP","STATE_CODE":3,"PR_NAME":"Bagmati Province"},"type":"Polygon","arcs":[[-28,19,-35,20,21]],"id":55},{"properties":{"DISTRICT":"RASUWA","STATE_CODE":3,"PR_NAME":"Bagmati Province"},"type":"Polygon","arcs":[[22,23,-32,24]],"id":56},{"properties":{"DISTRICT":"SINDHULI","STATE_CODE":3,"PR_NAME":"Bagmati Province"},"type":"Polygon","arcs":[[25,26,27,28]],"id":66},{"properties":{"DISTRICT":"SINDHUPALCHOK","STATE_CODE":3,"PR_NAME":"Bagmati Province"},"type":"Polygon","arcs":[[29,30,31,32,33,34,35]],"id":67}],"type":"GeometryCollection"}},"bbox":[83.92083351700006,26.918798207000066,86.57517845700005,28.386080020000065],"transform":{"scale":[2.6543475943475815e-06,1.4672832802832798e-06],"translate":[83.92083351700006,26.918798207000066]},"arcs":[[[281090,347889],[-684,98],[-466,2297],[-814,-590],[-1148,365],[-1477,-1517],[-1718,-928],[-522,202],[-277,1173],[-239,2423],[-615,1061],[-179,1458],[-46,2995],[-552,878],[-1102,-143],[-1334,406],[-1304,1864],[-367,953],[-610,359],[-366,1189],[-887,-548],[-1090,-182],[-650,954],[-1031,310],[-1650,-145],[-1801,575],[-909,1398],[-904,-413],[-1569,-1396],[-508,1252],[-1261,744],[-1701,-917],[-1429,839],[-584,1120],[-855,54],[-934,-1363],[-850,143],[-1010,-294],[-987,1876],[-85,1390],[-2016,1202],[-456,1295],[-510,491],[-1671,-400],[-977,-1690],[-212,-1151],[198,-2972],[-605,-1929],[343,-1490],[-463,-3135],[-145,-1977],[-672,-1253],[-561,-417],[-495,-1276],[-175,-3045],[-344,-1837],[-797,-2237],[87,-6082],[-1738,90],[-646,1046],[-764,-359],[-601,-892],[-531,-1542],[-1602,-833],[632,-1132],[1940,-552],[553,-696],[1594,-477],[480,-1208],[246,-2417],[-382,-568],[-916,-261],[-1792,323],[-1079,-351],[-413,-1103],[-73,-2417],[333,-2895],[170,-1714],[1357,-2610],[-155,-1532],[-2475,-963],[-768,-2009],[-2371,1586],[-1615,484],[-3270,-1161],[-465,-1081],[-2215,257],[-576,-802],[-53,-1725],[-261,-598],[-2323,98],[-647,-942],[-63,-911],[-645,-963],[-1518,-726],[-180,-1452],[-812,-1646],[-531,-581],[89,-1597],[496,-1970],[169,-1581],[-1437,1346],[-899,379],[-1229,979],[-1332,-2918],[-53,-1304],[-574,-882],[-605,119],[-1378,1206],[-454,1895],[-1270,-117],[-1027,909],[-343,831],[-2129,671],[-1430,125],[-1248,965],[-359,2521],[-707,999],[-657,235],[-1725,-461],[-2007,1116],[-956,-183],[-1405,737],[-672,-314],[-797,-1125],[-910,-103],[-833,760],[-835,-202],[-510,-943],[-744,-431],[-1544,1268],[-923,-269],[-1164,138],[-581,-504],[-613,563],[-699,-183],[-1071,-1212],[-584,186],[-1117,2429],[-3166,1855],[-1547,486],[-1057,773],[-433,-932],[-1573,-475],[-4186,-752],[-3145,488],[-880,673],[-1430,599],[-1198,1043],[-581,164],[-934,-450],[-1114,420],[-405,1026],[-1035,749],[-1484,3],[-785,803],[-1655,393],[-1417,2099],[-1205,1034],[-2003,651],[-1772,1863],[-901,-827],[-1048,-3027],[-419,-329],[-1107,670],[-924,1660],[-651,1859],[-825,1087],[-272,1939],[-850,1232],[-2038,-848],[-390,3839],[673,1215],[670,2766],[-571,2209],[277,1617],[-111,2290],[-1219,2444],[-457,1275],[-37,1199],[-436,1863],[105,2036],[-1873,2204],[-539,1537],[-1617,810],[-1227,2223],[-67,2347],[397,1477],[-288,1523],[-1143,1233],[-595,1378],[15,1153],[-692,590],[-1131,384],[-611,-398],[-777,169],[-681,1003],[-1433,-1429],[-1987,951],[-1170,1578],[-1909,-3739],[-973,-291],[-1250,-2232],[137,-2389],[-233,-1461],[-615,-725],[-875,777],[-1496,-209],[-1569,1010],[-577,2030],[555,5078],[-377,1007],[-27,1650],[-1176,1335],[-4,715],[1743,3308],[30,431],[-984,2605],[-1413,757],[-972,1013],[-1024,323],[-586,-271],[-520,787],[-1038,-2619],[-1034,1884],[-1531,147],[-1521,1150],[-1544,-152],[-1135,1168],[-733,133],[-225,2402],[-1185,231],[-324,1660],[-1256,1244],[-1575,509],[-649,-635],[-744,418],[-830,-78],[-783,1405],[-1016,-55],[20,1978],[-1216,2335],[270,1930],[-669,1330],[2000,2732],[-568,1121],[399,1108],[-267,868],[345,806],[-27,1789],[655,526],[-493,1621],[349,2829],[-1374,265],[-511,1044],[-954,-1161],[-659,583],[-1038,-106],[-1491,-2078],[-453,157],[-789,-1484],[-1289,-739],[-1638,-449],[-457,677],[-1335,468],[-585,643],[-67,2872],[-263,937],[-1052,17],[-451,527],[-659,-437],[-765,1506],[-1567,-712],[-546,-889],[-1227,-1261],[-816,-143],[-79,-1155],[514,-1351],[279,-2138],[-362,-1986],[-24,-1303],[-508,-776],[451,-1062],[-370,-3904],[-412,-1739],[-326,-3212],[-722,-857],[-1070,-182],[-413,-1400],[-690,-778],[-2184,-1461],[-704,697],[-944,-100],[-352,-800],[-693,-138],[-206,-927],[-620,-450],[-826,762],[-575,-1466],[-338,-2196],[89,-1929],[-441,-787],[-179,-1645],[-472,-815],[-1014,-714],[-251,-1633],[-644,-2342],[-733,-385],[437,-2107],[828,-1125],[-212,-978],[-1116,-1013],[53,-1015],[-511,-968],[-923,-855],[-823,-2950],[-282,-1658],[-3125,420],[-434,-370],[-1290,-2],[-810,-1010],[-692,-189],[-1291,299],[-266,-1644],[-817,565],[-611,-202],[-471,-955],[563,-1362],[-136,-1707],[-678,161],[-884,-530],[-607,462],[-935,1579],[-1068,-874],[-756,1164],[-580,1493],[-1247,-656],[-437,1847],[-1102,1198],[-393,-578],[-607,474],[-349,-1035],[-691,1033],[-574,-45],[-326,1182],[-82,1601],[-820,33],[-987,-1204],[-1767,-545],[-804,306],[-947,-566],[-1573,-2456],[-270,1993],[-1064,321],[-949,-525],[-1035,1742],[-1686,1232],[-1131,-1753],[-718,220],[-948,-812],[-1447,-436],[-1456,-135],[-1382,-735],[-862,701],[-374,1459],[358,1345],[-726,976],[-976,739],[-2067,-254],[-1095,765],[1429,865],[1635,2913],[1347,4347],[630,2926],[-43,2742],[-314,2529],[-864,3606],[-510,3100],[39,823],[-589,2594],[78,2150],[901,1581],[1372,1076],[4897,3364],[1529,1552],[1766,2431],[828,2387],[228,1724],[24,2599],[-562,2218],[-1138,2655],[-3145,2639],[-846,327],[-1265,-746],[-1233,-4330],[-584,-1226],[-1576,-1756],[-1206,-941],[-1259,-588],[-1989,-305],[-1682,1150],[-1370,2275],[-207,1396],[251,3269],[-780,1006],[-332,2128],[-151,2399],[233,4243],[230,1279],[1677,2356],[601,325],[1886,314],[487,-137],[2665,-2209],[2179,-1144],[1041,-190],[1260,780],[1351,1556],[603,2461],[476,840],[1723,750],[2587,708],[1037,-136],[1018,-517],[1383,-1293],[1164,-1680],[1924,-1038],[2071,-184],[1483,532],[746,813],[908,49],[1968,-478],[958,-548],[2359,-2820],[1972,-1179],[2180,-682],[2182,78],[2002,1024],[892,1236],[1105,3249],[514,3753],[977,2235],[1512,1505],[1036,151],[1986,-1092],[804,-1066],[1701,-1363],[977,284],[404,744],[1047,3087],[1429,1454],[1141,-185],[2177,-1098],[1536,-1442],[1026,-579],[1965,-390],[1960,-166],[2494,-1456],[800,14],[1992,1061],[1766,2086],[150,2477],[1294,2216],[909,1928],[207,3577],[590,2363],[511,1381],[2318,5267],[2408,2922],[778,1307],[2280,4505],[502,726],[3273,3515],[1684,2297],[1401,2359],[2501,4971],[950,1270],[2617,2829],[2541,3213],[1564,1163],[2286,2813],[1834,2797],[2360,1548],[888,1016],[1372,973],[2657,616],[2024,1117],[1654,2146],[2286,1743],[2315,861],[1342,728],[2053,-2135],[876,286],[1115,2984],[584,973],[1234,1345],[1473,2260],[505,424],[1537,266],[4226,2063],[2075,1199],[1746,1492],[1077,1342],[2226,2359],[1465,1308],[4142,4456],[875,1451],[403,2099],[9,1781],[745,1516],[1466,1416],[2800,1643],[2168,2105],[900,529],[1192,235],[2263,-1355],[2162,-2149],[829,-1667],[492,-3579],[480,-1188],[1689,-2616],[840,-456],[379,-817],[1016,-779],[944,-297],[894,188],[2438,2694],[629,226],[788,1128],[1425,1080],[3003,2817],[998,1196],[1160,987],[3400,2410],[854,304],[2296,1505],[894,758],[1022,1451],[261,2582],[-230,2398],[-726,4131],[-521,2345],[-640,5407],[-837,3519],[-556,3778],[919,756],[1164,14],[1068,-638],[1002,-209],[1502,1108],[590,845],[1201,3440],[2279,5513],[756,1252],[1422,405],[1307,-77],[1205,-1382],[1677,-2936],[1460,-900],[1070,518],[195,989],[-206,2693],[-330,1964],[-1203,4275],[-2771,4759],[-1755,1553],[-1295,858],[-1325,493],[-2029,-224],[-1387,247],[-487,498],[-1476,2536],[-1074,2699],[-487,2594],[-35,1496],[258,1933],[149,3444],[-120,884],[587,7010],[458,1194],[722,793],[1186,317],[986,1188],[195,1095],[804,1964],[771,818],[2067,-1021],[1283,-916],[3856,-950],[448,607],[-11,1808],[-257,1115],[1177,164],[2190,-495],[2333,-1377],[3030,-493],[1590,-999],[1374,1013],[2462,-819],[1906,-1915],[1047,-816],[713,-138],[1511,366],[492,505],[935,3495],[-122,3402],[222,3114],[1608,1332],[1386,199],[1331,-454],[3340,241],[749,-763],[976,-350],[1603,747],[1972,2015],[592,1803],[501,4503],[53,1688],[-428,2427],[-37,1762],[680,2914],[2226,296],[1030,366],[2260,1705],[1344,1918],[140,1311],[-158,3241],[412,1034],[941,1327],[1456,1155],[709,1068],[1388,1421],[450,7],[841,-1302],[998,-1048],[2127,-131],[880,-770],[330,-1860],[1220,-460],[1861,761],[361,665],[75,1552],[1402,2577],[725,549],[1877,-599],[948,-1658],[45,-1711],[-270,-852],[647,-1636],[1636,-996],[366,-477],[-29,-3810],[249,-1340],[594,-854],[1052,-275],[1186,95],[1660,544],[1281,-884],[60,-677],[-1127,-2182],[159,-1185],[689,-474],[2148,-180],[1466,-907],[750,-1426],[327,-2293],[905,-3446],[-267,-3032],[-821,-3500],[73,-1549],[1660,-2338]],[[329097,523356],[-910,874],[-1078,1647],[-263,1042],[1158,1022],[1058,2474],[637,3705],[889,2302],[124,2112],[-1335,1138],[-955,1143],[-1139,2469],[-1749,1059],[-1511,1667],[-1730,538],[-1361,978],[-2372,3914],[-1105,2142],[-918,905],[-516,2079],[-2172,-214],[-5097,-1620],[-1061,-866],[-2296,-2855],[-435,-121],[-752,1087],[-1253,415],[-966,-857],[-646,85],[-1262,-1535],[-2501,1256],[-1411,-533],[-1773,121],[-1453,-1435],[-1351,-2750],[-1293,2711],[-2093,657],[-1286,2970],[-1775,-212],[-340,285],[-419,1897],[-942,1539],[-313,1690],[1912,4112],[-23,1610],[1503,2512],[112,1884],[469,1651],[282,1920],[-93,819],[-669,1254],[-780,705],[-1190,412],[-1948,1717],[-110,976],[1578,4716],[747,2786],[-865,1656],[-2882,620],[-2559,-16],[-847,-219],[-1256,-835],[-1309,207],[-416,2641],[-1011,274],[-1958,-844],[-799,-61],[284,3001],[-457,2653],[-165,2239],[770,-617],[1454,-152],[612,333],[238,862],[153,3167],[-2284,2761],[-1091,1654],[-641,541],[-1242,-276],[-885,758],[-725,-269],[-1073,1356],[-2179,-167],[278,1277],[586,1262],[211,1715],[624,960],[2651,1178],[296,525],[3381,2005],[1478,-128],[2519,92],[838,310],[391,693],[2951,-567],[1444,1709]],[[281436,617653],[753,-2035],[-152,-1683],[279,-894],[1168,-1041],[2160,-782],[725,-1203],[2362,-2563],[905,-42],[2120,-560],[1360,-674],[3933,-1149],[409,-1259],[-98,-1617],[854,-1226],[1357,-191],[1396,1892],[636,151],[1031,-1577],[2004,-772],[390,-673],[452,-1988],[889,-304],[1838,2134],[163,1748],[525,1739],[2395,327],[997,846],[1107,-316],[1256,871],[909,1733],[163,1198],[-17,2270],[1309,1935],[950,885],[754,220],[1806,-2334],[-335,-1851],[277,-1034],[1220,-1375],[876,-237],[535,634],[1162,2228],[1143,774],[-168,1298],[-1701,1878],[-1396,3863],[-226,3594],[1070,4002],[-294,905],[-1816,1961],[-160,2263],[-894,628],[185,1848],[-4,3563],[-1013,1401],[149,2410],[-246,1356],[-513,532],[-1653,-477],[-1248,1624],[-678,2444],[324,2821],[-962,3827],[-2104,2371],[-391,1323],[325,1204],[635,1041],[140,1822],[-2034,1372],[-730,1000],[-1269,325],[-548,533],[-362,1467],[719,2492],[-457,2305],[-906,2507],[-295,2282],[483,2516],[223,2929],[-327,1044],[-344,5436],[-493,604],[170,912],[1496,936],[-7,1533],[-832,273],[88,1864],[1317,956],[608,1171],[53,2604],[47,1926],[849,3709],[1320,2699],[363,1870],[-257,2741],[262,499],[2998,1212],[1407,1310],[484,1516],[449,477],[1205,248],[2193,-18],[946,1757],[934,855],[166,1179],[-1394,1954],[64,931],[1407,-182],[723,529],[77,1497],[504,1030],[1975,1177],[303,2347],[1097,1597],[151,1256],[-43,2975],[564,1539],[452,469],[1261,-207],[1053,143],[250,1418],[-58,1461],[1550,-1266],[875,-57],[1288,815],[969,233],[560,667],[542,2650],[195,1703],[-1179,3104],[-241,1483],[212,1571],[878,1457],[263,1335],[-275,1793],[391,1574],[3,1460],[-304,1349],[-1186,2138],[-122,1015],[450,2200],[675,2441],[702,1267],[1398,1387],[301,815],[-6,4276],[815,1400],[226,1830],[-225,1690],[103,1098],[559,976],[749,1452],[227,1804],[1225,4564],[297,3057],[932,2707],[113,3446],[1962,3358],[9,2400],[304,2173],[-263,2003],[248,1128],[953,2160],[799,1192],[-136,2319],[859,1768],[1356,657],[611,588],[1920,2809],[1639,-1764],[271,528],[1228,498],[1027,-578],[1365,-177],[797,-1913],[2556,-2708],[1028,-628],[1172,-2219],[522,-1997],[-42,-730],[1441,-1430],[1222,-2347],[1707,3116],[1171,1409],[1339,-936],[2015,-373],[1470,-1116],[1284,-206],[692,458],[1185,1669],[114,1698],[-409,3956],[102,1256],[1734,3739],[758,2235],[541,1054],[1011,-578],[1484,787],[2070,-1130],[582,-1631],[948,1011],[1292,574],[1285,-468],[560,794],[1227,704],[222,552],[-93,3286],[591,1186],[-62,1564],[-489,2102],[-877,2018],[-187,936],[429,1181],[691,771],[283,1024],[-285,1090],[30,4149],[1387,3002],[-126,1407],[290,2170],[207,2561],[616,2202],[690,1030],[6,1409],[-496,1162],[1470,5322],[918,931],[704,1291],[403,399],[55,1331],[-891,1937],[-189,3540],[-1168,1931],[56,1227],[-284,1089],[-1042,2403],[-783,2642],[734,1656],[265,1491],[950,1115],[714,2231],[835,1162],[1358,941],[788,929],[912,1843],[1160,3464],[710,666],[1944,5044],[754,1240],[946,-503],[1381,-2383],[413,843],[96,1884],[1341,2458],[-681,1648],[-40,1277],[1933,2214],[1431,121],[1426,1143],[1411,515],[1571,1421],[2087,824],[1220,6372],[398,1384],[222,4336],[610,1706],[537,2345],[84,1484],[821,1511],[272,1560],[-343,2457],[-1171,2801],[-470,1773],[195,1128],[1565,3061],[1017,1418],[678,1841],[285,1540],[-195,1610],[511,2002],[476,661],[717,2867],[1313,78],[1074,703],[780,1267],[4142,5926],[496,1171],[1428,953],[812,1081],[1542,1228],[1183,1235],[1368,-164],[1578,497],[1047,-910],[1511,-201],[3000,561],[862,571],[961,137],[183,-813],[2020,-2573],[1663,-2838],[963,-1160],[1271,287],[1062,1134],[636,149],[1393,-1439],[531,-1567],[645,-875],[556,70],[1460,-1368],[797,583],[3159,-229],[1293,78],[633,473],[1285,82]],[[808685,668399],[179,1405],[559,1400],[767,806],[126,741],[-1227,2982],[503,527],[2464,-345],[627,258],[584,1252],[911,839],[859,326],[2039,1465],[1194,2161],[1073,219],[1466,1227],[1519,533],[1060,1298],[1858,-333],[1944,1393],[1463,607],[1879,-200],[373,427],[184,2764],[678,1372],[-200,2163],[-468,983],[-314,2235],[-824,392],[-1679,1892],[-616,376],[-832,2829],[-770,1146],[-856,2176],[-649,914],[752,1489],[124,2230],[-272,2723],[-733,1780],[-358,3426],[-132,2402],[-598,3218],[-122,2051],[-636,1733],[-957,4234],[-1112,2037],[-221,1999],[-838,921],[-797,3362],[-931,609],[-905,1819],[-358,1826],[-864,716],[-670,1572],[-828,3812],[56,1166],[591,941],[1998,2392],[654,1255],[877,2990],[-257,1944],[-780,2377],[-46,1004],[546,1496],[-54,2683],[-525,1510],[242,873],[554,4752],[1972,2903],[-1243,5100],[-669,1428],[-99,869],[-709,799],[-1090,5370],[141,1007],[-433,3350],[47,1391],[-390,803],[1077,1260],[1165,732],[1178,2400],[2563,-957],[2251,-2359],[1175,436],[873,-1327],[1321,312],[1507,-485],[1220,1719],[1151,954],[651,1856],[686,1086],[1060,612],[199,2524],[696,1229],[-416,515],[445,2445],[-226,4260],[740,851],[983,388],[1158,-615],[713,1964],[-170,2474],[215,1376],[533,841],[1720,1383],[1639,772],[1048,2092],[1940,3046],[1056,424],[1157,-355],[1633,1372],[2575,1851],[600,1611],[-38,3158],[-459,1951],[-371,481],[-369,1809],[368,2264],[-140,2179],[-911,2753],[92,1589],[1801,1555],[1305,390],[1668,1614],[1002,-832],[-232,-818],[88,-1705],[1158,-1907],[-151,-1374],[166,-2745],[623,-513],[444,-1207],[889,-1048],[85,-2306],[-743,-1120],[135,-2036],[384,-1691],[94,-5168],[1144,-1934],[359,-993],[1429,-334],[450,-776],[544,-2398],[965,-1300],[767,-2271],[492,-3235],[950,-1901],[826,-808],[610,-2191],[-511,-1819],[554,-1994],[321,-2797],[440,-1493],[204,-2726],[-872,-341],[-2721,170],[-1222,-166],[-875,-798],[-158,-971],[291,-1980],[-1263,-3172],[-63,-1042],[563,-2981],[212,-1900],[666,-899],[584,-1868],[231,-2484],[-218,-2254],[516,-2220],[291,-2160],[588,-2407],[1140,-2025],[190,-2097],[-570,-2097],[732,-1212],[28,-2253],[660,-2899],[754,-1069],[1185,-832],[419,-3414],[-942,-2773],[-642,-1112],[-152,-2708],[90,-1973],[-396,-3844],[88,-1205],[831,-3465],[159,-2656],[-231,-2024],[239,-3124],[884,-3673],[-38,-1100],[619,-3237],[478,-1001],[1219,-1142],[663,-2322],[1648,-894],[2376,833],[1921,1354],[425,-496],[1461,1635],[594,369],[1065,-27],[2245,676],[844,684],[1880,-345],[1377,-869],[1147,71],[1119,-1126],[1968,200],[938,662],[2934,-3660],[128,-1160],[819,-1636],[294,-1194],[-91,-4063],[137,-241],[907,-1068],[626,-2520],[1067,457],[385,-226],[802,-2278],[1230,-1985],[2062,-1225],[6241,11732],[-75,-2273],[136,-1183],[690,-2690],[807,-1698],[-694,-2811],[414,-213],[898,-1735],[371,-1869],[1921,-3805],[441,-455],[2338,2099],[1131,470],[1810,-70],[460,-443],[2434,261],[1187,-510],[1147,-836],[1910,-795],[849,-2085],[1395,-2020],[1355,-4064],[806,19],[1353,-1004],[650,-890],[732,-1941],[1937,-2439],[392,-1423],[-45,-1283],[983,-1721],[177,-1364],[508,-1109],[1344,821],[2645,890],[1994,3],[973,310],[1850,-809],[1961,-481],[1177,-1321],[404,2131],[1109,2524],[1691,1353],[1473,183],[376,494],[305,2348],[1044,2280],[2675,3875],[1257,1389],[79,2913],[-237,1184],[-693,1783],[-445,1812],[1109,3320],[883,453],[757,888],[2201,112],[735,-273],[938,1672],[839,806],[2290,728],[437,-142],[146,1645],[1448,1622],[811,-369],[2442,371],[2431,-25],[1044,-387],[999,-2329],[130,-1943],[513,-4289],[680,-2471],[777,-418],[1756,1075],[1985,488],[286,-292],[1631,-4080],[1226,-1624],[788,-382],[1374,-1568],[345,-1080],[403,-6638],[300,-1373],[1070,-3608],[486,-3261],[-176,-2955],[-941,-2463],[199,-2237],[-6,-2459],[588,-2417],[301,-2126],[-508,-2461],[-759,-2498],[-88,-1431],[346,-1723],[215,-3923],[484,-2272],[245,-2402],[-131,-2641],[-408,-1324],[-812,-3875],[-273,-754],[-377,-4624],[-678,-2902],[-87,-1706],[-645,-2187],[-586,-3121],[-117,-3799],[-1055,-2297],[-143,-2222],[781,-2526]],[[565829,477839],[749,-26],[1260,960],[1031,2189],[2041,-1237],[861,236],[714,1093],[743,2565],[1170,568],[1603,308],[896,2240],[1580,2641],[556,-2400],[833,-2001],[666,-1132],[-34,-823],[419,-1667],[838,21],[718,779],[888,2347],[278,1171],[620,678],[190,1134],[1124,1004],[1795,4155],[-245,1984],[536,419],[355,-1531],[850,-416],[737,2089],[965,1533],[2456,2616],[412,918],[-865,2120],[102,1373],[224,1473],[859,1418],[122,2564],[949,2841],[-39,2265],[918,1962],[386,1255],[946,5646],[143,2040],[877,2076],[427,195],[1258,-839],[1282,166],[700,480],[1668,175],[426,898],[144,1175],[-429,1869],[642,2895],[-381,2144],[-9,1931],[-403,967],[493,1665],[-97,1304],[-643,2557],[1193,2054],[938,2785]],[[478495,519573],[1181,2683],[119,3158],[263,1504],[653,1457],[-599,2168],[898,2634],[630,3967],[-188,1442],[1315,-707],[-487,1440],[705,1234],[-677,1168],[-210,1766],[706,384],[291,1421],[451,620],[1202,-1118],[704,1336],[174,1599],[1332,-917],[1589,34],[766,543],[500,1822],[607,1333],[476,921],[-539,2635],[-848,1408],[-886,363],[-724,1675],[2375,-999],[1205,1291],[899,287],[664,824],[1714,1235],[1161,77],[378,1970],[582,885],[782,-396],[2039,-222],[643,131],[1110,1523],[557,1451],[550,-595],[93,-1067],[888,-1106],[644,268],[2422,-70],[1461,359],[611,1648],[99,1540],[-180,2935],[253,1678],[373,838],[-30,873],[-796,2627],[-977,311],[-917,1704],[205,1302],[-142,1534],[-971,572],[-1045,184],[-392,1156],[-676,-256],[-1291,1330],[396,451]],[[614639,571041],[-1189,-747],[-894,385],[-1324,-1282],[-917,278],[-589,-1802],[72,-1204],[-578,-760],[-1173,-2383],[-1052,-3063],[-1180,-1886],[-534,-1420],[-197,-2870],[-462,-1459],[168,-1331],[492,-627],[-17,-1162]],[[605265,549708],[-508,836],[-1427,1244],[-2926,-545],[-1056,-1325],[-1604,-395],[-581,-885],[-1370,-566],[-857,446],[-336,-875],[-1720,-1296],[-1734,-458],[-348,-787],[-864,-235],[-1575,282],[-1483,-987],[-487,-1187],[-917,849],[-1059,385],[-59,1321],[-362,755],[-1386,-10],[-428,-1006],[-526,-233],[-1282,1383],[-1021,-649],[-1364,1673],[-488,-351],[-1168,1875],[-987,669],[-822,-655],[-1183,1237],[-1412,956],[-548,-625],[-646,32],[-913,-784],[-1086,-269],[-406,-967],[-1062,-426],[-610,488],[-683,-425],[-258,-2356],[-1108,-47],[-496,420],[-236,-2554],[-456,-313],[-804,925],[-736,-1101],[852,-1750],[-449,-1345],[-1158,177],[-787,-1285],[-889,-956],[-453,-1875],[-554,-535],[-886,37],[-701,-897],[-182,-1228],[-496,-523],[-451,930],[-721,401],[-914,-406],[-396,-974],[559,-2140],[-193,-704],[-1500,-128],[-217,-740],[152,-1628],[-672,-241],[-958,972],[-1040,-715],[-418,983],[-508,-50],[103,-2426],[-542,-194],[-546,1077],[-725,-652],[-349,-1487],[-813,-325],[-979,-1571],[-1166,-1474],[-360,-1185],[-649,-608],[-761,863],[-389,-729],[-583,-2252],[467,-1370],[-1018,-3167],[-146,-1532],[-401,-1110]],[[506515,444232],[1082,-296],[420,456],[893,2647],[812,973],[563,1921],[1089,1504],[477,1017],[836,183],[625,1438],[1427,186],[-463,1487],[-1283,236],[-197,1217],[757,1277],[-678,2492],[828,546],[911,-609],[509,-859],[247,1704],[449,980],[1369,-471],[178,294],[-217,2582],[1014,1173],[131,2123],[-182,1387],[-1280,2021],[38,754],[960,-270],[230,636],[-516,2029],[-228,2041],[494,1488],[-102,3145],[832,962],[-546,1038],[-387,3946],[-1045,554],[-970,1182],[-1412,2942],[-334,2229],[538,407],[891,-638],[504,560],[-295,2389],[620,2374],[1845,2464],[335,2576],[1025,1112],[-238,2350],[501,1512],[-256,1181],[-1343,403],[-521,1014],[-153,1537],[549,1009],[1750,1597],[607,1716],[117,3699],[342,702],[475,2758],[438,1541],[1424,1037],[511,-114],[2098,-1513],[1907,-2320],[1029,-595],[1429,-151],[1079,-1523],[534,-2099],[563,-1106],[1322,-1135],[2030,-2262],[1380,-2021],[2020,-2107],[1137,-461]],[[540040,510410],[1537,-97],[1261,928],[590,-47],[891,-1683],[-122,-2140],[-481,-366],[1257,-1811],[758,-404],[710,855],[350,-729],[-62,-3670],[519,-736],[575,262],[649,-1517],[1664,-393],[2186,-1391],[235,-1933],[780,-1594],[761,944],[719,-3989],[769,-2539],[1171,-1817],[559,-490],[2555,-81],[410,-1519],[663,-453],[464,-1036],[1495,-1728],[458,-1439],[1490,-1891],[978,-67]],[[565829,477839],[-141,-1049],[505,-1246],[2141,-1171],[803,378],[571,-1745],[1404,-2191],[441,-1072],[9,-1224],[-1117,-1874],[64,-1588],[-1055,57],[-1197,1055],[-405,-1763],[937,-1303],[204,-957],[-557,-1571],[-1206,-1250],[-1101,-127],[-1016,2208],[-997,984],[-354,1310],[465,1480],[398,2189],[-82,1151],[-718,-319],[-758,752],[65,-1612],[-652,-1108],[-1166,-415],[-1714,-110],[-432,-675],[595,-890],[15,-2780],[-364,-1451],[909,-1677],[-621,-1914],[595,-934],[-393,-2262],[-798,-1652],[114,-1269],[-542,-1817],[134,-1761],[-184,-1116],[-922,-1324],[-765,-288],[-282,-1237],[-1232,-1743],[-1254,-420],[-989,-1606],[247,-896],[899,-828],[1554,-2273],[844,-415],[356,-997],[643,-492],[667,-2208],[420,-2529],[672,-1513],[1007,498],[1590,-619],[497,2106],[1492,90],[192,-1050],[1602,-1253],[1161,-2562],[742,-487],[1280,431],[904,-1523],[1195,371],[886,1521],[301,-1955],[511,-1904],[518,-2569],[-574,-2062],[-69,-964],[978,-4625],[-46,-1893],[576,-1776],[-759,-2563],[-182,-3072],[-358,-2091],[105,-2369],[-272,-4025],[132,-1986],[-89,-2462],[654,-1648],[-6,-1822],[811,-1176],[203,-893],[-548,-1003],[-115,-1485],[-524,-897],[-1075,-1099],[-627,-2209],[-1197,-1638],[-1426,-2637],[-1188,-308],[-1339,-1865],[-446,-1891],[-870,836],[-390,-428],[-504,-1872],[-1104,-581],[-394,-809],[-107,-1309],[-648,-1117],[-776,-364],[-555,-1597],[423,-418],[419,-1753],[550,-284],[2646,836],[325,-1087],[-426,-850],[-602,-200],[-907,-1687],[-709,-660],[232,-740],[950,-88],[300,-1821],[-692,83],[-839,-560],[-249,-751],[717,-2515],[18,-1059],[501,-964],[-79,-944],[-623,-424],[-475,-1438],[3,-1176],[-450,-2323],[1155,-1943],[770,233],[1033,-1457],[496,-1788],[19,-953]],[[281090,347889],[411,2377],[350,3171],[-235,1617],[600,3181],[1340,805],[459,-163],[904,589],[1271,1456],[918,-153],[150,1455],[726,174],[1088,2031],[-234,2203],[1380,361],[1134,1326],[-162,1404],[-609,670],[-1155,-519],[-83,1170],[916,899],[1465,2658],[-179,1301],[-656,813],[28,754],[721,757],[799,252],[699,991],[-838,1583],[418,1384],[-524,1462],[-114,1195],[-566,1216],[318,3637],[-640,2285],[-146,1316],[-757,2561],[-768,1491],[-356,1221],[-1659,3300],[-428,2895],[172,3389],[-752,3971],[-43,1459],[357,2305],[706,1980],[81,1254],[-265,1762],[301,1026],[437,4118],[-551,915],[-225,2384],[-441,1088],[558,2245],[816,446],[1066,2810],[422,2147],[1111,1304],[1627,-655],[547,-1255],[2746,-1888],[1822,1641],[1781,3095],[616,789],[1381,2755],[753,2109],[677,1181],[1741,2340],[574,359],[935,1776],[942,4032],[-146,824],[398,1702],[-236,913],[-140,2368],[820,756],[996,4330],[-666,548],[94,897],[-377,1920],[38,1571],[-607,967],[399,2277],[-339,744],[-935,49],[-286,2282],[440,1601],[-132,946],[-667,906],[-1404,668],[-1175,-107],[113,1730],[-217,1832],[-1067,1038],[-519,929],[-452,2022],[203,1565],[1165,2475],[114,1603],[802,871],[1163,-427],[1257,-71],[36,1014],[-875,1042],[-35,611],[1194,1761],[313,2086],[1384,723],[937,-600],[804,325],[2137,-424],[268,-451],[-75,-1550],[-1193,-1850],[257,-1805],[941,390],[304,669],[847,-40],[1240,531],[-95,962],[572,791],[89,1452],[1761,-519],[1637,1331],[760,-48],[997,750],[1061,3320],[-66,2066],[246,1266],[-281,1123],[1038,-182],[1036,400],[382,1144],[1235,1010],[519,1546],[308,2545],[506,1720],[1029,1818],[854,473],[1420,2330]],[[329097,523356],[1194,-661],[676,-1696],[-82,-2816],[245,-3107],[425,-1790],[528,-509],[343,1173],[1117,1183],[983,491],[766,2277],[1769,1050],[565,1232],[1145,365],[849,1996],[1074,823],[345,1310],[846,753],[678,1415],[667,250],[1588,-983],[914,-25],[2046,-1542],[1666,-963],[1670,-474],[1841,-1578],[1324,-919],[1680,-1800],[850,-317],[1581,-1643],[1059,-1664],[1181,-2833],[1044,-1261],[452,-130],[890,859],[663,1425],[670,411],[725,1381],[1046,3720],[1065,2564],[844,1035],[643,2427],[663,1127],[515,2412],[645,796],[1360,1168],[599,989],[794,-366],[1014,-1233],[1119,-807],[1714,-602],[604,-1760],[306,-1843],[960,-213],[1842,-1229],[1793,349],[843,-587],[1136,213],[822,-213],[965,405],[1036,-911],[681,-1023],[1040,-470],[1700,1394],[979,426],[26,2007],[1235,388],[1050,1114],[1097,1],[1555,869],[1783,2057],[141,3144],[978,1927],[1160,569],[906,-305],[1572,957],[-6,1274],[873,855],[2624,-1133],[1592,-373],[1137,177],[1948,1182],[1202,-381],[1295,-1968],[1728,-245],[671,-1577],[1896,-1107],[455,-1245],[939,2],[141,1355],[795,945],[1403,1073],[343,912],[823,-1266],[-95,-3422],[-444,-1608],[300,-2323],[549,-1093],[3508,6082],[797,545],[1473,-1880],[-214,-1239],[314,-495],[1075,-54],[1381,1576],[-34,1664],[449,2752],[1469,240],[896,1065],[533,1478],[1122,1141],[652,-371],[182,-941],[652,-384],[1101,369],[1010,2427],[813,1022],[1628,-222],[883,-412],[2151,-2030],[289,-1480],[710,-1344],[1583,-1626],[803,-412],[2202,-3264],[554,-1546],[320,-901],[364,-3447],[567,-2834],[812,-152],[756,-682],[1854,-954],[708,48],[779,-3321],[469,-956],[1688,-689],[957,-1626],[1526,-631],[1859,-354],[689,1090],[1561,924],[1360,-1254],[791,-66],[1430,1727],[943,1571],[1690,2363],[735,556],[2521,234],[2660,697]],[[478495,519573],[67,-1056],[490,-1519],[1253,-1262],[1645,-2302],[2138,-1836],[633,-2296],[1752,-907],[1217,-2943],[1024,-1255],[1607,-1385],[530,-1592],[850,-143],[950,515],[594,-272],[1329,-1621],[691,-1675],[-621,-1308],[-185,-1377],[-1175,-1960],[-604,-1842],[-325,-2610],[-606,-2245],[-512,-1082],[-216,-1926],[271,-1735],[855,-1056],[1234,263],[1219,-1143],[334,-1214],[1212,-1065],[813,-4081],[-215,-1717],[379,-1889],[-243,-4371],[118,-717],[1442,-2161],[514,-2335],[-628,-1738],[-557,-515],[-237,-987],[-172,-3824],[372,-2177],[1087,-2014],[2082,188],[1318,-174],[519,506],[1159,-778],[1379,-308],[396,-2361],[843,-2039]],[[506515,444232],[-891,-501],[-947,951],[-1553,-1497],[-847,-2428],[-613,-1046],[302,-2027],[-1015,-2058],[-368,-2244],[-412,-946],[429,-1696],[-1131,-2033],[-1743,-76],[-704,-1909],[-782,-1310],[-866,-2663],[-726,-1466],[1728,-2201],[897,-735],[757,464],[1606,-579],[392,-651],[-61,-2158],[881,-225],[1068,206],[-223,-5042],[-956,-810],[-1708,-375],[-1056,-1465],[309,-1860],[5,-1468],[-1199,-553],[-499,-804],[-301,-1559],[-720,-2167],[1207,-3193],[2062,-1],[520,-1676],[1394,-828],[-247,-3914],[-1019,-2731],[573,-814],[637,-1666],[-245,-2669],[113,-1555],[1639,-1962],[944,-1461],[130,-736],[937,-1342],[155,-658],[-469,-1165],[936,-3265],[-128,-1801],[1241,-1366],[632,-1116],[1891,-1461],[1633,929],[1020,-836],[2200,-1155],[2063,346],[1416,-72],[1037,449],[1435,-936],[506,-1124],[1352,-2177],[1253,-618],[1901,586],[1161,-930],[1092,-2996],[-620,-1648],[238,-1159],[980,-271],[2018,1304],[840,346],[1753,-288],[1104,-1296],[391,-1816],[664,-973],[1162,640],[682,-18],[1622,-1494],[623,-1293],[1133,1687],[948,-961],[1441,-607],[505,-129],[3168,-2656],[1154,-403],[58,-1479],[1131,-2064],[1232,-658],[804,-41],[822,-1661],[1707,-1689],[171,-1617],[-283,-1316],[425,-589],[1214,-42],[549,487],[1246,1358],[785,300],[599,-1134],[140,-2402],[719,-1130],[1984,910],[1191,-1347],[299,1263],[546,749],[709,-43],[987,-1120],[444,1950],[1316,368]],[[565141,333405],[322,-1336],[-133,-1677],[611,-556],[687,1159],[1836,634],[95,1545],[563,1376],[955,358],[522,-611],[242,-1352],[-495,-1766],[134,-1145],[2781,-214],[1095,-617],[645,-2157],[825,-1759],[-228,-2514],[511,-3050],[984,-149],[1052,2998],[1053,1510],[1148,246],[717,-2796],[121,-2137],[496,-1146],[540,-87],[829,1397],[1056,555],[390,-350],[350,-2551],[557,-878],[206,-3324],[689,-1186],[1155,1006],[401,-1391],[-503,-1336],[-873,-769],[-1006,-9],[-1,-1923]],[[593974,173498],[-425,-2559],[-1886,-2729],[-1074,-1025],[-2259,-1010],[-2311,-179],[-563,-558],[-1454,984],[-463,1614],[-1621,652],[-2251,-323],[-526,1075],[-1090,481],[-237,1133],[78,3756],[331,1236],[-700,1559],[-769,516],[214,2499],[-734,1814],[-1585,476],[-999,-389],[-1940,390],[-805,1877],[-1180,295],[-1049,702],[-532,956],[-881,-102],[-860,-1171],[-1406,-753],[-882,887],[-901,2063],[-1608,1731],[-1321,64],[-851,-487],[-476,335],[-1291,-68],[-890,1308],[-127,1638],[431,3486],[-285,899],[-1262,1974],[-475,-933],[-975,452],[-806,-1156],[-1258,-319],[-1090,978],[-1640,2122],[-1423,-1397],[-1296,1319],[-549,-147],[-2020,686],[-1213,-1140],[-328,1502],[-639,-69],[-1149,1760],[-1267,2584],[-565,1730],[-427,106],[-2479,-1046],[-807,-764],[-799,568],[-1534,1747],[-553,-57],[-3070,1688],[-843,926],[-1338,319],[-603,454],[-1318,1809],[-919,-26],[-934,901],[-1264,-1301],[-1253,363],[-980,465],[-692,741],[-1224,472],[-1938,-1282],[-2733,122],[-412,-1666],[-2160,591],[-1299,-571],[-383,-498],[-741,-1221],[-1329,595],[-1140,-116],[-332,957],[-809,567],[-304,989],[417,2413],[-1440,2054],[-1024,3944],[-13,1341],[-935,971],[-1308,134],[-980,1427],[-1512,-65],[-859,-621],[-1304,-1538],[-533,-1387],[-1105,681],[-807,132],[-757,618],[-1642,-1032],[-1182,482],[-762,1448],[-2269,-1085],[-570,468],[-348,1662],[-1614,1300],[-1021,-639],[-525,-1899],[-481,-618],[-1573,-362],[-1180,749],[-2872,783],[-1132,764],[-674,833],[800,1321],[559,2022],[-1425,-201],[-657,-414],[-1689,753],[-317,451],[-682,2987],[-1277,458],[-1307,1086],[-1269,-274],[-784,301],[-429,1284],[-1153,1181],[-181,1777],[-887,892],[-1280,1943],[-287,3874],[-216,1283],[209,1976],[-846,1277],[-890,271],[-534,891],[-490,1984],[-1986,1740],[-2091,408],[182,2043],[-771,4088],[-1430,159],[-345,1684],[91,1166],[-583,2206],[-14,3491],[-437,1438],[-401,961],[-1774,573],[-819,-257],[-602,447],[-961,46],[-696,780],[-259,2090],[-1466,2510],[-176,1123],[-1497,2611],[-407,2543],[-401,1267],[-320,2651],[422,947],[27,3601],[-349,2718],[-581,536],[268,2176],[-1234,1105],[-378,1851],[-733,553],[-2999,1220],[-1060,-79],[-1438,656],[-1478,-2355],[-138,872],[-717,-39],[-376,-742],[-961,67],[-479,651],[25,1079],[-840,556],[-223,801],[-1317,-735],[-336,-954],[-879,49],[-491,-908],[-732,267],[-759,-482],[-279,-873],[-377,-854],[-1152,171],[-515,-742],[-1130,-556],[-865,935],[-273,1101],[-538,104],[-704,-839],[-1785,-441],[-1153,-1027],[-144,-967],[370,-1344],[-229,-1163],[-1060,1052],[-1009,157],[-1055,1045],[-1238,-612],[-469,172],[-1589,-1256],[-1333,1947],[139,1718],[-406,1741],[162,852],[-422,1009],[-112,1255],[-659,-456],[-500,597],[-635,-211],[-505,-1097],[-820,-69],[-1212,-1308],[-1626,525],[-1214,-618],[-928,-2311],[-86,-1341],[-716,114],[-1550,-814],[-758,764],[-740,453],[-727,1104],[-324,1131],[68,1954],[-267,415],[-866,-720],[-1571,-2181],[-385,-158],[-527,1389],[415,1541],[-763,1947],[-976,435],[-562,-1071],[-85,-1459],[-344,-823],[-676,-370],[-1560,1356],[-846,-227],[-36,1757],[-1403,-37],[-485,530],[-1150,-1271],[-413,661],[-1062,-633],[-1047,-255],[-1049,3090],[-729,1336],[-871,227],[-632,895],[-1232,250],[-881,1622],[-422,96],[-649,1149],[-955,268],[-1498,-1848],[-619,192],[-815,1767],[-441,2223],[-75,2622],[-1455,1837],[-857,74],[-361,1181],[-665,12],[-2172,-956],[-648,978],[-909,2723],[-186,1275],[276,671],[-672,965],[-1948,1067],[-1396,-1072],[-1512,-361],[-515,629],[-703,-249],[-393,542],[-1387,359],[-1682,-83],[-465,2698],[318,742],[-883,1718],[-610,1717],[-604,184],[-599,1990],[-1136,-86],[-28,1324],[-403,724],[-740,-394],[-775,1489],[-846,836],[-1324,-1017],[-1723,2276],[-1192,-412],[-1218,329],[-1410,-316],[-837,-1480],[-1036,-561],[-710,5272],[233,529],[-1149,1009],[-3305,4608],[49,1472],[-1420,1388],[-956,458],[-1896,-519],[-593,-1026],[-1731,-185],[-182,800],[-1669,975],[-179,657],[-1170,-138],[-478,307],[-624,-1158],[-1397,516],[-371,-380],[-2272,38],[-912,-1183],[-1422,1036],[-975,233],[-2187,3055],[-577,-3],[-816,-1078],[-563,1282],[-1365,-173],[-187,1329],[-2310,88],[-996,-245],[-371,-1983],[-963,-1287],[-408,-1205],[50,-1042],[-608,-1072],[111,-1733],[-347,-243],[-1348,304],[-607,568],[-1289,-582],[-479,552],[-1396,356],[-863,-601],[-3310,78],[-1220,184],[-1771,-539],[-711,-864],[-2318,-714],[-2699,-230],[-2230,299]],[[502586,583819],[-851,-121],[-433,-1063],[-1261,-539],[-64,1159],[-1437,181],[-480,-1076],[-711,885],[-2147,-285],[-165,-837],[-733,443],[-1600,-823],[-893,194],[-233,922],[-905,858],[-1429,-898],[-1184,59],[-524,-452],[-560,-1327],[-410,775],[-641,-1196],[-692,1734],[-291,-186],[-197,-2194],[-1142,2326],[-436,-1691],[-1299,-1262],[-127,899],[-2029,132],[-515,-792],[-681,-77],[-1031,1506],[-2400,223],[-718,-638],[-248,-1988],[-565,-479],[-594,552],[-741,-927],[-1239,-84],[-902,560],[-911,-864],[-1655,-462],[-1694,934],[-1315,-548],[-856,-1595],[-655,-39],[-1192,643],[-363,-177],[-1436,965],[-953,-1689],[-843,-1049],[-1052,404],[-498,1145],[-1119,-2307],[-1302,256],[-78,1085],[-570,32],[-981,3011],[-1103,445],[-515,614],[-463,1995],[276,708],[-325,1125],[-758,-965],[-405,1734],[-566,105],[-380,-840],[-1090,-63],[-1435,1413],[-829,1402],[-752,35],[-395,759],[-139,1117],[-668,571],[-480,1148],[-1988,2676],[-775,-121],[-1293,830],[-371,799],[-558,-195],[-1103,1112],[-1124,602],[-1504,-357],[-1012,775],[-1011,-203],[-1783,982],[-1323,1227],[-210,871],[-802,-121],[-571,497],[-187,1030],[-717,402],[-291,831],[-1001,553],[-435,2527],[584,860],[606,2170],[-467,566],[-95,1645],[-966,-740],[-1130,355],[-195,1995],[-481,239],[-835,-713],[-1023,446],[-993,-220],[-1159,222],[-353,630],[-624,-837],[-1429,-296],[-691,-578],[-324,-897],[-797,-384],[18,-1111],[-2038,-542],[-195,1507],[328,1262],[938,1892],[84,2471],[379,1028],[409,2325],[-351,1284],[1501,2271],[816,1994],[-946,903],[-1138,-406],[-744,-919],[-838,542],[-333,1036],[130,1019],[-568,1109],[-1302,972],[-638,1770],[617,1751],[-107,1135],[-763,1359],[406,1733],[-641,210],[-137,912],[-1296,185],[121,1047],[-1054,1144],[-503,-301],[-1793,-190],[-245,1541],[-919,951],[845,726],[-433,1940],[531,3933],[882,1315],[-588,1336],[874,1962],[-421,2114],[-766,2722],[-878,1108],[-160,1264],[991,1147],[235,809],[200,5487],[1376,1064],[532,877],[178,2378],[388,829],[854,3459],[812,2065],[528,2582],[920,2173],[747,3670],[408,2567],[-369,2614],[-341,1180],[-35,1289],[912,3151],[1899,2167],[16,2034],[-216,2642],[-753,1143],[-1158,-834],[-707,-1594],[-277,254],[61,1476],[715,1633],[667,2492],[387,112],[788,1455],[97,1610],[1423,2607],[355,1813],[713,-116],[1277,906],[518,-29],[836,1663],[18,2622],[645,4355],[-134,2385],[600,2006],[-79,1721],[-731,3026],[-971,-160],[-1613,818],[-1314,171],[-807,520],[-1756,425],[-498,434],[-2568,668],[-414,284],[-383,1945],[-591,741],[-202,2660],[-771,1053],[-297,1043],[-967,1414],[-878,397],[-692,1393],[-114,1977],[262,1593],[-901,3186],[324,2011],[685,-612],[187,-1011],[1498,-906],[1495,287],[2878,849],[2047,-319],[841,255],[2365,2064],[1019,311],[684,-273],[1030,912],[1875,882],[777,1974],[1845,724],[482,534],[1817,3592],[3083,5551],[707,2626],[151,1151],[1028,2998],[354,2226],[629,2259],[1174,-521],[1363,59],[2282,943],[2116,-470],[1210,812],[2296,2767],[2901,485],[1419,1023],[1463,1548],[1657,-169],[1801,172],[638,1188],[387,2095],[573,1343],[1417,5279]],[[576424,612426],[-479,-1657],[-1519,-1040],[-1403,-152],[-1272,-1635],[-1932,1466],[-746,-920],[-3155,-1577],[-2643,430],[-853,-135],[-1643,1250],[-883,-159],[-965,1194],[-1837,612],[-1040,697],[-1042,1360],[-1469,-1662],[-846,-1733],[-1470,-130],[-3344,-2004],[-1043,328],[-1943,1644],[-1211,1364],[-1790,-1664],[-1377,-970],[-2336,-874],[-1028,-32],[-1932,2854],[-1050,370],[-1576,1098],[-1431,-219],[-1607,-102],[-2372,-777],[-2918,-109],[-1413,-1910],[-1367,429],[-1051,1050],[-954,-377],[-1049,-1330],[-1112,-883],[9,-2184],[-320,-892],[-1596,-1343],[-896,-997],[-1606,-4334],[-478,-856],[-989,-1608],[-1423,-3000],[-1931,-3670],[-2464,-1752],[-593,-26],[-634,1047],[-747,-409],[-1069,-2678]],[[716935,362535],[-1427,1049],[-791,-521],[-2395,2285],[35,2954],[13,1927],[796,786],[795,-248],[418,813],[-478,2396],[268,3677],[-412,1115],[-1179,766],[-1055,2483],[512,2185],[-70,1270],[-859,2306],[-796,1089],[-473,1532],[-79,2829],[-218,1110],[-1118,930],[-422,864],[751,1418],[272,2573],[1101,310],[482,838],[87,2138],[549,25],[677,-843],[1360,1239],[1160,2658],[783,536],[728,1062],[2,1933],[-358,1560],[-725,896],[1307,1009],[-97,1728],[398,1548],[914,1549],[805,2625],[36,1984],[688,1534],[672,3310],[-151,1445],[-911,4852],[-345,4040],[-538,2324],[-58,1257],[425,2121],[126,700],[830,1345],[-201,1368],[797,404],[303,-1059],[850,1552],[634,283],[1035,-704],[676,-32],[715,1165],[671,-346],[430,604],[1564,860],[-435,936],[718,3097],[1281,1268],[-81,892],[748,2130],[1408,269],[304,795],[643,-112],[1605,1357],[1091,2347],[713,2865],[352,764],[872,3614],[847,1341],[428,1365],[758,-14],[1649,1145]],[[741057,472346],[2132,49],[1021,-627],[1074,-1282],[1155,-372],[781,301],[1013,-1045],[434,-962],[975,-494],[323,-853],[1465,-230],[755,719],[757,-925],[643,-59],[482,-1828],[457,-571],[1674,-947],[429,527],[1397,-2893],[1255,-90],[907,-1484],[1719,540],[306,-1713],[659,-86],[1029,-967],[508,419],[1789,-849],[112,-1758],[500,-808],[624,-1940],[1287,-979],[307,-800],[704,-244],[47,-917],[1121,-1206],[534,-2432],[1064,-1673],[1149,-2279],[694,-767],[1224,-3407],[951,-1642],[522,-1332],[481,-992],[1272,-1736],[935,-806],[1476,-1982],[768,-1948],[1338,288],[484,-1834],[619,-1412],[-706,-1408],[52,-1436],[-1083,-2828],[174,-976],[-707,-1610],[-957,-2825],[-136,-1193],[-587,-389],[-877,-2071],[-4,-5197],[-265,-1242],[387,-1639],[921,135],[1267,-274],[-4,-1880],[645,-765],[1265,2081],[509,-1720],[126,-1247],[676,467],[1067,-551],[351,688],[702,-153],[376,-1271],[659,20],[2031,686],[700,-115],[1109,-818],[1522,863],[2553,581],[1075,-478],[1573,-1208],[549,-822],[1040,255],[541,-1152],[1283,273],[2506,949],[410,901],[756,-1284],[453,1087],[525,-2399],[800,-36],[73,1150],[638,38],[211,2100],[1118,-285],[342,-912],[1459,282],[542,880],[972,-3008],[552,-498],[894,433],[1092,-633],[1978,979],[1869,1564],[978,-1448],[935,182],[977,-1720],[1081,-2919],[1043,-1874],[47,-1199],[869,-1227],[456,-2209],[1221,-518],[521,-1049],[23,-1199],[-981,-2046],[536,-606],[926,300],[501,1179],[1836,1287],[160,1247],[474,953],[578,2611],[885,1096],[457,2141],[997,168],[435,1552],[909,858],[740,1274],[1658,398],[16,1618],[411,2597],[-341,2394],[219,2743],[637,1271],[1235,1450],[-25,1171],[789,-357],[47,1486],[674,2928],[334,2092],[-218,1964],[493,413],[-401,1876],[831,1550],[-135,1438],[478,1167],[1117,1290],[148,1956],[839,144],[1089,2948],[1371,1340],[995,1841],[871,-226],[647,1629],[560,382],[312,1199],[1535,965],[1447,1611],[738,2073],[751,2024],[3,975],[710,1056],[299,1728],[814,1497],[814,546],[1246,2307],[730,624],[841,1674],[879,382],[1187,23],[744,858],[1960,-311],[1058,1177],[679,-483],[637,259],[585,985],[858,429],[1287,-242],[998,568],[1530,419],[1184,1967],[731,113],[2484,1189],[424,1257],[1876,515],[1894,1010],[300,1507],[987,557],[1817,-1337],[802,-823],[960,1182],[1345,994],[1463,1642],[559,1817],[618,693],[1592,-1046],[971,373],[1319,1881],[964,1939],[1410,938],[220,1640],[444,1348],[842,455],[166,885],[-347,1337],[387,2657],[462,1792],[589,1399],[-198,1934],[124,1877],[436,2734],[1014,2331],[544,1869],[238,2032],[1299,1177],[1057,1338],[980,1810],[639,1632],[1461,1332],[1521,3157],[824,2700],[267,1457],[-154,1177],[334,1612],[-123,864],[1064,2094],[820,4293],[1012,1653],[1543,1172],[1193,1910],[317,1482],[1095,1807],[1050,7],[1318,-1198],[2003,-62],[1360,315],[756,-485],[633,407],[1874,-60],[961,1078],[38,835],[1388,4385],[845,559],[900,1549],[1383,1332],[820,1603],[896,1001],[623,1241],[1434,1487],[1298,603],[1025,946],[932,1523],[352,-634],[1114,-256],[772,-535],[1550,-292],[496,-686],[1116,2353],[747,2728],[339,4377],[474,3046],[-225,2431],[-1469,2585],[-2208,1033],[-2500,3128],[204,1874],[577,955],[-486,2855],[-379,3502],[1129,3179],[198,1892],[-743,1376],[473,3195],[1148,2177],[1236,3597],[1016,1593],[17,528],[-2764,1397],[-953,1130],[-50,752],[1035,488],[947,1505],[183,1648],[-206,2242],[-338,893],[953,1285],[393,4108],[-129,2984],[1424,908],[1407,-79],[983,399],[751,3052],[1438,2468],[949,2262],[192,1090],[1754,1601],[2502,1241],[1219,-2447],[654,-3362],[1350,-670],[1066,118],[1292,529],[1782,1386],[1588,-3128],[1783,-163],[260,-532],[478,-4578],[-97,-1446],[1979,-1205],[470,-613],[2895,1791],[1220,1536],[952,-226],[346,-1557],[845,-1484],[785,-271],[1999,-1477],[912,-17],[1111,534],[1696,148],[758,-1004],[827,-109],[2706,864],[2337,289],[982,809],[637,1728]],[[988569,607996],[1489,199],[690,-312],[1788,-1534],[2933,-1725],[541,161],[1196,-1299],[653,-373],[-354,-1149],[-193,-1842],[1200,-2884],[6,-2910],[-464,-1625],[-539,-993],[-215,-3049],[225,-1563],[-117,-2910],[-741,-3923],[811,-5360],[1616,-2227],[905,-3242],[-1349,-1828],[-2372,-1751],[147,-3006],[-1165,-2385],[-726,-2043],[-271,-2101],[-339,-1023],[-138,-1640],[235,-1952],[-953,-3113],[-309,-3026],[-838,-1381],[64,-2575],[-200,-1975],[-819,-818],[-331,-1126],[-1208,-1908],[-1153,-1185],[-524,-1276],[-430,-3403],[629,-2598],[-598,-1997],[-143,-1414],[64,-3164],[-898,-3101],[831,-2470],[-292,-3189],[-961,-1332],[-592,-2882],[-508,-1070],[-1219,-414],[-686,-781],[-123,-854],[555,-1751],[19,-1445],[-663,-1184],[-274,-1849],[-1540,-715],[-1104,-1274],[-1150,-395],[-819,905],[-369,-680],[-114,-1845],[-493,-1435],[-1667,-1523],[-367,-3531],[-662,-950],[88,-1361],[-193,-1536],[-1304,-3158],[-237,-2979],[-854,-1028],[-798,-13],[-1123,-3472],[-1188,1065],[-1783,1262],[-1600,-74],[-1411,-833],[-1399,783],[-1211,102],[-925,-660],[-1357,-52],[-1795,-646],[-1555,-780],[-2764,-733],[-390,-489],[-1796,-645],[-1695,-231],[-874,-428],[-1721,-4117],[-2091,-1527],[-1807,-2551],[-258,-2499],[-465,-2184],[-1698,-3126],[-953,-35],[-1173,-1545],[-773,223],[-1182,-397],[-586,-745],[-1065,122],[-2078,-4239],[-1122,-1101],[-756,-2073],[-923,-375],[-1308,-55],[-584,-433],[-1499,-2112],[-431,-1713],[-1323,-2376],[-905,-2645],[-185,-1196],[724,-3064],[-643,-2100],[-1559,-1486],[-933,-2070],[-601,-693],[-835,-1942],[-222,-1978],[168,-1567],[-360,-803],[81,-2583],[-772,-2281],[-248,-960],[-1778,-465],[-843,-586],[-547,140],[-1944,-1114],[-1169,-1231],[-1454,-2975],[-415,-2079],[-40,-1225],[-907,-637],[-1796,-3643],[-384,-2928],[-386,-626],[-1422,-113],[-561,-729],[-1199,-3878],[-993,-524],[-231,-1188],[-554,-313],[-277,-1082],[-1373,-1887],[-398,-1546],[-907,-215],[-2149,-2033],[-713,-200],[-195,-1006],[-725,-877],[-381,-2355],[83,-1646],[-1122,-1458],[-1524,-1359],[-1185,-465],[-1971,-1130],[-747,-1165],[-827,-274],[-500,-941],[-1372,-977],[-1760,-2812],[-1203,-4169],[-1026,-2377],[-191,-1635],[-681,-2055],[445,-334],[249,-1420],[-265,-1291],[-1730,-2110],[273,-2699],[-1516,-2772],[190,-2018],[-393,-1434],[-1021,366],[-805,-339],[-508,-861],[-346,-1788],[-1036,-1958],[9,-1752],[-1182,-1554],[620,-913],[137,-1045],[-377,-874],[-1158,-903],[-674,-2049],[-1085,-1008],[24,-1330],[-450,-1956],[345,-1210],[-217,-1772],[-755,-1112],[337,-1326],[-522,-1357],[-875,-435],[642,-2693],[-17,-2302],[360,-3123],[-998,-2066],[-1060,-3371],[80,-1080],[895,-440],[-711,-2686],[-1067,-2445],[484,-1413],[-403,-4206],[-272,-1463],[474,-1346],[-322,-1153],[323,-1621],[-823,-1725],[355,-1532],[174,-2087],[1832,-549],[-11,-811],[-968,-1523],[-147,-838],[826,-1302],[2731,-701],[235,-321],[-89,-2354],[270,-829],[718,-453],[1,-1252],[637,-1443],[213,-1821],[1049,-666],[384,-891],[188,-1599],[-963,-3530],[141,-1718],[807,-2783],[842,-881],[-8,-1161],[-1733,-1241],[-787,-1024],[-722,-2156],[-975,-715],[-795,-2094],[-1289,-460],[-146,-1856],[-1367,-869],[-220,-1595],[-1126,-1920],[-623,-433],[-1066,-2334],[-89,-1973],[-1028,-964],[-641,-1253],[-913,-2539],[391,-630],[-74,-1802],[-581,-89]],[[453550,798915],[234,2981],[-137,2816],[405,2045],[114,1908],[979,1328],[3093,1011],[1099,651],[1463,1388],[1847,2074],[1137,1536],[2075,5573],[1003,2081],[78,2192],[-710,1471],[-635,3820],[662,2178],[2364,4223],[735,980],[1857,3142],[605,1421],[487,1810],[730,1867],[1397,1776],[1790,1368],[2072,670],[2209,-136],[660,717],[1439,4620],[318,2823],[-573,2700],[70,1253],[571,1681],[300,3135],[445,1104],[469,2356],[-131,2110],[339,2198],[-601,2125],[-325,1975],[-859,1808],[-3260,3427],[-903,1205],[-411,2599],[482,663],[-243,1924],[106,860],[947,1475],[840,2643],[-238,3354],[847,3841],[2770,3145],[167,437],[-808,4369],[-759,1739],[-1243,1434],[-956,2177],[-1529,778],[-366,530],[-504,1903],[-543,2827],[-172,1836],[-680,1296],[-714,2044],[-244,2748],[-319,1213],[197,1627],[-124,1595],[-795,2600],[772,3649],[-128,1158],[-615,2414],[-1342,3914],[-899,1939],[-1451,4220],[-1446,3415],[-1432,4262]],[[467629,962954],[2633,-204],[824,-821],[444,-1037],[1490,-669],[551,-688],[1528,-821],[973,-804],[1242,2290],[1865,2540],[1168,1089],[735,2499],[1047,1690],[730,754],[826,142],[601,-426],[2337,-2567],[1938,-2887],[1325,-824],[2522,-3217],[1137,-695],[1012,-1775],[1905,-934],[1918,-2244],[1002,-2509],[251,-1920],[462,-1839],[416,-3672],[292,-620],[1770,-2259],[575,-1541],[252,-1560],[1565,394],[1867,1126],[942,965],[985,5],[555,-493],[1074,-2014],[132,-1932],[-317,-1152],[29,-1452],[5287,136],[2257,-292],[749,1377],[1438,841],[1663,-612],[1046,1006],[633,-152],[1371,540],[2222,1305],[2170,1476],[936,2116],[2336,740],[1749,1567],[1350,954],[981,-826],[1596,-198],[583,-490],[-6,-5875],[-389,-1138],[420,-1991],[1659,-1215],[1134,168],[1626,-735],[1502,-157],[1552,310],[1030,-386],[1783,-1875],[713,-2814],[1189,1191],[405,886],[1822,2062],[361,1197],[1065,1146],[624,242],[873,2201],[933,1637],[361,2822],[1057,911],[600,939],[1349,1431],[1169,1737],[200,851],[1149,1370],[392,2248],[266,2616],[-58,1769],[-323,3135],[150,1257],[709,1387],[1135,205],[1154,1255],[1185,627],[2120,53],[822,812],[916,1495],[951,772],[1048,366],[2215,221],[474,-292],[1927,104],[2110,1125],[2766,-806],[1180,-859],[3849,-1109],[1839,170],[1206,-1310],[1509,-50],[2172,793],[528,857],[859,-200],[2376,458],[1949,-1401],[2536,-712],[1720,-1289],[1151,-457],[1657,-1828],[1831,-1670],[1323,-2176],[1649,-618],[614,-734],[922,-1778],[1664,-686],[2328,-2099],[1644,-1077],[1354,389],[835,-506],[904,-59],[2066,580],[954,-785],[746,-1960],[2871,1402],[1901,56],[2826,-2803],[-1494,-3633],[95,-4446],[599,-2247],[131,-2931],[-75,-2400],[131,-1451],[894,-4533],[133,-1715],[403,-1502],[321,-2206],[677,-1109],[331,-1299],[216,-2460],[685,-431],[1110,1142],[2867,2512],[569,788],[2340,2552],[1330,2709],[2387,2804],[484,1522],[1159,2485],[1272,4800],[207,1124],[1453,1911],[1294,2543],[3136,4522],[344,1270],[-721,2509],[-1401,2695],[-876,2727],[391,2575],[1268,3462],[1227,624],[460,1881],[691,1869],[2,2673],[500,1953],[15,3226],[211,1671],[-281,1188],[339,808],[1207,603],[2455,799],[2007,-690],[844,-1615],[914,-249],[-102,1573],[-216,7138],[-133,2341],[-390,9919],[144,3420],[1913,953],[1204,307],[1020,778],[2113,-755],[1050,482],[1405,51],[1521,599],[364,-2128],[501,-1048],[936,-3062],[1274,-2071],[1764,-494],[-377,-883],[-1141,-1621],[-524,-1603],[624,-3348],[-236,-2015],[1035,-4232],[917,-647],[614,-1893],[-48,-711],[504,-1880],[79,-1794],[1228,-1777],[317,-782],[-119,-2033],[-1182,-2157],[-470,-1963],[197,-1551],[1511,-1334],[1431,-1672],[64,-1457],[444,-1520],[-205,-4441],[359,-2271],[-597,-1701],[78,-2313],[-253,-1434],[157,-1889],[-1174,-2802],[105,-2428],[904,-1847],[435,-1461],[559,-948],[459,-5874],[1213,-2524],[168,-1888],[-233,-1525],[-41,-2084],[223,-1933],[22,-3141],[975,-2156],[1046,-3164],[-116,-2922],[85,-3084],[472,-1973],[1574,-1330],[505,-1126],[731,-3302],[634,-692],[1979,-391],[1469,-3198],[1625,-1899],[1276,-2438],[146,-1101],[-488,-2301],[652,-1848],[969,-307],[1112,279],[913,-2084],[1360,-847],[1142,-319],[1358,-2295],[1742,-1505],[309,-1229]],[[573866,793007],[-1457,-164],[-796,-838],[-1226,-389],[-1729,-3189],[-853,-2268],[768,-3216],[-40,-1484],[-501,-2051],[-649,-964],[-1542,-901],[-781,96],[-1075,1225],[-1237,133],[-910,-971],[-542,-1579],[-1266,-2051],[-279,-791],[-172,-3283],[-476,-3529],[530,-2554],[-1845,-2384],[-650,27],[-793,751],[-1291,-1506],[-238,-2245],[-529,-1347],[-3616,-3459],[-1078,-1664],[-836,-637],[-851,380],[-674,-578],[-714,-2040],[-747,-998],[-1352,-869],[-1787,-2008],[-1480,-953],[-2206,-307],[-1693,81],[-975,-982],[-1548,-3669],[-478,-1534],[-407,-2551],[-798,-3804],[-547,-1775],[-902,-1251],[-1961,-909],[-841,1136],[-1198,354],[-1890,-789],[-1750,-368],[-1766,-942],[-2318,-2368],[-1171,159],[-880,-431],[-1183,483],[-1246,-2670],[-779,-1103],[-1415,-3247],[-390,-3127],[-1302,-2130],[-2042,1632],[-707,-428],[-1136,889],[-543,779],[-1860,1924],[-1015,-360],[-385,1725],[-405,39],[-488,-1857],[-1289,206],[-784,574],[-1206,172],[-3195,1084],[-845,-896],[-623,-35],[-1365,906],[-665,162],[-1754,-488],[-784,978],[-793,-61],[-675,-878],[-1137,-780],[-1065,766],[-2263,805],[-2473,94],[-1279,411],[-1966,232],[-556,-163],[-1392,-2102],[-548,1057],[-482,3424],[-455,1619],[141,2056],[-127,2141],[787,869],[173,848],[-173,1854],[1361,2215],[-772,4192],[251,1021],[-252,881],[-73,2810],[441,3291],[932,2889],[-346,486],[-1592,404],[-1723,689],[-677,-382],[-993,577],[-1444,330],[-1277,1691],[-1848,137],[-1714,1550],[-1556,121],[-1543,459],[-1360,-215],[-1695,1288],[-640,897],[-923,1932],[-1161,3310],[119,1254],[931,3045],[770,3068],[1790,3067],[1029,2995],[1513,3372],[1071,1902],[937,2368],[1109,1225],[364,1130],[1030,780],[767,1451],[1225,890],[1436,2874],[-206,1403],[-2887,2046],[-1025,263],[-1470,1090],[-1214,-368],[-440,199],[-1797,-589],[-2766,-1159],[-1258,-1022],[-2300,1278],[-1215,1616],[-834,790],[-659,1211]],[[593974,173498],[-273,-13],[-1306,-1618],[-403,147],[-786,3125],[-1812,-372],[-268,2066],[-695,1376],[755,2378],[1293,-708],[1155,649],[1016,1364],[311,916],[-534,1508],[-1040,1240],[-461,1017],[22,878],[711,3134],[1920,-663],[1515,-1598],[2139,-935],[500,256],[1087,1763],[719,337],[78,1047],[-597,1523],[-1204,1159],[-523,920],[-957,2631],[-8,2357],[383,2446],[760,2486],[-267,2354],[-797,610],[-1947,-1637],[-1108,19],[-1960,-456],[-242,1021],[130,2019],[-307,1736],[23,1408],[497,4384],[-353,928],[-181,1758],[263,2001],[0,1632],[342,1921],[-24,1615],[-456,1250],[-778,1242],[-1045,3718],[-29,3034],[-753,3059],[-578,877],[-1203,311],[-828,-458],[-1021,965],[-382,1125],[-554,441],[-664,1658],[-1607,1324],[-939,1709],[-1189,891],[-1404,-267],[-597,540],[-442,1291],[-827,738],[-1793,313],[-1258,-1235],[-853,386],[-1707,2661],[-1022,3087],[-44,1484],[424,1443],[106,2547],[-181,657],[-1728,642],[-946,1492],[-359,2921],[-216,2965],[-463,2824],[-1250,2760],[373,736],[337,2224],[1123,3331],[1127,1764],[2123,207],[2692,2263],[2515,-113],[311,171],[549,2897],[-161,3384],[-192,1357],[190,1217],[946,1709],[1202,1395],[860,575],[2030,-85],[1244,708],[1191,1500],[907,2109],[1149,3589],[0,2443]],[[585470,307403],[457,606],[1894,388],[927,876],[988,1594],[1242,855],[1679,-1264],[710,1233],[925,-759],[122,-1575],[522,-753],[1277,671],[777,-1939],[851,-1234],[119,-2355],[1368,698],[182,-1360],[-789,-1448],[-651,-1710],[-740,-834],[96,-1073],[1982,-2259],[651,-370],[1107,-1471],[2168,-468],[1221,243],[591,1409],[978,1510],[2178,1647],[1035,-1509],[1103,-190],[512,-1180],[19,-2288],[2437,-978],[826,-1221],[423,-1596],[652,168],[430,1578],[958,-473],[-52,-1920],[658,-1387],[739,-838],[1121,375],[436,913],[-134,1489],[663,912],[746,-1125],[-518,-1423],[991,89],[1087,-435],[1218,884],[1281,191],[301,1749],[1152,-134],[747,-474],[1022,-123],[429,1069],[1761,-504],[714,-525],[1401,714],[618,-329],[239,-744],[2446,670],[988,-95],[963,-694],[1064,1078],[1376,597],[1951,-387],[2404,1888],[860,86],[151,1076],[628,2],[461,1332],[-596,860],[621,721],[743,-282],[548,-902],[350,-2080],[942,690],[104,-910],[-1031,-1529],[438,-472],[768,374],[412,-1099],[-721,-1115],[1418,-1437],[1713,-3830],[161,-884],[2386,847],[1584,-142],[532,1672],[732,777],[1183,132],[546,1123],[1272,957],[-297,816],[434,1067],[836,-776],[1335,1142],[515,142],[612,-1877],[1059,-431],[638,-2059],[578,-744],[1906,334],[917,1130],[1668,849],[404,1766],[1209,806],[207,2181],[515,2003],[-484,2022],[80,1877],[-634,1629],[-752,376],[-1679,2192],[-412,1034],[861,2961],[-372,1126],[17,1773],[574,766],[-78,2536],[456,1119],[44,1199],[481,1849],[-1,898],[768,2170],[661,657],[420,1509],[708,1621],[1616,2230],[351,2715],[24,1641],[419,1456],[784,1154],[2118,1903],[1505,496],[958,598],[728,-1309],[1693,-1425],[1365,830],[2248,-505],[880,-1156],[3091,-2055],[1435,-2094],[1180,-246],[778,251],[659,-398],[870,136],[1228,-498],[1002,-868],[914,4358],[257,3958],[849,1840],[-385,1233],[604,2625],[953,667],[780,1038],[191,778],[-476,1723],[180,1576],[470,1202],[-166,2639],[552,2065],[75,1548],[1009,765],[200,1264],[582,1540],[1550,-1138],[372,-957],[1036,-975],[1609,-148],[1691,2027],[755,2151],[2083,1133],[917,821],[1493,2263]],[[716935,362535],[1013,-1390],[1220,-61],[544,-525],[58,-1914],[-767,-1821],[617,-1014],[426,-2243],[668,-899],[1396,-1006],[1151,-270],[799,-858],[1850,-3354],[1264,-402],[1180,-1780],[515,-351],[1367,-29],[2005,-1145],[1828,-2652],[1457,281],[1056,-103],[1826,-1859],[1335,1359],[1427,842],[1119,-2766],[762,-1403],[669,-132],[802,1527],[534,289],[1670,-1189],[1237,-1694],[885,-387],[1491,-1346],[1841,-528],[1071,207],[1138,-1426],[1388,-1353],[496,-1151],[373,-3122],[559,-1117],[924,-104],[1025,-970],[96,-1708],[-168,-1587],[657,-1645],[1523,-959],[918,-1287],[447,-1851],[1175,-1323],[838,884],[1380,-185],[345,1737],[79,2400],[471,993],[578,309],[1023,-262],[1091,-991],[1752,-2006],[600,-1422],[630,-3686],[357,-1260],[2425,-2421],[293,-699],[-76,-3186],[312,-3391],[448,-1321],[111,-1560],[-349,-1251],[456,-1347],[1098,-952],[157,-2807],[-369,-2033],[-215,-2501],[103,-1325],[515,-1880],[1200,-509],[2187,2001],[1650,-218],[1264,-1558],[2929,-4224],[1237,-2528],[1400,-2006],[1338,-1443],[994,-3048],[497,-452],[333,-1298],[-583,-989],[-247,-1489],[231,-682],[1374,-384],[1001,982],[1036,-276],[576,-831],[1426,-3486],[730,-2600],[392,-685],[1349,-722],[1570,49],[1018,-1202],[982,-1908],[318,-1220],[999,-1959],[1375,-498],[433,1930],[1219,836],[1899,-177],[2166,290],[417,-619],[299,-4027],[-245,-3262],[345,-2298],[673,-880],[1368,80],[1415,-2243],[1059,-768],[1424,-1799],[1422,-431],[3738,148],[572,334],[860,2003],[767,841],[842,-543],[214,-863],[1088,-1250],[1929,-1069],[754,-876],[1145,-694],[765,-1211],[-238,-1480],[244,-1419],[685,-1224],[351,-1477],[1394,-3058],[1835,-963],[608,-624],[1399,-2558],[797,-1037],[894,-395],[1023,2802],[365,1991],[657,1887],[696,510],[1523,-303],[1249,602],[3544,190],[1114,-615],[1159,-236],[1797,454],[2061,1569],[774,-389],[1604,-1492],[2357,-1463]],[[860891,225694],[1385,-1732],[1457,-1307],[1064,-441],[1684,-2319],[1920,-1843],[2129,-1132],[697,253],[1154,1112],[1868,1054],[396,583],[181,1389],[515,1605],[835,909],[1590,477],[1014,1177],[658,260],[113,933],[938,1130],[426,1388],[126,1638],[717,540],[985,-750],[1148,2164],[633,283],[292,-771],[-291,-3717],[879,-1268],[1411,-300],[1785,-1360],[799,-2112],[951,-909],[719,335],[617,126],[970,-515],[1269,-1710],[1139,-2890],[489,-480],[2929,-393],[1043,-308],[582,-857],[242,-1362],[1252,-995],[1115,-253],[489,-468],[1181,204],[1462,-348],[1063,-660],[967,-62],[1272,652],[2622,-862],[891,-571],[318,-1058],[-140,-1728],[608,-2368],[2,-1606],[-1102,-3366],[-57,-2720],[482,-846],[517,-3115],[859,-1538],[2408,-875],[1486,506],[1327,-284],[2408,-3382],[1342,-2478],[964,44],[1194,849],[833,123],[883,-511],[389,-753],[1382,-6199],[1038,-1705],[1275,-446],[-2102,-3181],[222,-890],[-697,-627],[-26,-860],[-665,-1134],[-96,-1111],[-529,-568],[-524,-1431],[362,-1071],[-643,-1555],[-826,-577],[-588,-1470],[31,-2544],[-1229,-2661],[183,-529],[1234,-1265],[-274,-937],[-901,197],[-480,-784],[-452,-1695],[-168,-1921],[-513,-147],[-1242,991],[-1213,-1875],[-548,86],[-423,1642],[-816,939],[-1054,70],[-927,-436],[-644,749],[-1417,97],[-439,2280],[-344,-129],[-591,-1506],[-63,-2586],[-1729,-3056],[465,-1121],[-1255,-3015],[322,-1934],[-238,-1741],[-360,-895],[27,-1240],[-574,-378],[-535,-2949],[-643,-859],[-184,-982],[-687,-1226],[-103,-993],[-731,-875],[-4245,637],[-505,-923],[-1678,59],[-381,-490],[1794,-4036],[1271,-158],[1169,-551],[1616,-1235],[424,-683],[698,52],[1091,921],[1546,-491],[803,723],[2389,3724],[1375,-462],[1537,376],[601,-872],[1951,-449],[473,-1176],[-125,-1359],[768,-921],[805,437],[917,-565],[-925,-1457],[-233,-919],[-881,-921],[661,-1601],[-343,-1104],[153,-4224],[-610,-1721],[-481,131],[-374,-4103],[-1094,-1252],[-100,-2375],[-373,-492],[-742,778],[-502,-286],[-437,-1406],[422,-2533],[1479,180],[-178,-735],[308,-1452],[1841,-1612],[891,-1126],[938,-1893],[976,-773],[279,-2627],[-74,-2505],[177,-986],[-146,-1673],[1008,-3076],[702,-531],[864,100],[1014,-671],[598,-919],[821,303],[662,-408],[1175,-1552],[-1097,-625],[46,-1630],[-663,-727],[-1372,-3440],[508,-1431],[-526,-801],[-774,-2731],[760,-1537],[-138,-1076],[-540,-696],[698,-1464],[-361,-3458],[-2426,-2211],[356,-1092],[215,-2233],[-563,-3325],[-112,-4387],[-687,-3566],[-1131,-2792],[-1289,-2004],[-1237,-3682],[-708,-1272],[-1026,-465],[-1559,-153],[-1315,602],[-2034,-526],[-1574,656],[-929,-577],[-1737,134],[-1662,-114],[-716,-437],[-1186,260],[-1803,-786],[-1471,-1449],[-2115,-3230],[-1022,-829],[-959,-1285],[-1585,-1273],[-1005,-424],[-2493,-612],[-850,-1372],[-58,-2653],[-562,-1843],[60,-2087],[-474,-1799],[-791,-1121],[-2459,-1485],[-2011,-1935],[-1070,-1684],[-672,-1885],[-75,-2617],[-840,1267],[-236,1557],[168,948],[-110,1758],[355,762],[-1011,2868],[-991,804],[-655,1264],[-1150,678],[-1242,1166],[-545,928],[-840,483],[-402,1289],[-984,1358],[-712,1884],[-46,1506],[-367,833],[-603,34],[-1458,-876],[-1181,662],[-285,1274],[-654,316],[-271,1143],[-704,578],[-560,1018],[-1030,2586],[-608,345],[-365,1392],[-1632,2177],[-1882,1336],[-831,1160],[-1117,307],[-1841,2734],[-708,712],[-34,1278],[-406,1040],[-1416,-905],[-187,769],[402,1543],[-271,1237],[-571,-169],[-1820,1468],[-804,-2],[-940,1519],[-805,160],[-1687,1539],[-973,-243],[-1372,1936],[-3632,1592],[-2458,2257],[-989,343],[-956,945],[-696,83],[-1394,1747],[-1870,1379],[-2116,2075],[-2212,1380],[-1970,1766],[-1188,528],[-2245,2099],[-1813,741],[-508,605],[-1057,63],[-771,458],[-897,2],[-803,524],[-1378,192],[-1359,-487],[-1185,-66],[-804,437],[-2069,-176],[-1268,276],[-2180,-372],[-802,56],[-1988,-348],[-1960,485],[-674,163],[-78,1184],[-675,227],[-414,-683],[-1338,-433],[-1733,189],[-2712,637],[-1056,-390],[-842,122],[-1392,-720],[-2376,559],[-1070,-1005],[-558,1155],[-641,-153],[-1521,1287],[-887,-716],[-738,160],[-985,1319],[-1286,799],[-1219,345],[-1011,1362],[-740,1590],[-435,2641],[-1047,1055],[-227,1544],[-1848,3315],[-1022,2388],[-354,1718],[-856,1445],[-696,2747],[305,1303],[-445,2049],[95,1511],[-708,3037],[-632,1058],[245,1930],[-278,2118],[-268,595],[-799,-429],[-536,2375],[149,1878],[-2481,3255],[-839,-482],[-1188,267],[320,1762],[-222,1141],[-906,24],[-641,1655],[-847,974],[-346,1868],[-910,2573],[-1423,5518],[-422,2392],[102,1785],[772,4192],[-34,1681],[-3074,2670],[-3246,1349],[-600,1029],[-1425,257],[-776,428],[-697,1617],[-1136,324],[-1304,788],[-1396,1072],[-618,1177],[-821,165],[-1028,1176],[-862,1364],[-821,140],[-1336,2638],[-1671,825],[-753,-1945],[-2316,-2628],[-354,-1174],[-1002,-1089],[-1074,-1892],[-1618,-3657],[-764,-554],[-1034,1996],[-458,1760],[-1208,827],[-431,2579],[-1782,1534],[-1281,516],[-1629,2298],[-1082,310],[-1045,1691],[-373,1451],[709,606],[445,1089],[796,501],[320,2239],[1085,2830],[-903,1013],[-2185,1740],[-1734,2116],[-1201,286],[-815,571],[-1037,-917],[-963,-2247],[-1110,-837],[-460,-856],[-626,-151],[-1031,455],[-834,-83],[-1339,1643],[-799,464],[-1916,1821],[-833,7],[-1350,1241],[-998,1303],[-547,1600],[-1946,1302],[-554,-240],[-487,645],[-1513,932],[-415,854],[-642,-162],[-1383,1583],[-662,1157],[-1989,90],[-1185,822],[-343,645],[-1922,858],[-1027,-41],[-929,547],[-470,1144],[-1089,-567],[-1120,342],[-1475,1675],[-1680,170],[-1394,1032],[-1542,1801],[-703,242],[-516,-560],[-540,-2296],[-1141,-1921],[-1233,-295],[-3595,-1925],[-861,-70],[-1116,836],[-529,-24],[-1306,-1340],[-435,-2077],[-556,-612],[-804,-1627],[-811,-834],[-748,-59],[-124,-1306],[-1486,-3535],[-1577,-1473],[-1549,-1],[-884,-491],[-550,-1657],[-1516,-1553],[-153,-1257],[-1033,-2554],[-1759,-336],[-645,-406],[101,-1675],[-929,235],[-648,-1162],[-612,-435],[-976,-3381],[-1165,-1572],[-391,-111],[-889,-725],[-406,541],[-645,-507],[-1958,-563],[-860,-2331],[-1075,-331],[-1271,1154],[-808,1049],[-904,-1195],[-622,798],[-1704,451],[-546,657],[-1928,-1463],[-1163,109],[-583,1382],[-1003,1209],[-1341,-602],[-801,-1374],[-870,323],[-1250,1240],[-1328,397],[-756,-541],[-1063,838],[-802,-334],[-1246,-2511],[-1626,-1811],[-642,2803],[-89,1497],[-1137,25],[-1501,814],[-643,-581],[-989,475],[-1152,1520],[-1352,-266],[-479,-425],[-160,-2299],[898,-1109],[-1899,36],[181,1144],[-939,1542],[-957,101],[-47,1054],[-1684,1500],[-1078,-327],[-645,-1381],[-232,-2397],[-589,-1075],[-1015,-410],[-2587,312],[-1985,1226],[-1268,-467],[-1110,986],[-2033,282],[-1212,-195],[-2010,2040],[-766,2088],[-922,3054],[-642,357],[983,4202],[384,960],[934,717],[2659,-464],[480,615],[-81,1360],[-1114,753],[-421,1277],[938,1309],[463,1523],[-93,726],[-828,1451],[-1207,-1192],[-962,-242]],[[614639,571041],[3028,-246],[790,653],[1095,-1683],[424,18],[313,2984],[287,846],[-11,2388],[-831,924],[-1492,1140],[-244,1181],[-1501,3674],[-147,1709],[-1262,2822],[-1454,1219],[-103,695],[-2011,1657],[-486,-60],[-742,1364],[-418,98],[-1462,2458],[-907,120],[-650,-1369],[-2103,-299],[-2097,-1003],[-948,-907],[-1508,83],[-917,-511],[-1273,-13],[-773,-984],[-1069,132],[-1231,1007],[-1716,-1464],[-1769,-3073],[-1959,704],[-1452,-227],[-957,-1197],[-909,-602],[-1107,907],[-262,1384],[-1141,1764],[312,2589],[-284,1760],[112,953],[-85,3581],[-641,1302],[-985,2970],[-669,1181],[-1291,449],[-719,1933],[-1239,526],[-718,1582],[-348,1852],[-98,1919],[-587,495]],[[576424,612426],[213,2650],[-394,1421],[51,1378],[326,3527],[1047,2586],[308,1373],[85,2313],[682,4133],[-594,1557],[-575,815],[-47,907],[709,724],[887,2105],[1641,2307],[322,1405],[-32,1880],[1704,1717],[184,1428],[1209,95],[437,1014],[-306,808],[-95,2145],[306,989],[-202,2012],[-497,991],[90,1399],[1074,614],[613,-239],[544,509],[638,2623],[191,2135],[-79,1659],[186,1420],[797,2166],[194,4051],[828,3094],[988,2561],[-106,2062],[896,1797],[452,1516],[-58,3339],[-186,1483],[-1512,4805],[-188,3641],[-202,584],[122,2351],[265,945],[-307,1753],[137,3558],[-384,1030],[-44,1300],[-1055,2186],[828,2691],[295,2342],[590,1920],[859,1207],[1855,-107],[662,683],[-85,1416],[228,1217],[-438,1261],[-143,1763],[-487,1624],[-2,1930],[-804,3532],[-61,1091],[1163,3185],[395,2071],[1071,1528],[-565,3744],[418,3107],[1183,4826],[-13,4624],[78,2080],[-489,4031],[-529,1562],[-683,1088],[-1870,2236],[-1366,1267],[-631,1819],[-191,2693],[-1278,3635],[-924,974],[-1050,1646],[-1127,2446],[-1561,2143],[-1407,1682],[-1185,1042],[-1177,600],[-1695,1463],[-784,304],[-1956,1556],[-720,1295],[-225,2742]],[[573866,793007],[833,2744],[231,1889],[796,998],[1804,805],[1556,63],[1054,1035],[4730,6898],[926,976],[2850,328],[2211,-353],[886,427],[-5,4668],[839,1364],[762,2222],[701,3027],[-159,1950],[-612,1905],[-885,3875],[-229,3433],[1834,2082],[1153,2361],[1246,3531],[646,1172],[1535,517],[1007,65],[1718,898],[2298,632],[1348,1380],[969,101],[1361,2392],[698,1906],[249,2564],[2603,46],[1531,211],[1324,503],[1786,-414],[880,221],[1300,-870],[1170,-1626],[1077,-1125],[1393,-796],[753,26],[749,-559],[1620,-2922],[1137,351],[1895,-2603],[1339,451],[572,-236],[1847,1452],[1072,391],[765,1004],[1055,118],[1297,-1763],[824,-1920],[1577,-766],[596,-746],[299,-2867],[690,-1957],[-502,-2421],[53,-2827],[190,-1085],[587,-945],[1590,-626],[1835,-1543],[604,-186],[822,525],[768,-129],[522,543],[386,1808],[691,1422],[-127,1829],[849,2218],[1510,2346],[2588,1029],[409,914],[498,2404],[656,576],[2286,1317],[1364,238],[891,-294],[1868,1036],[1676,1370],[1214,576],[1559,-357],[274,-546],[475,-611],[1938,41],[1855,1287],[1976,976],[1179,2626],[582,532],[1458,-1289],[1022,-160],[1242,487],[30,2234],[-322,1884],[282,1358],[1045,1283],[1214,1062],[1361,-128],[312,-330],[316,-2098],[1190,-434],[1062,581],[2341,557],[384,458],[1817,-358],[576,324],[1338,1806],[775,436],[1961,-336],[1625,676],[1304,-105],[1495,537],[1883,-868],[1299,290],[1264,-825],[287,381],[429,2200],[2637,2345],[1352,895],[1046,1156],[-7,2459],[1422,414],[652,1202],[355,2989],[-43,995]],[[708838,870587],[1621,1230],[1125,122],[1211,2427],[810,883],[1140,75],[349,-527],[-22,-2116],[315,-2786],[252,-987],[1404,-2618],[3019,-3667],[1539,127],[2928,-598],[612,-424],[1974,513],[231,-1871],[81,-4378],[214,-2518],[524,-2806],[946,-2431],[983,-1369],[1096,-195],[183,-2090],[-35,-2613],[414,-1325],[859,-1477],[2149,-1764],[548,-652],[636,-1589],[152,-1027],[-405,-1248],[-742,-3898],[-21,-1503],[440,-1262],[-379,-1465],[268,-3690],[853,-1614],[1945,-2407],[882,-444],[2360,116],[1020,-520],[432,-1774],[1629,-1149],[1399,-2224],[640,-3645],[-256,-3874],[1004,-4240],[488,-1229],[22,-1178],[-870,-2119],[202,-1825],[-125,-2402],[-435,-1375],[-1242,-1499],[-95,-3036],[317,-2722],[859,-1665],[520,-1518],[-291,-2767],[83,-1767],[429,-1052],[3003,-1969],[1420,-186],[676,-622],[1528,-3435],[679,-1159],[1126,-2495],[460,-1602],[1270,-3425],[1112,-1154],[636,-1724],[1077,-2190],[840,382],[1441,-1110],[1426,-1710],[1720,-2767],[1362,-1356],[935,-1432],[653,-1933],[1087,-1556],[1308,-3518],[997,-1172],[2598,544],[210,-983],[985,-2101],[-18,-1948],[584,-1726],[-128,-2337],[-977,-2312],[-1160,-1916],[-465,-412],[-951,-2435],[-1235,-1902],[-829,-2231],[-964,-1565],[-401,-1077],[-672,-4292],[188,-1553],[-416,-2103],[-580,-629],[-716,-2876],[-366,-2054],[-480,-1502],[-1289,-2372],[184,-708],[1312,-1177],[772,-65],[998,-1204],[1290,-1058],[257,-634],[2465,-1645],[1979,-2738],[606,-1620],[1149,-742],[1888,-2647],[2213,-2378],[1421,-1141],[2071,-986],[622,-1756],[796,-583],[599,136],[1776,1545],[983,-261],[621,1102],[671,188],[837,-1565],[1993,-2924],[725,-612],[1075,372],[771,-194],[2049,-1504],[2304,-1049],[1500,1504],[1589,4],[986,-1513],[1955,3],[830,-1148],[993,-212],[1704,-1617]],[[808685,668399],[-19,-347],[-2237,-1702],[-1025,-999],[-942,-1920],[-435,-1437],[-1092,-1448],[-828,-1772],[394,-2636],[-587,-2163],[-625,-1136],[-426,-1554],[-119,-1988],[-547,-2681],[-1351,-1083],[-1819,-376],[-1362,-1978],[-669,-2384],[-319,-3041],[-748,-2407],[-172,-2979],[-634,-1152],[-2058,-1335],[-2237,-2309],[-675,-244],[-995,-1920],[-406,-1735],[-1052,-1147],[-509,-1938],[1515,-3187],[783,-3111],[816,-1464],[718,-363],[444,-1712],[736,-1602],[899,-1180],[589,-1461],[478,-4372],[523,-1231],[-374,-5716],[348,-1794],[1236,-2343],[-69,-1696],[-386,-1146],[-948,-4463],[-854,-2126],[733,-2651],[583,-1574],[1770,-1995],[1124,-2425],[1179,-2150],[-616,-4335],[-208,-2183],[-410,-1480],[-90,-1434],[-956,-2258],[-841,1049],[-891,-257],[-1839,1580],[-960,234],[-1412,968],[-644,-139],[-2241,490],[-1053,-1245],[-883,-78],[-2088,-1314],[-1611,-752],[-889,-946],[-3253,-2287],[-534,-103],[-1027,2013],[-1155,1261],[-1861,1376],[-722,221],[-1343,-218],[75,-3765],[-390,-1051],[-1143,-1613],[-588,-362],[-889,-1862],[-289,-1657],[148,-1574],[-383,-1547],[-1226,-1767],[-1279,-2861],[-1587,-2036],[-881,-530],[-716,-1193],[-274,-1764],[132,-1575],[47,-1780],[416,-1928],[459,-468],[-17,-4390],[-1726,-3519],[613,-4292],[886,-2684],[-58,-1357],[443,-2191],[-20,-1986],[-1805,-823],[-740,-720],[-556,-1332],[-1209,35],[-598,-937],[-2969,-86],[-828,-2886],[-77,-2400],[-323,-1760],[96,-3456],[-237,-1451],[-1628,-1590],[-287,-1528],[413,-2948],[-1541,-2144],[-438,-110],[-559,-1356],[-1115,-937],[-990,-290],[-393,-1157],[-1148,-935],[-1161,-1666],[-681,-2789],[-592,-1460],[-474,-263],[-790,-2575],[427,-1327]],[[741057,472346],[-178,-958],[-883,227],[-153,1367],[-498,1018]],[[739345,474000],[-266,1294],[-625,266],[-1201,-410],[-238,1110],[28,1540],[-964,179],[-480,2037],[-1022,1437],[-428,2241],[-895,-477],[-880,1298],[-1029,210],[-730,1551],[-468,-2],[-1761,-2837],[-659,-750],[-2983,-817],[-656,1182],[-698,637],[-906,1666],[-899,1115],[-952,1824],[-1360,1505],[-680,1679],[-1070,1517],[-1151,527],[-471,-134],[-519,730],[-600,1598],[36,1122],[1276,3751],[977,1415],[-588,2302],[-138,1286],[-1033,2664],[-475,545],[-1264,2336],[-1034,-107],[-1181,-1011],[-1566,-969],[-624,320],[-2341,-148],[-951,-840],[-558,392],[-1290,12],[-2450,1922],[-1059,313],[-1858,-1032],[-1512,256],[-526,2089],[-346,512],[-1414,305],[-989,-265],[-460,1301],[-1775,897],[-484,23],[-439,-1102],[-590,395],[-37,1516],[-912,-74],[-581,1236],[-763,-471],[-1740,-203],[-826,-1009],[-873,995],[-1340,-1202],[12,-2921],[-648,-1181],[-1574,-969],[-333,-1684],[-51,-1848],[-771,-608],[74,2019],[-703,1163],[-554,-397],[-448,-1305],[-1131,-1418],[-733,316],[-451,-2815],[-920,-2002],[-666,-905],[-166,-3919],[-219,-1916],[-477,607],[-70,1925],[291,2398],[-778,1606],[-1326,1363],[-399,1414],[-787,1504],[-964,982],[-472,1089],[-281,1953],[590,1742],[-597,2017],[-257,1814],[-1001,4],[-527,726],[-564,1666],[671,1938],[21,888],[-758,1860],[-1015,-557],[-971,526],[-286,3001],[607,1583],[-928,1951],[141,3184],[-318,792],[-1302,591],[-1786,2556],[-307,2046],[-867,970],[-1046,1935],[-902,-291],[-1792,1372],[-679,1145],[21,1095],[-585,1796],[-709,363],[-1442,-414],[-1810,-1226],[-743,466],[-1043,1323],[-1274,514],[-689,1561],[-1391,1962],[-1817,1227],[-962,1142],[-405,-106],[-2361,1074],[-942,1136],[-551,3023],[35,1511],[-344,1916],[-490,1121],[-2303,2912],[-1026,-1535],[-1245,-1339],[-1371,-10],[-1386,1189],[-410,965],[-676,418],[-1227,-23],[-668,901],[-1428,7],[-743,-581],[-993,176],[-420,-726],[-98,-1483],[-970,-671],[-1033,19],[-144,729],[-1040,657],[-653,1149],[-2002,-120],[-1121,528],[-1744,3651],[206,1646]]]}