{"type":"Topology","objects":{"districts":{"geometries":[{"properties":{"DISTRICT":"BAGLUNG","STATE_CODE":4,"PR_NAME":"Gandaki Province"},"type":"Polygon","arcs":[[-11,-18,0]],"id":2},{"properties":{"DISTRICT":"GORKHA","STATE_CODE":4,"PR_NAME":"Gandaki Province"},"type":"Polygon","arcs":[[-29,-4,-6,1]],"id":22},{"properties":{"DISTRICT":"KASKI","STATE_CODE":4,"PR_NAME":"Gandaki Province"},"type":"Polygon","arcs":[[-27,-22,-20,-15,-8,-3]],"id":34},{"properties":{"DISTRICT":"LAMJUNG","STATE_CODE":4,"PR_NAME":"Gandaki Province"},"type":"Polygon","arcs":[[-28,2,-7,3]],"id":38},{"properties":{"DISTRICT":"MANANG","STATE_CODE":4,"PR_NAME":"Gandaki Province"},"type":"Polygon","arcs":[[-14,-10,4,5,6,7]],"id":41},{"properties":{"DISTRICT":"MUSTANG","STATE_CODE":4,"PR_NAME":"Gandaki Province"},"type":"Polygon","arcs":[[8,9,-13]],"id":44},{"properties":{"DISTRICT":"MYAGDI","STATE_CODE":4,"PR_NAME":"Gandaki Province"},"type":"Polygon","arcs":[[10,11,12,13,14,-19]],"id":45},{"properties":{"DISTRICT":"NAWALPARASI_E","STATE_CODE":4,"PR_NAME":"Gandaki Province"},"type":"Polygon","arcs":[[-24,15]],"id":46},{"properties":{"DISTRICT":"PARBAT","STATE_CODE":4,"PR_NAME":"Gandaki Province"},"type":"Polygon","arcs":[[16,17,18,19,-21]],"id":52},{"properties":{"DISTRICT":"SYANGJA","STATE_CODE":4,"PR_NAME":"Gandaki Province"},"type":"Polygon","arcs":[[20,21,-26,22]],"id":72},{"properties":{"DISTRICT":"TANAHU","STATE_CODE":4,"PR_NAME":"Gandaki Province"},"type":"Polygon","arcs":[[23,24,25,26,27,28,29]],"id":73}],"type":"GeometryCollection"}},"bbox":[82.87929276500006,27.437561457000072,85.20026914300007,29.33126908400004],"transform":{"scale":[2.3209786989787105e-06,1.89370952070949e-06],"translate":[82.87929276500006,27.437561457000072]},"arcs":[[[303067,337803],[-1724,2031],[-414,1022],[-32,2029],[-1292,1067],[-1442,46],[-920,297],[-1260,816],[-602,675],[-275,1035],[722,1688],[578,827],[-76,786],[-2019,1985],[-2255,1201],[-416,3627],[169,1132],[-253,844],[-1266,432],[-815,682],[-2084,721],[-2894,-516],[-2301,-1728],[-1152,988],[-2071,1264],[-1434,-460],[-723,167],[-1736,1028],[-1349,1642],[-969,845],[-1952,-545],[-506,-1365],[-1848,-2023],[-549,-1221],[-1954,-456],[-681,-616],[-1680,-932],[-1466,-21],[-810,1575],[-1459,705],[-1104,-144],[-1610,874],[862,1348],[658,2462],[268,2015],[-1958,1157],[-955,-333],[-1981,230],[-532,-717],[-1314,-431],[-594,179],[-1199,1165],[-991,-383],[-1172,-1250],[-985,-1572],[-2542,-711],[-702,439],[-638,1229],[-1456,1466],[-1246,-860],[-965,164],[-1032,-312],[-754,-912],[-1238,-730],[-1248,-83],[-1527,1243],[5,1493],[-711,2952],[-2118,626],[-899,1508],[-120,1813],[-1710,766],[-494,1555],[-879,206],[-1582,857],[-801,1136],[-1629,1728],[-440,2373],[-1128,2110],[-522,1646],[-2380,-1963],[-2701,3732],[-863,1481],[-1412,1249],[-968,193],[-281,802],[172,1881],[-517,1057],[-2134,1542],[86,1187],[-526,575],[-226,1283],[-1823,1436],[-1281,660],[31,705],[-1202,174],[-977,-1690],[-908,-46],[-313,-556],[-1104,95],[-1683,-1219],[-1296,-674],[-937,116],[-2204,-627],[-1502,53],[-1032,689],[-1705,-291],[-1049,457],[-899,-227],[-1072,1395],[-1448,598],[-505,1076],[-709,764],[-669,128],[-2056,-1118],[-1765,-1543],[-2954,79],[-1335,-187],[-1320,-1157],[-1097,-151],[-757,-221],[-885,684],[-764,-1095],[-1035,-751],[-499,1200],[-879,1118],[54,1718],[-1663,1893],[-1145,491],[-1447,-97],[-838,532],[-188,1848],[-1306,975],[-668,1483],[-28,1335],[-909,1570],[-1930,1448],[-1338,165],[-900,1391],[-974,-55],[-1193,712],[-1432,389],[-199,2043],[-893,1358],[-1274,1489],[-1023,751],[76,1370],[-997,371],[-810,776],[-794,1863],[-1834,1589],[7,2101],[-315,487],[-1361,10],[-1186,1015],[-1594,891],[-203,1086],[-561,821],[-1106,968],[-1306,493],[-1257,1268],[-841,1162],[-1790,1010],[-433,994],[-807,446],[-333,1156],[-537,125],[-1221,-638],[-1484,-2253],[-1431,-831],[-435,-933],[-1950,-1653],[-607,-187],[-848,1927],[-1187,826],[-628,2122],[-888,346],[-1192,1332],[-535,136],[-1219,-1653],[-1697,-862],[-262,-920],[-1188,-746],[-1391,-2129],[-873,-804],[-730,-1458],[-1386,-1605],[-1844,-721],[-1315,340],[-573,1469],[-187,1652],[-697,578],[-629,-485],[-1844,-169],[-925,-1286],[-1209,-461],[-932,-659],[-2496,137],[-1082,752],[-930,1045],[-1492,285],[-776,-104],[-964,532],[573,1880],[280,2266],[-35,2169],[758,2041],[79,1612],[-608,1096],[-1203,-220],[-1487,1910],[-1039,2462],[-1090,1906],[-1635,954],[-813,59],[-277,1062],[-1034,2170],[-467,521],[-2012,1352],[-673,1289],[147,3082],[-120,1089],[-831,1048],[-1067,678],[-1390,1660],[-1101,-107],[-3182,761],[-588,409],[-830,1342],[-1385,1214],[-545,16],[-1480,-1257],[-2696,-294],[-1874,1040],[-2327,781],[-2506,331],[-984,1473],[-140,960],[-858,1110],[-1443,641],[-1564,-589],[-1421,296],[-980,1698],[-813,2109],[-131,1012],[-489,499],[-261,1438],[-1578,2889],[-1938,928],[-2612,1987],[-1231,1311],[-1159,93],[-2364,-391],[-1952,-633],[-2625,1113],[-1719,-134],[-1099,344],[453,716],[403,1543],[-159,1332],[-711,2817],[-1556,901],[-808,1103],[-476,1230],[44,1181],[911,1875],[-1325,1615],[-587,2296],[-1398,936],[-226,732],[642,1940],[-773,245],[-1498,-205],[-266,1357],[-790,547],[-1169,-438],[-1569,27],[-927,464],[-2022,-508],[-2093,340],[-832,820],[1030,1464],[388,1553],[-387,1778],[126,2183],[-172,814],[-1176,2025],[-567,634],[-819,2347],[472,1110],[-19,1090],[404,1311],[-1677,1117],[-1161,1754],[-687,1723],[-1646,1440],[-682,846],[-690,308],[-2166,-124],[-1673,1410],[-501,71],[-1139,1026],[119,2215],[-536,463],[-1082,1978],[-20,2607],[-953,990],[-80,1372],[-730,1430],[249,1560],[1601,1155],[1620,598],[887,-406],[1148,94],[967,-243],[1724,-1117],[1192,-401],[1483,-143],[1108,151],[2277,1396],[-99,1321],[-931,759],[-1613,696],[-2118,2827],[-851,518],[-1922,2255],[-828,1215],[-1004,2115],[-578,1973],[-148,1228],[-562,327],[-2439,2490],[-903,589],[-853,1245],[358,276],[1116,-408],[802,98],[2197,-293],[1510,94],[1679,335],[2859,1800],[2002,1643],[582,964],[802,97],[1913,1815],[-1031,929],[-72,804],[431,787],[-210,1585],[646,1286],[-468,918],[-251,1743],[672,2192],[-26,962],[637,2072],[-497,1496],[902,1766],[-54,1861],[259,1057],[826,7],[208,765],[785,601],[1436,315],[1992,-272],[929,-670],[1488,-430],[906,-1273],[1934,-695],[238,-887],[816,-771],[1489,-349],[518,-627],[1638,-210],[945,-1032],[850,-1354],[1883,212],[611,-749],[1081,-153],[774,-1267],[1058,-610],[684,-930],[1720,-1294],[491,949],[1038,1104],[-80,686],[1303,1539],[614,3631],[454,1438],[1253,2128],[52,3080],[-331,705],[-724,-98],[-600,498],[-1023,1621],[-462,284],[-857,-441],[-1634,250],[-1214,1125],[-2487,2022],[-758,366],[-1255,3113],[-1250,1946],[-790,836],[-790,3265],[518,1752],[1285,2921],[-218,1280],[364,525],[2477,935],[1719,1143],[2169,2699],[1045,2956],[10,403],[1041,1082],[1713,448],[857,521],[1262,-562],[1941,-2048],[1479,531],[317,-698],[908,-134],[603,-902],[2044,103],[1319,-558],[811,434],[973,9],[1585,-839],[2354,-121],[1046,692],[726,1371],[654,433],[1210,-18],[949,-334],[2486,-34],[2404,2039],[735,205],[2059,-1119],[1467,-1068],[1118,-1725],[1323,-1269],[369,-24],[2753,1018],[1441,752],[1355,-46],[1892,215],[2622,960],[653,660],[827,2110],[2594,1387],[2967,940],[4392,-1604]],[[695719,684935],[1052,539],[1350,2597],[1052,1147],[1026,747],[3402,538],[422,587],[1541,1153],[2657,-1844],[1286,-740],[442,-782],[1743,400],[1053,874],[996,403],[1141,-105],[1471,-561],[1984,816],[3083,2577],[1369,184],[868,676],[231,-2749],[802,-883],[3551,-2004],[950,-1329],[915,-2008],[2995,-251],[3524,-64],[2398,1066],[2171,-474],[962,-676],[2641,-522],[1818,942],[923,121],[1388,654],[1039,-450],[3695,341],[1324,-2010],[1425,-407],[3095,-1977],[625,-955],[1103,-941],[240,-2440],[1406,-661],[1298,-2255],[-298,-2365],[-4,-2530],[253,-1451],[484,-465],[1700,-636],[1183,-7],[1321,-816],[547,-1281],[659,-848],[947,-259],[897,-1682],[104,-1044],[-488,-1791],[279,-1209],[910,-767],[2408,-1537],[2674,-343],[1478,317],[1090,-89],[1480,-1024],[614,-1119],[1451,-1569],[1997,-3],[1475,-191],[232,-391],[-1058,-1870],[-621,-1591],[-138,-2194],[-630,-1773],[-846,-1409],[585,-1772],[1201,-1213],[-262,-1902],[-709,-957],[-513,-1765],[-1426,-1641],[2594,-1041],[1835,-301],[847,67],[2915,-553],[882,-1076],[1797,-1018],[1173,-1648],[153,-1280],[905,-1502],[2472,-225],[833,-902],[1873,-911],[2365,157],[917,655],[889,3],[3633,-2506],[1637,-23],[1031,-526],[994,103],[1617,-1146],[1321,-235],[1008,203],[1753,-201],[1920,-518],[6643,-4125],[6543,-4116],[19305,-12019],[165,884],[2033,2695],[800,388],[612,1118],[1550,1068],[2209,-872],[1226,163],[1152,750],[2821,84],[1756,3104],[1011,522],[1722,1],[1318,357],[635,1625],[1231,-1301],[644,-1066],[1000,-309],[1168,213],[1283,758],[1879,1590],[422,1028],[751,119],[1621,-436],[1335,-27],[2129,-300],[1680,305],[1140,702],[2821,-541],[872,-2191],[-166,-1159],[874,-4226],[1711,637],[1065,829],[4016,1947],[1350,-319],[1699,292],[439,970],[1039,736],[2395,183],[1105,574],[1854,1451],[1285,1915],[731,686],[183,1011],[-583,507],[-1498,676],[-778,854],[-144,726],[1290,3529],[997,1208],[752,326],[523,1002],[1882,2165],[847,735],[313,1272],[742,1016],[313,1266],[585,111],[1283,2434],[418,1236],[757,-26],[935,647],[1844,627],[911,1597],[1623,3412],[1400,913],[2452,3164],[3618,708],[294,1407],[3,2047],[170,2187],[1103,327],[3138,184],[478,547],[47,889],[904,2652],[-376,1597],[2105,1065],[1372,-1037],[1168,-348],[1727,-91],[1826,-1010],[906,-1199],[2407,-2064],[1514,-309],[2099,359],[1029,1584],[310,943],[910,883],[3386,1954],[2927,797],[744,29],[1131,1252],[1013,431],[705,-761],[1880,-1319],[1042,-519],[624,-657],[1663,-800],[1503,-1702],[786,-2160],[11,-1992],[919,-947],[1393,-168],[1543,-1825],[981,-647],[-293,-1437],[68,-927],[2399,-2433],[658,-1013],[918,-652],[519,-1189],[676,-854],[-42,-918],[883,137],[1922,-320],[1596,663],[1645,-226],[2254,676],[2098,-237],[812,-868],[2055,-567],[285,-481],[-761,-2560],[-823,-1965],[640,-645],[1970,-95],[854,-444],[2226,-1752],[-267,-1591],[-28,-1508],[-1058,-1589],[-205,-1634],[-513,-1312],[-565,-337],[-944,-1265],[-177,-1966],[-2626,-1491],[-357,-585],[-1624,-1368],[-2130,-805],[172,-1296],[503,-1494],[1386,-849],[1191,-1477],[578,-2403],[-440,-749],[-72,-1342],[1311,-2214],[2068,-1579],[189,-684],[824,-927],[-1112,-2110],[-905,-1345],[-926,-578],[34,-589],[1536,-3363],[-148,-667],[404,-3229],[-80,-1022],[-1019,-2325],[255,-2472],[-213,-1016],[-453,-259],[-2648,-44],[-441,-223],[-4033,465],[-1211,-728],[-469,-3060],[460,-2633],[-1298,-1212],[-9,-958],[-413,-1164],[-2267,-3175],[264,-2665],[-464,-1352],[271,-1371],[-144,-787],[-851,-1399],[-208,-1118],[-574,-1045],[-3137,-2502],[-1246,-80],[-597,396],[-3181,-430],[-2006,375],[-241,642],[-1830,160],[-1083,-866],[-1217,-172],[-565,-423],[-500,-1996],[-1058,-431],[-534,-898],[-205,-2306],[48,-1599],[-2626,-3981],[-959,-1989],[-1412,-883],[-654,-803],[-50,-947],[371,-1819],[717,-1516],[1338,-1279],[1109,-663],[2299,-573],[589,-429],[2,-1082],[-447,-1694],[-255,-2429],[356,-1635],[-48,-829],[341,-1661],[545,-1443],[874,-3698],[37,-1323],[-708,-1749],[257,-1963],[1507,-2926],[2097,-2020],[757,-2367],[-90,-746],[-1664,-2080],[-247,-595],[50,-1487],[-409,-1823],[159,-1665],[310,-917],[-159,-1103],[-426,-715],[-1147,-418],[-814,-724],[-749,-1687],[-124,-2190],[-559,-2454],[-1730,-3965],[-451,-1636],[-1099,-106],[-985,-443],[-3431,-434],[-1728,155],[-1197,706],[-1805,-386],[-1564,128],[-1354,-957],[-1763,-951],[-929,-838],[-1633,-739],[-567,-907],[-4737,-4591],[-892,-982],[-1228,-545],[-1502,-61],[-820,-2221],[-544,-512],[-584,-1551],[222,-1247],[-326,-1193],[-776,-1428],[-1162,-1098],[-1789,-2372],[-223,-873],[537,-1374],[1339,-2170],[392,-1904],[-311,-1209],[-939,-1170],[-96,-1150],[-614,-1817],[-698,-1322],[-253,-3360],[-456,-1073],[-1395,-4937],[-2387,-638],[-1796,-1101],[-1614,-399],[-1631,-885],[-1636,-94],[-2211,-1716],[46,-989],[779,-1277],[-1535,-1904],[-109,-1460],[-472,-654],[-1580,1847],[-1081,390],[-863,-961],[-2223,-3909],[-812,-515],[-1326,-2685],[-1043,-1427],[-902,-720],[-1553,-729],[-955,-901],[-817,-1728],[-1086,-864],[-302,-1156],[-841,-1283],[896,-2047],[1191,-1862],[326,-844],[-64,-950],[1335,-1496],[216,-2743],[1020,-1501],[-63,-1031],[-461,-309],[-806,-1001],[-1050,-721],[-1680,-4123],[567,-901],[-6,-1091],[-790,-799],[-705,-1706],[-236,-1984],[-332,-1682],[144,-1090],[-1586,-2326],[-34,-3214],[326,-845],[-324,-793],[-791,-598],[-489,-915],[213,-725],[1003,-1563],[559,-1629],[71,-1212],[-675,-919],[106,-2546],[-255,-428],[-1403,-545],[-640,-616],[-1470,363],[-1478,-445],[-1083,-783],[-666,1264],[-2367,875],[-1698,-610],[-1155,448],[-620,-817],[-867,-1731],[-1982,-2898],[-117,-972],[468,-3066],[-131,-1315],[-1354,-1294],[-793,-354],[-1467,160],[-1682,864],[-2304,289],[-1531,725],[-1340,-1091],[-1952,-2415],[-1397,1819],[-1648,1107],[48,566],[-597,1548],[-1341,1719],[-1176,487],[-2923,2098],[-911,1482],[-1561,137],[-1175,448],[-1404,-386],[-310,-409],[-1874,1367],[-2196,-2177],[-698,-455],[-1551,-509],[-982,-1370],[155,-1797],[-915,-923],[-1088,-1674],[-285,-874],[301,-1552],[-347,-1683],[-11,-1860],[-2244,-2602],[-129,-2670],[-1066,-2098],[-340,-2368],[-1400,-3537],[-260,-1398],[-856,-1124],[-639,-757],[-119,-851],[258,-1309],[-259,-1418],[-932,-1084],[7,-3314],[-344,-631],[-1599,-1075],[-802,-982],[-773,-1891],[-515,-1705],[140,-786],[1357,-1656],[347,-1045],[-3,-1132],[-447,-1219],[315,-1389],[-302,-1035],[-1004,-1129],[-242,-1217],[275,-1150],[1348,-2404],[-222,-1320],[-620,-2053],[-641,-517],[-1108,-180],[-1473,-632],[-1000,44],[-1773,981],[66,-1132],[-286,-1099],[-1204,-110],[-1442,160],[-517,-363],[-645,-1193],[49,-2305],[-172,-973],[-1255,-1238],[-347,-1818],[-2258,-912],[-577,-798],[-87,-1160],[-828,-410],[-1609,141],[-72,-721],[1593,-1514],[-189,-913],[-1069,-663],[-1082,-1361],[-2508,13],[-1378,-192],[-513,-369],[-554,-1175],[-1609,-1015],[-3428,-939],[-300,-387],[294,-2124],[-415,-1448],[-1510,-2092],[-971,-2873],[-53,-1493],[-61,-2018],[-695,-906],[-1506,-741],[-101,-1445],[951,-211],[9,-1188],[-1711,-725],[-195,-706],[564,-469],[393,-4212],[374,-809],[-254,-2269],[-553,-1949],[337,-1768],[1037,-1943],[522,-1786],[-822,-1931],[414,-1137],[626,-413],[1452,-251],[834,-775],[2327,-1063],[-161,-1412],[-726,-807],[-371,-932],[447,-1026],[2406,-1836],[1100,-2966],[-371,-2185],[776,-1894],[1427,-1258],[1891,369],[587,-412],[281,-1051],[-171,-1867],[1159,-1086],[5,-2761],[-212,-1431],[1022,-486],[184,-1754],[2076,-1519],[337,-702],[-1225,-3100],[259,-2785],[1596,-2994],[1946,-1455],[192,-1006],[-1307,-599],[-1329,-1726],[-612,-491],[-1002,183],[-1395,1065],[-317,802],[384,1434],[-2066,1808],[-862,-170],[-1087,-686],[-1497,-1500],[19,-1758],[-186,-928],[-1039,-1343],[-1437,-675],[-1266,245],[-1140,-655],[-2739,-254],[-601,-1347],[-185,-1355],[-2103,-1653],[-1016,236],[-517,1540],[-446,521],[-2292,599],[-1179,1221],[-728,-116],[-1597,-1467],[-1551,148],[-976,950],[111,1253],[-468,975],[-4497,891],[-1556,522],[-2424,434],[-1034,33],[-2703,1986],[-829,932],[-2469,605],[-1336,807],[-320,693],[175,1303],[-862,1577],[-1898,1812],[-84,1200],[940,2712],[305,2349],[-1036,2670],[-373,1777],[-858,1105],[-1676,703],[-2458,139],[-787,367],[-182,918],[1288,1691],[-68,525],[-1464,685],[-1899,-422],[-1357,-73],[-1202,213],[-680,661],[-285,1039],[33,2952],[-418,369],[-1872,772],[-739,1267],[309,661],[-51,1325],[-1085,1285],[-2147,464],[-828,-425],[-1605,-1997],[-85,-1203],[-412,-514],[-2129,-591],[-1395,357],[-378,1442],[-1006,596],[-2433,101],[-1141,813],[-961,1008],[-516,-6],[-1587,-1101],[-810,-827],[-1666,-894],[-1075,-1029],[-472,-801],[181,-2511],[-161,-1016],[-1536,-1486],[-2586,-1321],[-1176,-284],[-2547,-229]],[[581142,347540],[1070,1525],[341,1603],[-1104,2829],[-1387,2564],[261,1888],[-709,2062],[-2176,2273],[283,519],[-117,1869],[330,1981],[1165,1298],[2464,930],[518,699],[173,1667],[-698,1248],[-1901,1993],[-862,2273],[739,1721],[-1232,1302],[-334,1090],[119,2447],[369,750],[-871,1221],[-824,756],[-1064,1866],[241,840],[1139,1630],[379,1185],[574,851],[-519,467],[-1150,-21],[-881,567],[-1558,446],[-539,1631],[-946,1428],[-1743,42],[-2251,-737],[-945,144],[-308,2411],[-1159,964],[-47,932],[824,921],[611,-386],[1446,545],[1417,242],[509,1266],[1278,818],[657,1650],[648,954],[1078,2630],[-572,2020],[261,1398],[622,550],[-137,1579],[326,1499],[530,1095],[-675,1060],[288,537],[-26,1215],[678,1521],[-370,616],[372,690],[-555,959],[271,1235],[585,580],[-619,2072],[309,1120],[-436,289],[252,1710],[-801,1491],[189,1765],[-270,2814],[-1191,941],[47,714],[-1118,1795],[-74,679],[-1410,409],[-480,858],[-1932,1040],[-589,991],[-641,2117],[-1489,2278],[-1207,1215],[-332,666],[453,2901],[1380,559],[810,1103],[580,1909],[597,682],[-462,772],[383,1908],[431,813],[144,3056],[539,1667],[1122,1183],[245,998],[1561,1347],[339,688],[-265,682],[37,1420],[-275,2660],[562,2098],[769,1031],[625,2899],[778,2266],[644,726],[1329,931],[967,1993],[19,1582],[-511,2939],[209,310],[219,2500],[-109,2091],[-449,1247],[-1034,1033],[-118,1290],[-485,542],[696,3266],[997,2097],[1618,1566],[1419,1113],[505,658],[66,2126],[431,948],[591,2227],[1094,1899],[814,797],[970,-28],[859,987],[1091,751],[1466,531],[1169,929],[402,884],[251,2034],[350,839],[334,1806],[-63,1318],[-856,1614],[444,1223],[975,1014],[1470,747],[1091,1203],[944,283],[962,768],[1611,790],[1428,256],[326,1016],[608,686],[334,983]],[[728575,551877],[1148,-384],[2590,-1708],[2693,-934],[1411,-2508],[449,-1123],[838,-1128],[1254,-1024],[447,-1960],[1390,-2541],[1094,-3080],[2339,-1236],[1320,-204],[2308,-784],[709,103],[1989,894],[1374,-395],[788,-1116],[2674,-851],[208,-688],[1533,-961],[1625,-1857],[1068,-2066],[1190,-4347],[863,-1656],[690,-2357],[984,-1024],[2183,-1236],[972,-1173],[1405,-1341],[778,-1812],[2166,-2897],[365,-1216],[1427,-2811],[2348,-3610],[-859,-1517],[159,-1540],[692,-2076],[825,-892],[2033,-1357],[1504,-2085],[1228,-1453],[1163,-749],[1230,-1647],[-811,-1169],[-2165,-2417],[-89,-1014],[-1288,-1193],[-832,-1525],[-913,-2126],[-1667,-358],[-1804,267],[-1332,-286],[-210,-822],[189,-2754],[-995,-1463],[-147,-1192],[388,-1353],[-689,-611],[-1193,-2643],[-1740,1143],[-360,-525],[11,-1295],[586,-1497],[30,-1455],[-2135,-1310],[-29,-765],[-1147,-2010],[105,-1046],[-721,-1984],[13,-1086],[-394,-1296],[-1514,-2427],[365,-1012],[-372,-3695],[115,-1201],[742,-245],[948,-2608],[-153,-1389],[608,-2946],[-82,-1669],[-707,-2220],[-4,-876],[-816,-2062],[-668,-2374],[-1196,-1404],[-1304,-1183],[-188,-1144],[-1714,-2854],[-407,-1945],[-662,-839],[-340,-1419],[482,-3504],[-130,-647],[1246,-2594],[312,-1115],[156,-3107],[1098,-1926],[-95,-1081],[-744,-1624],[-698,-929],[-375,-1569],[-1238,-3420],[-715,-224],[-560,-736],[-2794,-1713],[-364,-1929],[-1783,-657],[-1251,-2221],[-1559,-1220],[511,-738],[-404,-1864],[-843,-400],[114,-824],[-491,-493],[-333,-1125],[433,-1142],[-783,-701],[-630,-1090],[-711,-537],[-1185,-375],[-346,-1540],[-852,-398],[-1090,70],[-688,-1465],[-2671,-332],[-345,-954],[-668,250],[-454,-544],[792,-1024],[-1922,-1629],[-1069,-171],[-1822,-1124],[293,-993],[-802,-772],[422,-980],[-540,-304],[-216,-981],[-1571,-41],[107,-916],[-1347,-167],[-1213,-529],[-781,338],[-994,-281],[-720,-701],[-144,-666],[-1074,-178],[-231,-1874],[-1361,-226],[813,-727],[-173,-1559],[-736,-786],[-891,-52],[-371,-1393],[691,-659],[52,-696],[-678,-956],[-1179,-473],[-336,-1280],[-1650,-1970],[-1305,-658],[-1003,532],[-3046,-636],[-1673,-1644],[-2682,-812],[-446,-416],[-566,-1812],[-1763,-1337],[-802,202],[-2759,-663],[-1748,-224],[-1304,-678],[-1706,819],[-1263,-660],[-3224,782],[-465,800],[-966,418],[-965,-281],[-16,-779],[730,-3071],[1084,-941],[1288,275],[652,-352],[520,-1498],[-1272,503],[-379,-563],[579,-1740],[1205,-929],[-339,-826],[339,-1723],[-1133,-1387],[778,-774],[-466,-990],[-1758,-2712],[-1117,1306],[-821,47]],[[581110,769045],[624,-644],[996,-248],[2335,88],[1071,-651],[1816,38],[1505,-456],[1786,105],[2211,-81],[1596,2672],[2151,1097],[1203,2],[1139,-1653],[1555,-1062],[138,-1553],[608,-1505],[1989,-623],[1638,-1004],[1612,-1382],[529,-2015],[2203,-1471],[2367,-843],[422,-381],[2399,-500],[801,-605],[2154,-456],[1810,353],[2251,-1244],[680,-1777],[516,-739],[1330,-140],[978,643],[1611,418],[890,789],[147,1395],[2408,2050],[805,290],[857,-469],[1262,-1975],[2234,-1950],[1709,-2263],[62,-472],[1597,-5],[2234,1186],[1682,-407],[2229,1789],[1008,-140],[2293,-1261],[907,-204],[1894,-45],[1450,-401],[2135,-1007],[2283,-1848],[879,-530],[1737,-212],[353,-430],[-263,-1340],[94,-2145],[-920,-2238],[-1690,-710],[-1325,-1369],[-276,-698],[507,-985],[81,-2448],[1433,-184],[795,-600],[1556,37],[2115,801],[686,507],[1044,176],[924,-389],[2027,-2928],[1364,-1193],[749,-47],[2254,-1296],[-1782,-2701],[-510,-1376],[545,-3031],[-9,-1308],[354,-1674],[1099,-1289],[1830,-1566],[2805,-1515],[-509,-1712],[-101,-1737],[766,-1425],[90,-755],[-917,-1386],[-1730,-1816],[-992,-1939],[-388,-1812],[2160,-1089],[2009,-436],[2432,-890],[1105,-2414],[1349,-1390],[74,-1178],[453,-1223],[1014,-997],[1562,482],[1528,-533],[1893,-1105],[1241,-1054],[2016,99],[744,-971],[71,-807],[642,-1347],[1217,-678],[1310,-2398],[1004,-353]],[[695719,684935],[-464,-1115],[-1591,-2272],[-1051,-2239],[-178,-2035],[-1034,-957],[870,-359],[1919,-1600],[687,-878],[1029,-2613],[1878,-2469],[762,-735],[1098,-1705],[1594,-408],[2036,-754],[2560,-109],[1733,-646],[586,-1866],[-186,-1021],[-779,-936],[-1410,-959],[-509,-1526],[-85,-2386],[-550,-2180],[445,-1285],[3589,-4520],[175,-630],[-613,-3839],[-1044,-968],[118,-761],[748,-1287],[1910,-630],[1537,-310],[1256,-684],[380,-1261],[762,-1327],[-101,-1521],[927,-2603],[1257,-2311],[1315,-718],[299,-925],[-750,-1181],[-22,-2558],[155,-2920],[-264,-676],[177,-1979],[298,-1024],[72,-1700],[-193,-2631],[2334,-4925],[404,-1840],[499,-705],[-296,-2950],[128,-1072],[691,-1695],[268,-1818],[-1396,-4042],[1835,-1630],[-814,-1324],[-691,-483],[-184,-692],[999,-932],[1311,-233],[1530,186],[1139,-1321],[-199,-2321],[122,-1430],[-151,-1830],[615,-870],[-291,-1740],[159,-956],[1799,-2184],[481,-1482],[641,-1009],[252,-998],[-169,-2427],[554,-1875],[526,-615],[456,-1439],[-1751,-2037],[37,-1079],[-629,-1394],[108,-1434],[716,-1914],[-1002,-4345],[664,-1374],[813,-812]],[[728575,551877],[-1587,-2171],[-1226,-1185],[-2397,-1136],[-1697,-1184],[-975,-404],[-4711,-364],[-2456,189],[-524,1061],[-916,-195],[-2210,-982],[-1959,-1289],[-3393,-1285],[-1422,-797],[-949,168],[-1947,-311],[-797,-551],[-1123,-126],[-3028,-647],[-1834,3440],[-84,1300],[-1477,471],[-1435,815],[-1129,1658],[-337,1134],[-743,662],[-964,1714],[-848,717],[41,814],[-910,2147],[-1204,982],[-1757,4517],[-1637,998],[-3080,2589],[-3716,1741],[-2146,-356],[-1874,298],[-955,-1293],[-774,-349],[-1078,-1229],[-1296,-753],[-1496,-4180],[-310,-1320],[-611,-854],[-259,-1573],[286,-2480],[-136,-3064],[-867,-3275],[-695,-593],[-1357,-1652],[-1108,-1614],[-642,-480],[-811,-1314],[-924,-436],[-1776,-1824],[-1482,92],[-1806,569],[-4445,1141],[-611,345],[-1860,252],[-936,-346],[-361,-763],[965,-1358],[264,-1325],[-1680,-59],[-697,-309],[-1194,365],[-2332,-665],[-802,52],[-1466,562],[-2076,-415],[-2124,255],[-1111,-717],[-1780,34],[-453,396],[-909,-276],[-3314,223],[-1167,-964],[-1706,-636],[-1793,-41],[-2297,-252],[-2138,-930],[-1571,-300],[-660,461],[-1572,462],[-927,-251],[-2089,-1587],[-1237,-131],[-739,423],[-2582,356],[-721,311],[-892,2105],[-807,820],[-2520,2084]],[[599687,538009],[191,2030],[2764,3958],[1213,1555],[-1990,291],[-170,581],[-906,647],[-284,701],[-979,1134],[-921,1671],[-2062,873],[-1238,-72],[-1110,-1100],[-1442,146],[-2180,1186],[-1244,-125],[-1810,162],[-2247,735],[-1269,73],[-1572,-730],[-1163,-933],[-2589,1024],[-508,1436],[-3112,-210],[-920,285],[-1473,1025],[-2216,539],[-1225,-561],[-2429,1048],[-1528,-164],[48,1827],[-495,1157],[-136,1741],[349,1099],[-837,1438],[-583,1726],[-1742,-364],[-1538,374],[-830,1005],[-910,529],[-933,984],[-1118,474],[-2460,-26],[-815,706],[-808,1660],[-1133,136],[-1786,1851],[-682,1864],[-2373,2378],[-371,931],[-2314,2320],[-525,2385],[-629,354],[-3031,-1912],[-1045,-404],[-2009,-140],[-1514,1161],[-2220,278],[-1585,-171],[-547,164],[-4244,234],[-1791,529],[-1878,-153],[-1442,350],[-845,-418],[-1656,1929],[-1315,489],[-1216,957],[-1689,1821],[-1902,3459],[-1099,755],[-945,1130],[-750,2142],[-665,657],[-2205,272],[-2089,1425],[-1503,-71],[-1949,1100],[-1234,288],[-1752,1163],[-1430,506],[-2236,2119],[-2176,1185],[-1536,1967],[-563,1253],[-1017,1182],[-1061,-345],[-3596,-379],[-2336,-583],[-1815,478],[-1042,-276],[-2035,977],[-1725,3307],[-1204,1634],[-2386,1693],[-1311,185],[-807,414],[-1282,1206],[-814,1243],[-1703,-323],[-3077,3],[-1356,-449],[-1208,-862],[-2147,-575],[-1179,-1],[-1570,360],[-1476,1172],[-1121,510],[-1871,303],[-2208,118],[-2448,-335],[-1328,514],[-3011,-35],[-1631,416],[-2626,54],[-2189,-188],[-711,118],[-1764,1276],[-1910,1041],[-536,94],[-1514,1058],[-1144,-50]],[[262673,714479],[-72,2846],[368,747],[201,1781],[-207,1816],[-904,2018],[-158,2176],[-2166,2609],[-171,3712],[1305,2819],[348,1290],[-105,875],[-1137,1300],[-141,896],[453,1274],[-108,955],[223,1414],[1177,561],[2548,439],[980,-132],[1495,-1528],[831,-432],[1667,1869],[-161,1744],[260,1191],[1249,1534],[595,1622],[-299,2761],[82,1546],[-1184,3051],[-798,840],[-750,2119],[1091,1084],[799,1655],[1282,1540],[1538,1214],[1039,440],[1029,794],[819,1392],[1416,1959],[1529,1535],[602,1457],[831,791],[575,2738],[1815,497],[1121,949],[851,1150],[1065,730],[743,1548],[1989,2093],[1410,2670],[1404,1809],[710,480],[910,1316],[589,2183],[-276,2433],[618,1261],[1259,233],[2323,-1025],[993,813],[1243,2017],[1173,2743],[1752,630],[1131,1643],[447,1629],[-414,1934],[1637,1455],[717,1895],[72,1449],[-286,960],[1039,2567],[565,168],[746,1382],[598,382],[2183,733],[483,-124],[1389,-1568],[603,-1179],[618,-199],[1447,144],[496,1441],[2074,2507],[230,2597],[-134,1831],[-349,971],[1091,4362],[-1163,1936],[-898,2756],[1371,881],[487,944],[-1026,2028],[519,2190],[-157,1459],[-1000,2434],[-13,1174],[1516,2262],[739,1787],[499,1057],[-59,2760],[-294,2191],[512,2102],[448,720],[2665,1034],[1908,0],[205,289],[-85,1831],[-764,2703],[254,2350],[407,2151],[-141,484],[-1241,807],[-301,1088],[-1610,1938],[-1334,675],[-1815,1606],[-483,909],[115,1623],[504,564],[1807,-345],[785,1508],[1489,1122],[1243,1969],[641,243],[2608,202],[4257,-1708],[1599,189],[816,1106],[322,1396],[-726,1664],[-125,1252],[473,2521],[1443,1216],[1439,509],[809,877],[1004,167],[2161,-747],[2047,-51],[1819,304],[1508,-145],[-521,796],[368,2884],[-441,1243],[-1610,2203],[259,898],[105,1837],[-256,1628],[550,1035],[-287,902],[-1305,1840],[-4076,1719],[-354,2330],[222,1817],[-374,846],[1554,1927],[-42,858],[-1371,1600],[-2186,1399],[502,342],[1574,2248],[586,1608],[-1506,919],[-842,873],[-146,2796],[328,1266],[-336,1768],[-777,795],[-28,2091],[1815,-31],[1290,752],[1531,564],[556,434],[1103,-101],[1947,365],[1911,1282],[2057,1562],[1994,2190],[3373,4794],[704,1376],[1101,3025],[830,823],[1518,515],[1156,1469],[976,2428],[605,-48],[2414,-765],[1538,-780],[2608,943],[1167,823],[888,-3],[2515,-402],[918,694],[2477,-1075],[661,238],[1827,-197],[1018,-641],[958,141],[2005,-1309],[1147,33],[1522,366],[1275,1545],[161,1345],[938,148],[1545,619],[765,-253],[494,-1153],[765,-370],[2311,806],[1637,806],[679,809],[2190,551],[-49,1551],[2034,1431],[102,840],[-761,885],[-529,2752],[-955,2153],[-658,1922],[-622,848],[278,2082],[1023,1270],[202,1065],[1416,-92],[816,329],[628,980],[1666,918],[740,1802],[576,813],[-1270,2030],[1683,1601],[346,679],[36,1620],[1928,376],[2543,15],[1239,-1606],[1787,-855],[2100,1458],[1702,-1452],[2424,406],[1210,-730],[733,255],[2176,1914],[826,4099],[1827,570],[1643,725],[2751,273],[1306,1062],[2841,921],[2025,1637],[1105,479],[4580,-690],[1194,2494],[1712,1158],[2250,-1207],[2172,-431],[2054,338],[1818,-1544],[1491,-993],[2645,667],[1984,-993],[1227,-790],[2446,94],[750,277],[1040,1784],[1130,1280],[946,1724],[789,458],[1527,1860],[677,418],[949,-144],[4732,-1264],[2373,-1621],[1494,-861],[1237,-1005],[316,-611],[1640,-396],[1426,-1928],[1571,-923],[763,-1454],[59,-1359],[-795,-1638],[-1229,-916],[-1576,-645],[-1340,-30],[-800,-1483],[889,-1085],[1893,-493],[2397,-1343],[1955,500],[2768,-850],[720,-661],[812,-1557],[618,-585],[1565,283],[1430,-103],[703,-330],[996,-1537],[1216,3585],[1378,1207],[2498,1582],[1689,1563],[641,-11],[3876,-1726],[20,-1492],[890,-1041],[533,-1137],[1647,-521],[1597,-19],[2061,-2177],[684,-159],[3248,1071],[1420,809],[2091,3100],[1903,-237],[2360,-1023],[1969,-1057],[868,-1683],[670,-427],[2065,-587],[2366,-2416],[1052,-569],[1509,-125],[-1085,-850],[115,-751],[681,-791],[1068,-584],[-85,-1698],[-812,-1523],[-161,-856],[-681,-644],[-2034,-837],[-96,-1239],[848,-1374],[-1255,-2170],[736,-1118],[-539,-1673],[332,-870],[1367,-1512],[1460,581],[1880,-830],[2048,-452],[1650,-860],[1016,-941],[900,-297],[1315,-1146],[608,-258],[3439,2030],[1821,723],[2580,128],[3435,-342],[1798,-534],[365,-583],[2117,-627],[723,19],[806,1409],[960,734],[2061,825],[1896,425],[911,-166],[473,-960],[2229,-1047],[302,-1134],[526,-685],[-1712,-2981],[-385,-1500],[-108,-1451],[220,-1441],[-316,-1013],[687,-1399],[230,-2198],[-1420,-619],[-1933,-1744],[-795,-1326],[-769,-621],[-1226,216],[-1838,880],[-1588,-558],[-213,-858],[-1910,-2335],[-1749,-458],[-2025,-3060],[1282,-1989],[-496,-1191],[-1456,-1481],[1203,-3168],[841,-950],[-49,-1799],[1009,-1013],[-864,-3084],[-566,-1143],[848,-3801],[1243,-1382],[233,-848],[888,-1534],[263,-2943],[-516,-1685],[664,-2390],[-184,-1349],[381,-1634],[638,-626],[3846,-1569],[3382,-853],[3245,-359],[-185,-5215],[-108,-971],[506,-1758],[316,-1951],[-46,-1002],[-1006,-1152],[-539,-1082],[-911,-233],[-345,-1328],[365,-1145],[-105,-755],[-1364,-2909],[-819,-1471],[-1989,-2090],[750,-1565],[-651,-1766],[141,-3658],[677,-716],[198,-756],[19,-2820],[-138,-1164],[428,-1983],[200,-2186],[-95,-1237],[2912,-200],[2209,1672],[2604,1262],[608,816],[1219,-136],[1943,170],[1933,-95],[1285,-309],[2446,-1711],[1328,-1587],[1693,-1250],[1508,293],[980,-339],[694,-798],[1091,-2220],[618,-682],[0,-2432],[-526,-1830],[526,-758],[0,-7971],[-1746,-1884],[-414,-1000],[-858,-3765],[-588,-1418],[65,-760],[589,-1266],[23,-678],[-1020,-1890],[-154,-1007],[379,-937],[-245,-1233],[151,-782],[1022,-1832],[184,-844],[-675,-1705],[-517,-769],[127,-1266],[-430,-328],[-1174,54],[-408,-1438],[275,-833],[-1323,-1499],[-639,-2095],[174,-1779],[-266,-1953],[-979,-3391],[-962,-1848],[-493,-3916],[86,-2581],[-313,-1449],[-769,-1037],[236,-1420],[-1140,-2691],[183,-1861],[821,-2232],[1145,-2296],[59,-1244],[-380,-2014],[511,-1785]],[[581110,769045],[-1519,-1202],[-885,-61],[-1218,437],[-1973,1237],[-1940,475],[-1838,-59],[-1584,1060],[-2948,911],[-1249,-23],[-2879,460],[-2062,-1774],[-841,-1005],[-1878,-4065],[-1218,-2903],[-576,-114],[-2796,-1890],[-1313,-2445],[-697,-542],[-713,123],[-1519,1619],[-633,174],[-1214,1025],[-881,1319],[-1502,-415],[-1789,-86],[-227,1183],[-933,823],[-362,1349],[-1870,1539],[-1795,27],[-730,-2080],[-1234,-917],[-1787,-777],[-1114,-255],[-2416,1834],[-611,299],[-3771,1020],[-1548,195],[-786,-2417],[-37,-842],[-1654,-1148],[644,-2006],[38,-1019],[-999,-644],[-747,-1258],[-1350,-1684],[19,-1624],[546,-1537],[1428,-2706],[-1371,-1435],[-412,-1633],[-763,-21],[-3013,-1627],[-1740,-2504],[-3714,-618],[-1328,-778],[-1109,695],[-380,817],[-782,360],[-1444,-16],[-246,-1739],[-470,-1407],[-1206,-1679],[-635,-1706],[146,-1479],[492,-1646],[-91,-1011],[-925,-416],[-670,-1869],[-964,-299],[-756,-1351],[-1449,-1125],[-2149,-609],[-1757,-172],[-1249,-1213],[-77,-1201],[255,-1617],[-826,-1256],[-1906,39],[-1804,-2016],[-977,776],[-3047,1436],[-661,2172],[-1104,1002],[-1161,2273],[-2383,1062],[-3290,411],[-1940,1051],[-1740,204],[-1261,-393],[-1772,1],[-897,631],[-693,3120],[-628,1671],[-1466,3309],[-582,706],[-1082,354],[-2324,32],[-1236,-979],[-2481,-1654],[-1910,-2868],[582,-1122],[305,-1321],[-1272,-2994],[500,-1992],[1535,-1079],[-82,-2491],[-487,-2791],[-788,-2691],[316,-1153],[-330,-1500],[-1340,-1894],[-1114,-839],[-2812,-999],[-1473,-806],[-1354,-218],[-1434,-557],[-827,427],[-2270,21],[-1195,-564],[-1335,-1522],[-1636,-1302],[-1138,-1219],[-708,-1349],[-60,-899],[-779,-3298],[32,-1976],[-1345,-2675],[358,-1996],[-148,-1962],[-2774,-1173],[-1521,-1506],[-944,-372],[-572,-1052],[-914,-1053],[-462,-1257],[-767,-1135],[-299,-1260],[-2123,-346],[-1286,-1919],[-1673,670],[-1000,167],[-693,787],[-1164,477],[-1403,-184],[-1029,265],[-1396,22],[-1786,-909],[-1834,-594],[-760,-963],[-1298,-667],[-548,-1096],[-1569,59],[-1318,-630],[-519,131],[-148,-1218],[-1432,-909],[-1810,382],[-776,-294],[-1215,-1337],[-1539,-2244],[-1315,-1291],[-911,-1318],[-1400,-817],[-871,-964],[-1144,-822],[-1080,-362],[-625,-1937]],[[312086,454527],[-1004,118],[-1068,842],[-1737,308],[-432,307],[-1147,1835],[-255,728],[-1412,1795],[-2029,739],[-1252,151],[-789,669],[-2146,370],[-437,607],[-2126,728],[-917,626],[-1827,-255],[-2546,-1317],[-1723,-20],[-898,-240],[-1660,-1436],[-1149,-1953],[-2049,-2093],[-1359,1876],[-5,1583],[-351,1346],[-1802,1460],[-678,-1],[-1019,544],[-839,-305],[-1987,353],[-1833,-72],[-1107,367],[-1106,1230],[-1618,881],[-290,745],[-1100,157],[-956,1017],[-1352,-101],[-1099,-777],[-1746,-708],[-923,-585],[-979,-42],[-710,1030],[-1025,-51],[-452,434],[-795,-293],[-1698,555],[-896,-31],[-1763,969],[-1108,-353],[-2262,726],[-1220,100],[-537,1070],[-1706,-342],[-3570,1113],[-491,1766],[-232,2157],[-872,1765],[-1512,314],[-1455,-181],[-3255,285],[27,1351],[-761,1331],[-1818,2048],[203,1330],[-2716,1687],[-611,919],[-2489,148],[-814,294],[-2609,-790],[-1776,-682],[-1516,123],[-481,475],[-1192,172],[-620,668],[-1025,-100],[-589,-888],[-1135,-564],[-537,415],[-2422,2934],[-1041,1716],[-1575,518],[-194,1624],[-568,913],[-3547,-9],[-1034,-538],[-1745,-69],[-2993,1047],[-1369,-1309],[-874,879],[-585,-746],[-914,-1844],[-786,-253],[-1717,301],[-1968,-1280],[-558,-888],[-429,-1432],[-963,-488],[-1145,-66],[-1396,-808],[-230,-1004],[-1082,147],[-1790,937],[-1289,-374],[-630,507],[-1037,1718],[-1143,551],[-599,923],[-1265,691],[-905,169],[-228,1102],[-1237,1008],[-1040,88],[-2022,-654],[226,1148],[964,752],[764,1125],[1350,3874],[-988,942],[-747,5573],[1511,1827],[1579,211],[415,1326],[-278,1298],[347,2778],[667,1076],[302,1606],[587,701],[986,452],[-120,1138],[-1435,159],[-1608,937],[275,1739],[-731,1176],[-257,907],[-1263,486],[-787,1298],[-1128,1093],[-313,1058],[-832,-237],[-287,-1295],[-701,-347],[-202,987],[15,1667],[-762,1762],[-55,2382],[1194,69],[1964,1244],[2451,552],[918,-256],[986,673],[1943,2772],[409,1163],[1025,731],[907,1709],[38,1343],[-1524,2292],[-180,2341],[-1226,396],[-1758,1070],[-2405,1040],[-1159,1842],[194,1635],[-1258,2770],[-566,109],[-469,998],[-811,823],[-64,1423],[-2685,-143],[-804,-347],[-1838,778],[-244,515],[-1399,-77],[-1663,900],[1572,1945],[-87,555],[-3314,180],[-805,-308],[-1049,1707],[-1329,669],[-688,673],[-1953,673],[-1736,298],[-815,1531],[-1488,233],[-390,-373],[-1304,343],[-542,820],[-1124,377],[-1215,-652],[-540,-1180],[-1081,-813],[-1918,-1583],[-1840,-923],[-1898,-1301],[-3882,-1518],[-1287,-673],[-482,353],[-3558,-820],[-779,223],[-2158,-944],[-1138,-951],[-1455,88],[-1827,1090],[-1139,-164],[-1992,189],[-1223,311],[-1047,-22],[-1019,464],[-1408,-346],[-1900,562],[-1407,-103],[-1815,-630],[-703,2106],[52,2247],[585,2466],[-94,1591],[-1082,1910],[-504,394],[-443,1190],[137,1955],[-79,1881],[-274,975],[-1550,1761],[-972,498],[-1767,1650],[-1576,748],[-2350,1393],[-1474,422],[-707,681],[490,1669],[145,3149],[-1117,1981],[-206,831],[254,1920],[390,455],[-460,2815],[74,713],[955,1468],[1279,1097],[1178,3338],[80,3141],[-256,695],[-287,2205],[-452,1870],[648,719],[-657,1213],[-639,229],[326,1496],[-660,1138],[280,2812],[-469,1407],[611,2147],[97,1693],[475,1520],[-395,3052],[178,1432],[668,1786]],[[99135,630788],[3180,-731],[557,1656],[23,1711],[-427,2869],[656,1804],[875,1084],[170,830],[1766,2309],[533,2426],[-131,963],[383,1865],[-454,910],[-829,426],[-182,762],[-1037,563],[-321,878],[207,1369],[530,1118],[1102,690],[803,-779],[1261,-615],[1338,32],[1817,-229],[625,698],[891,31],[1094,1392],[2322,1991],[-822,2363],[-92,1035],[-758,968],[670,2165],[2021,549],[551,564],[502,1975],[622,741],[-1100,1825],[289,1479],[-140,1315],[333,630],[-261,1059],[-757,809],[-800,1525],[-652,1794],[228,1124],[-640,1051],[-66,862],[792,2067],[-180,552],[-900,505],[-402,840],[203,1435],[-264,1774],[505,2633],[751,1032],[223,43],[1735,356],[1772,-45],[2246,-495],[1722,-218],[1604,-705],[1692,-96],[1196,-333],[2341,-216],[1699,61],[1356,-203],[1644,-1186],[1443,-777],[820,-789],[1026,-399],[530,-819],[1612,-1090],[1612,-767],[1496,-333],[2494,923],[1098,775],[1855,2648],[1864,1238],[1058,172],[1987,-843],[1427,-887],[951,-2478],[2316,-1173],[1381,-1209],[1947,-881],[1362,-816],[1609,-503],[1966,95],[2835,-643],[1627,-697],[1124,-1006],[674,787],[1513,1182],[2966,1370],[2223,827],[1929,1099],[4186,363],[1202,762],[605,688],[1073,380],[2215,29],[2011,848],[2818,239],[2674,-557],[460,-248],[3179,-556],[2063,149],[2388,-1175],[2481,256],[880,1375],[1374,1398],[1306,1022],[1753,1679],[648,1153],[361,1266],[419,2585],[2457,1309],[1643,2861],[577,625],[1581,-196],[3490,-1029],[1290,120],[3088,-180],[1388,484],[2354,1106],[1202,366],[2192,1046],[1023,81],[3041,1220],[2232,452],[1935,-381],[1478,1023],[1868,728],[1047,807],[1065,1309],[1041,2029],[1279,43],[2612,848],[3316,112],[2391,459],[168,1334],[557,1502],[767,1294]],[[262673,714479],[2450,-353],[2311,215],[1074,1378],[685,354],[1196,-294],[673,-1935],[779,-704],[1647,-38],[2568,-1091],[2001,-1568],[2591,-80],[2150,-707],[1686,-988],[1680,-1448],[2028,-274],[1186,-523],[855,-774],[1160,-1668],[1102,-3316],[-493,-2580],[-533,-1316],[740,-287],[815,-909],[417,-1372],[161,-3169],[-825,-1675],[-1249,-1395],[-1058,-704],[-888,-1513],[-391,-1068],[-766,-3131],[-384,-1055],[-1723,-3112],[-753,-2124],[-1209,-2795],[-349,-2092],[96,-1538],[598,-2028],[716,-1683],[-463,-597],[-1312,-440],[-1936,-1540],[-1524,-2068],[1084,-510],[1979,-2545],[509,-2147],[569,-544],[552,-1786],[881,-1092],[187,-913],[-220,-1282],[720,-3022],[434,-3222],[273,-674],[1586,-2150],[1214,62],[1910,-1216],[2304,-1276],[737,-1402],[-115,-2071],[1216,-2925],[171,-2418],[-940,-3700],[-388,-1094],[332,-2530],[447,-1973],[917,-865],[-628,-1646],[582,-1021],[1167,-1104],[897,-1978],[142,-978],[-513,-1974],[2610,-2689],[1847,-2752],[2689,2114],[1378,1258],[1265,47],[1979,-327],[1874,-929],[673,-716],[1444,-103],[636,-625],[1382,122],[1285,-747],[1558,-2652],[651,-775],[1782,-872],[4503,-778],[1035,103],[2472,-350],[510,-266],[-457,-1089],[-1131,-931],[-492,-1421],[1817,-385],[4904,-583],[1460,61],[2843,1133],[520,2526],[388,717],[2282,1178],[848,1091],[-14,1591],[422,964],[1323,1534],[506,1623],[865,3810],[1065,1197],[510,1481],[-12,1167],[271,2852],[297,1702],[588,1439],[757,522],[1645,-68],[1168,237],[1192,1062],[1950,3661],[1367,3249],[378,1510],[129,3187],[1175,1298],[1734,866],[1216,1307],[1417,2689],[652,686],[1081,533],[1341,63],[1524,555],[211,436],[-1216,1815],[283,4512],[713,797],[2170,1175],[939,1203],[-302,2614],[1144,1495],[2097,3766],[332,1024],[1854,-996],[1213,-137],[1883,354],[1719,-308],[1345,105],[1857,-955],[2446,655],[2400,838],[2228,1076],[1348,808],[1000,179]],[[392954,663011],[717,-772],[2386,-1927],[3095,-1660],[1340,-310],[2195,-899],[1514,-1369],[1594,-1964],[2163,-1774],[2185,-1221],[3363,-3128],[816,-1665],[1580,-2007],[2121,-1207],[1149,-1133],[1020,-1601],[1533,-3117],[495,-2284],[1290,-2086],[1045,-2206],[741,-2038],[26,-773],[2344,-3855],[156,-1270],[605,-1963]],[[428427,620782],[-3944,-1752],[-2129,-426],[-1210,-913],[-1394,-1664],[-1259,-652],[-1876,44],[-1279,-1128],[-2099,-974],[-2795,-1961],[-4024,134],[-648,-265],[-2475,-1999],[-1712,-877],[-1423,-2017],[-1758,-3157],[-281,-1629],[741,-1587],[830,-873],[205,-1340],[400,-805],[346,-2308],[1533,-2813],[789,-430],[1706,-2398],[904,-1616],[1945,-1568],[1980,-2720],[84,-1581],[459,-998],[-115,-1421],[-481,-912],[-2235,-1441],[-472,-950],[-1255,-1717],[-574,-1352],[-1163,-1785],[-1389,-750],[-2182,532],[-1573,-1225],[-1398,-2097],[-1431,-1494],[-719,-1234],[-1819,-1519],[-850,-1220],[-239,-1179],[-1814,-1251],[-900,-1471],[-299,-2181],[-2055,-2449],[-779,-1983],[-1276,-1361],[-944,-189],[-1046,245],[-861,-290],[-1115,-863],[-2801,-1116],[-1251,-1657],[923,-5067],[-351,-2004],[-295,-603],[-1296,-1206],[-624,-2074],[-686,-342],[-774,-1057],[-246,-894],[-1266,-1471],[-638,-1134],[-1270,-1314],[-352,-876],[633,-1628],[-635,-1861],[-350,-2223],[-1081,-2711],[-485,-736],[998,-2065],[1006,-862],[362,-1845],[669,-1458],[1248,-866],[1192,-1974],[820,-553],[2187,379],[1282,1719],[887,-149],[898,-1182],[2,-2617],[374,-799],[54,-1611],[-1141,-624],[-540,302],[-1787,298],[-1446,-125],[-1077,372],[-3797,-145],[-1840,793],[-1243,210],[-1432,-302],[-2112,469],[-1490,-136],[-767,-432],[-1682,45],[-2612,1607],[-1796,494],[-677,-541]],[[665616,160284],[636,-2927],[958,-2727],[732,-4189],[595,-1817],[831,-3201],[263,-1858],[-299,-2001],[-1168,-1124],[-1023,-587],[-2625,-1166],[-977,-236],[-3888,-1867],[-1327,-765],[-1141,-927],[-3435,-2182],[-1630,-837],[-901,-874],[-719,-175],[-2788,-2087],[-1023,-146],[-1079,230],[-1163,603],[-432,633],[-961,354],[-1932,2027],[-549,920],[-562,2774],[-949,1291],[-2472,1665],[-2588,1050],[-1363,-182],[-1030,-410],[-2480,-1631],[-3201,-1273],[-1677,-1097],[-852,-1175],[-10,-1380],[-461,-1626],[-1001,-1124],[-4737,-3453],[-1675,-1013],[-2546,-1828],[-1231,-1040],[-1997,-1156],[-2373,-929],[-4833,-1598],[-1758,-207],[-578,-328],[-1684,-1751],[-1411,-1042],[-668,-754],[-1275,-2312],[-1002,-222],[-2348,1654],[-1535,-563],[-2648,-668],[-2614,-1350],[-1892,-1663],[-2314,-865],[-3039,-478],[-1569,-754],[-1016,-787],[-2699,-1199],[-2097,-2168],[-2614,-2179],[-1789,-901],[-2906,-2489],[-2993,-2193],[-1086,-984],[-2860,-3851],[-1603,-1828],[-1926,-1780],[-3742,-2723],[-574,-563],[-2608,-3490],[-890,-1013],[-2754,-2264],[-2650,-4081],[-585,-1070],[-675,-1831],[-236,-2771],[-1040,-1495],[-1480,-1716],[-172,-1920],[-2019,-1616],[-2279,-822],[-915,-11],[-2851,1129],[-2242,128],[-2247,302],[-1174,449],[-1755,1117],[-2490,851],[-1306,143],[-1634,-1126],[-1197,-2392],[-462,-577],[-1117,-220],[-1946,1056],[-920,826],[-2271,846],[-1185,-117],[-1729,-1166],[-1116,-1732],[-589,-2907],[-1264,-2518],[-1019,-957],[-2290,-794],[-2496,-60],[-2492,528],[-2256,913],[-2698,2186],[-1095,424],[-2251,371],[-1038,-38],[-853,-631],[-1696,-412],[-2369,143],[-2200,804],[-1332,1302],[-1581,1002],[-1165,400],[-1185,106],[-2960,-549],[-1969,-581],[-545,-651],[-690,-1907],[-1545,-1205],[-1440,-605],[-1191,147],[-2492,887],[-3048,1712],[-557,106],[-2157,-244],[-687,-252],[-1918,-1825],[-263,-991],[-266,-3287],[172,-1859],[380,-1649],[892,-780],[-287,-2532],[237,-1082],[1567,-1763],[1923,-891],[2274,236],[1441,456],[1379,729],[1802,1360],[668,950],[1410,3355],[1447,579],[967,-254],[3597,-2044],[1301,-2058],[643,-1718],[-27,-2014],[-261,-1336],[-946,-1849],[-2021,-1884],[-1748,-1202],[-5600,-2606],[-1569,-834],[-1031,-1226],[-89,-1665],[673,-2010],[-44,-638],[584,-2402],[987,-2794],[360,-1960],[49,-2124],[-721,-2267],[-1541,-3368],[-1869,-2257],[-1635,-670],[-6309,-3705],[-3364,-1390],[-1535,-389],[-4161,-754],[-1248,1792],[-1535,1236],[-582,1593],[-276,2060],[1,2467],[471,1905],[690,1566],[-2614,1234],[928,2354],[-82,1090],[378,1105],[-454,2294],[-172,2122],[-1369,548],[-579,1007],[-1092,536],[-1019,1317],[-408,1184],[2388,1494],[1025,1052],[422,873],[1169,-311],[979,685],[741,1013],[1594,440],[1569,-432],[-194,765],[-1198,1818],[-1116,1123],[-2153,1417],[-559,76],[-1259,-552],[-786,59],[-911,667],[-976,311],[-337,558],[372,2846],[764,2299],[1388,576],[519,996],[-282,2058],[148,348],[-723,881],[-830,1495],[-1398,1297],[-1573,2780],[-955,921],[-1300,804],[-2014,928],[-1550,345],[-441,826],[-748,445],[-764,1303],[-799,3036],[-581,1374],[-1576,717],[-797,-868],[-609,-93],[-928,-1215],[-181,-1157],[565,-1506],[-275,-1029],[-1150,-793],[-304,-1009],[-725,208],[263,1705],[-49,1093],[-718,1746],[-572,889],[-718,1726],[242,865],[-602,999],[-80,1244],[3407,3300],[851,222],[-204,959],[-2092,6123],[-1318,1171],[-862,-345],[-1445,1425],[-1743,1074],[-1549,236],[-1423,-1205],[-1195,-491],[-2531,-308],[-87,614],[858,1976],[-633,1385],[-985,363],[-1782,-154],[-409,-249],[-1068,1320],[-1103,453],[-490,981],[-1893,1952],[-287,838],[835,495],[1062,1128],[1552,136],[889,1341],[-130,888],[-1042,2356],[-59,649],[725,585],[1467,-244],[1276,145],[-81,1344],[-786,1045],[-128,1217],[-778,943],[670,1542],[908,140],[2157,1382],[272,2492],[-734,639],[-726,3509],[1297,318],[309,1436],[776,964],[-223,865],[-848,305],[437,1343],[365,2461],[-1443,-42],[-969,307],[-2818,1396],[-2493,447],[-3163,21],[-1070,278],[-2277,-104],[-1445,-275],[-3078,191],[-1055,-1083],[-1170,-1736],[-1371,709],[-501,908],[-228,1653],[-1148,-236],[-2162,73],[-1582,-189],[-925,37],[-1074,612],[-663,902],[-3228,-218],[-829,759],[-1048,356],[-812,-209],[-793,773],[-2039,-1354],[-650,-1453],[-688,-574],[-623,-1392],[-697,-572],[-969,-100],[-1057,-597],[-636,-997],[-951,-120],[-510,1029],[-728,691],[-616,-329],[-883,448],[-1838,-137],[411,510],[509,1674],[172,1247],[446,712],[346,2221],[-122,1093],[542,1188],[787,807],[-391,589],[1256,505],[-27,666],[-959,1171],[-533,1443],[-1623,1745],[-1032,1372],[-1227,645],[-931,1452],[-53,1969],[213,1120],[-72,1302],[-368,1394],[-599,654],[-829,1847],[-1299,2281],[-296,171],[-2169,49],[656,777],[1459,446],[813,-120],[1624,-665],[1726,-352],[1190,-1311],[1468,-201],[1164,475],[378,-383],[2178,-403],[1254,324],[627,-444],[1283,294],[627,-193],[1512,-1724],[978,50],[239,-757],[729,-343],[2683,-241],[1219,2433],[1513,363],[1550,91],[904,464],[1585,1699],[1298,215],[1260,762],[1073,-34],[1182,-394],[1279,1136],[1588,-364],[2174,340],[2266,828],[1144,100],[676,-74],[2057,609],[932,-340],[921,154],[952,-936],[1508,-558],[1808,129],[2113,-419],[1389,-1600],[1997,-1049],[704,-1053],[2058,-431],[2310,-1485],[808,698],[382,788],[631,320],[1254,43],[1262,-320],[1067,220],[2247,-1640],[1734,-37],[1481,-700],[1110,1119],[-1769,2167],[-216,2844],[112,1275],[-159,1876],[-966,2147],[546,1205],[923,873],[2758,-951],[3528,625],[1103,-286],[1844,27],[1015,379],[569,-309],[2272,-416],[175,1171],[1215,-167],[707,-920],[1293,837],[431,-1010],[1251,-480],[562,-1067],[1872,572],[1228,-654],[1104,965],[1509,-826],[877,815],[-187,846],[313,1165],[1418,-485],[174,-715],[-670,-952],[1869,-421],[994,151],[1041,-1338],[452,54],[857,481],[1247,-1484],[1200,57],[312,2005],[1407,1855],[913,492],[444,732],[1215,613],[1176,992],[1827,1173],[1630,1298],[661,-235],[394,890],[1969,631],[2142,352],[1225,-280],[304,807],[1340,-114],[483,-523],[1215,156],[239,835],[1272,428],[465,-936],[1990,-248],[951,763],[1031,130],[1962,-623],[770,212],[2499,1251],[361,353],[-857,1108],[-9,1182],[464,1882],[-283,618],[450,881],[160,2236],[1683,3371],[488,971],[345,1547],[48,1667],[-323,1967],[462,2234],[1112,1764],[908,1880],[727,988],[560,156],[1838,1805],[479,1353],[290,2824],[397,1355],[1319,1416],[929,640],[-213,915],[1025,904],[1099,-418],[478,1872],[-129,1301],[413,991],[-517,1311],[571,550],[-610,1319],[-81,1636],[-950,797],[-1099,2166],[885,1407],[286,1756],[-221,853],[742,737],[673,1441],[634,582],[565,1444]],[[313512,303268],[-709,1003],[-784,55],[-1135,581],[-867,2715],[-834,769],[-1603,-83],[-246,1971],[-1052,543],[-1657,-155],[-1558,2065],[-649,1772],[-532,393],[-1731,-818],[-1496,104],[-2505,729],[-1326,873],[155,679],[876,1104],[-111,1077],[-1429,438],[-522,859],[1100,3113],[-20,1758],[1014,2767],[-1227,2697],[-111,543],[992,330],[1453,-147],[874,773],[276,1196],[1007,2289],[1595,1270],[1826,800],[491,472]],[[303067,337803],[271,2055],[1523,-576],[1404,-42],[752,852],[2,1031],[982,1743],[1179,1566],[830,1398],[1516,1220],[525,1422],[-87,2337],[182,881],[1206,2253],[101,1365],[1853,882],[2417,2265],[1650,869],[1375,1388],[1807,706],[1606,148],[954,2156],[640,703],[-236,1858],[962,937],[941,1292],[755,259],[-82,949],[-754,842],[-173,848],[517,2349],[-278,1312],[-1208,970],[-217,624],[1862,1725],[-156,1131],[-565,1460],[857,1766],[1848,1431],[481,1367],[-1064,1494],[-723,1799],[5,637],[2285,1259],[802,1692],[242,1701],[395,1361],[1424,22],[950,1794],[58,969],[826,1107],[1081,120],[345,2343],[507,266],[1250,-313],[2817,2229],[772,1064],[-340,1098],[-614,571],[252,1344],[1447,1189],[504,923],[-159,2118],[-563,1278],[-71,1251],[-757,1166],[-789,459],[-250,1533],[-616,934],[-816,147],[-911,-530],[-1108,-3],[-418,543],[-175,1655],[-524,1229],[-620,391],[-1661,45],[-1115,-318],[-639,260],[-2058,1627],[-1800,1729],[-1872,1375],[-1522,-157],[-657,300],[-142,1814],[-680,272],[-2035,-197],[-1350,716],[-1178,948],[-727,2238],[-1142,540],[-1301,36],[-587,1591],[607,1422],[118,1225],[-476,497],[-1561,552],[-324,1231],[281,1951],[-350,2326],[750,1298],[414,1357],[-773,923],[-1459,286],[-703,805],[-333,1619],[116,937],[799,2255],[-307,639]],[[312086,454527],[-422,2732],[190,2106],[-489,1626],[-733,494],[-402,804],[-20,1058],[-789,862],[-1369,760],[-582,1838],[-2844,2874],[-925,1438],[-1805,1508],[-1277,782],[-630,2766],[-472,541],[-1523,-104],[-458,1315],[-17,1660],[382,1624],[-1189,2487],[-175,2412],[628,2830],[-106,1399],[1219,2579],[-210,866],[250,890],[1719,610],[939,65],[10,729],[1636,1345],[1685,477],[607,1147],[1370,1650],[302,1062],[1526,1072],[132,776],[1553,210],[1850,-831],[3188,-1756],[1499,-606],[1170,-965],[1026,-34],[2707,-1405],[1665,-181],[692,-1661],[273,-1747],[731,-1556],[1025,-1054],[454,-1736],[1464,-672],[323,-923],[742,-834],[1308,-432],[1281,-1640],[1640,-736],[-284,-796],[344,-1317],[1099,-511],[1438,-1290],[1007,-385],[2504,740],[2488,3594],[349,1606],[1377,1576],[165,2174],[755,1033],[1537,1486],[-239,1589],[-450,1312],[155,1069],[1062,2283],[709,804],[-108,670],[363,2025],[480,642],[620,1770],[1343,1728],[1252,59],[2249,1043],[1109,60],[595,-632]],[[354754,507380],[713,-2052],[917,-925],[553,-2372],[577,-1204],[1994,-1725],[1516,-2077],[1140,-645],[227,-786],[1292,29],[361,-864],[-1010,-1290],[-533,-2227],[588,-1017],[304,-1790],[1078,-1649],[942,-263],[984,-1380],[-134,-1496],[-442,-761],[-154,-1511],[1728,-1485],[918,-122],[2153,-1312],[874,-1339],[90,-2453],[1888,-3266],[1137,-949],[93,-535],[1424,-1041],[694,-122],[1871,-1067],[1207,-1279],[481,-1635],[835,-1112],[808,-273],[563,-752],[1369,-922],[1629,-203],[1143,-1392],[-360,-782],[-1017,-804],[-346,-1201],[-637,-80],[-380,-1474],[-1036,-743],[-419,-1313],[-950,-896],[-299,-1311],[940,-553],[991,-1036],[3218,-1760],[373,-1024],[-240,-840],[-1229,-1521],[-1173,-793],[-848,-940],[93,-1624],[785,-755],[647,-32],[816,-1007],[1907,-1133],[524,1026],[1372,-424],[610,-850],[1224,-336],[1275,-880],[896,73],[434,-831],[826,-362],[1284,48],[412,-500],[1036,-167],[451,-629],[1109,-66],[1794,589],[2270,-605],[560,301],[2990,-586],[730,-2462],[191,-2217],[-1473,-1782],[-459,-276],[-809,-1319],[-775,-179],[-1831,-1701],[-1909,-2287],[-1109,-1749],[-1570,-1726],[-580,-999],[3020,-2552],[1098,-1584],[586,-378]],[[313512,303268],[810,-972],[470,30],[857,1096],[577,203],[1053,-655],[559,212],[1491,-1472],[1215,-430],[719,176],[760,-490],[506,-942],[654,-78],[-150,2460],[148,846],[880,1320],[1312,1135],[2488,852],[984,-1160],[892,-375],[1530,-1058],[956,-304],[1697,-72],[1500,-452],[3289,1402],[172,-295],[495,509],[2324,-101],[491,205],[399,1126],[1284,145],[1575,606],[1268,1286],[1567,675],[908,1321],[595,2192],[727,-232],[1106,-899],[1945,3252],[-1564,535],[-1335,-628],[-398,1700],[-735,1191],[1153,832],[598,-209],[594,1244],[-271,598],[285,1579],[-997,829],[867,1692],[139,886],[851,200],[1435,-343],[1257,263],[451,859],[1141,627],[956,2373],[975,619],[993,1427],[-523,2181],[-290,3234],[-1032,1052],[270,1184],[-104,1571],[767,996],[-522,1156],[-1341,1257],[-1137,1359],[2833,-165],[688,-331],[2507,468],[1209,1453],[1058,2634],[1581,1589],[1367,92],[-246,1010],[-2302,1896],[-2025,1196],[-921,1614],[-775,776],[-1625,757],[-399,559],[-1084,439],[-678,1177],[1017,3890],[-331,1164],[446,1103],[1274,1504],[2839,1117],[1254,1826],[644,350],[1292,1685],[520,1043],[1561,1648],[1331,-6],[2918,545],[1945,-484],[1150,290],[2504,-599],[976,-800],[1529,73],[122,733],[821,1770],[894,998],[302,1182],[21,1566],[-1754,2994],[905,795],[102,814],[603,557],[824,1501],[-1833,1559],[-140,1073],[-1099,1973],[-596,1382],[35,1096],[-588,3278],[1455,253],[1957,697],[1195,925],[1842,2251],[1453,159],[1143,661],[1551,-1196],[1225,-87],[146,964],[1148,134],[294,1625],[529,493],[1433,442],[2688,2402],[478,157],[625,1100],[1033,3562],[211,1862],[506,148],[862,-1142],[1087,296]],[[401585,413084],[1232,-1240],[274,-1422],[1709,-2598],[702,836],[911,325],[1586,1110],[1582,-287],[940,261],[1338,-854],[968,92],[1047,-434],[1467,-1871],[652,-2263],[1101,-291],[749,-971],[-95,-1414],[802,18],[1288,-1339],[1086,-563],[802,-809],[878,666],[1068,182],[967,959],[1357,-56],[973,-444],[1229,619],[1234,-428],[643,-1022],[255,-956],[999,-443],[748,271],[1737,-121],[489,507],[2431,567],[979,-1182],[1451,-649],[974,-1052],[365,-1519],[1345,-1142],[863,-3259],[1246,-1123],[1210,-501],[1086,-839],[1368,-104],[183,-697],[2022,-1431],[993,-289],[676,-1435],[55,-727],[826,-1995],[-2016,-2781],[410,-1186],[-38,-800],[457,-1465],[1323,-631],[1111,-1820],[1525,-358],[1513,-973],[1132,-269],[2464,139],[1259,272],[1744,-498],[1034,-843],[1335,-27],[1149,923],[355,-1042],[985,922],[2079,1385],[625,-844],[2754,654],[1674,29],[-210,-1363],[987,-103],[848,-1226],[1063,289],[222,-987],[1351,344],[158,-1325],[680,552],[1337,-1264],[1794,-210],[447,-770],[718,-158],[207,-767],[-807,-558],[-727,-1022],[276,-1732],[-278,-1168],[1352,-1890],[706,-180],[457,-822]],[[458874,231422],[-526,714],[-789,386],[-1078,-264],[-489,-995],[-1452,-1702],[-1101,-729],[-1685,-1482],[-675,53],[-1531,1610],[-574,176],[-2352,-349],[-1199,725],[-221,876],[1366,1572],[-290,692],[-1247,967],[-1124,433],[-4004,1127],[-2522,1535],[-1630,-419],[-1875,-1469],[-1400,-107],[-322,754],[-16,2015],[-1146,412],[-1830,-1454],[-1380,-497],[-3413,-879],[-823,-966],[-56,-934],[453,-1078],[-346,-1581],[-1134,-497],[-1092,12],[-1501,518],[-377,722],[429,2015],[-563,976],[-1983,204],[-792,-492],[24,-1399],[989,-1351],[388,-1159],[-147,-1665],[-654,-989],[-1463,-156],[-1195,264],[-3402,1553],[-1485,944],[-1867,1609],[-1067,652],[-465,-104],[-937,-1144],[-811,-623],[-2378,-196],[-1263,-315],[-1499,904],[-2651,3747],[-841,542],[-1555,226],[-1388,797],[-805,910],[-1065,1732],[-1481,3349],[-1253,1920],[-1484,1787],[-2452,1695],[-1226,229],[-1836,1579],[-2497,-311],[-76,-994],[826,-1493],[-475,-821],[-870,283],[-1887,1814],[-2573,460],[-776,-896],[-28,-1061],[1331,-436],[666,-1064],[-526,-820],[-1525,179],[-3345,2357],[-241,1660],[-511,539],[-2540,1137],[-1905,1640],[-1064,2540],[-580,699],[-775,-63],[-1525,-1232],[-1141,-607],[-886,-76],[-1144,320],[-1189,652],[-1249,44],[-1121,-732],[-1040,671],[-1262,1838],[-1124,1046],[-1072,-444],[-280,-1612],[-438,-898],[-1106,-949],[-1052,551],[-618,1316],[42,575],[1058,1039],[-172,792],[-1101,1107],[-1530,509],[-950,-399],[-1477,-1289],[-1794,-2384],[-954,-1892],[-2567,-4500],[-1171,-2745],[-2496,-52],[-1236,-987],[-666,-1044],[-859,864],[-455,1095],[-518,22],[-1912,-957],[-1076,-320],[-466,1124],[24,1802],[-466,2535],[795,1180],[-353,1230],[-2373,-70],[-1983,936],[-612,830],[306,699],[2182,2887],[-888,805],[-1273,-105],[-849,427],[-249,1196],[-991,761],[-943,-492],[-490,-1159],[-1193,-1224],[-3274,-833],[-1528,38],[-1147,2147],[-775,1044],[-958,781],[-2131,4],[-1204,-310],[-2651,-213],[-1198,265],[-717,-248],[-442,949],[1160,1609],[50,1135],[-1363,2300],[-957,765],[-834,-393],[-630,-1014],[-197,-1972],[-1106,-1249],[-2041,317],[-3048,-2804],[-1939,-766],[-1324,606],[-1938,-763],[-961,-12],[-786,1032],[-144,804],[385,2312],[-737,1345],[-1942,519],[-433,-625],[379,-1516],[-111,-1578],[-878,-1081],[-390,-957],[-996,-1754],[-555,-435],[-942,938],[495,1778],[-386,940],[-1226,1296],[-1371,2176],[-826,680],[-2218,964],[-1289,-223],[-1165,-1195],[136,-1364],[1425,-1072],[1054,43],[-301,-1281],[-1210,-1342],[-1998,-770],[-1425,-66],[-994,266],[-1302,882],[-1326,-251],[-1449,-2612],[-1009,-537],[-1177,616],[-1434,459],[-1821,957],[-1266,357],[-1347,759],[-1017,1368],[-2011,1661],[-3245,-825],[-1135,-1739],[-962,-471],[-2289,1833],[-1077,316],[179,1437],[1957,1774],[61,708],[-1064,1560],[513,1208],[1295,533],[1199,895],[2599,914],[1808,1525],[977,1076],[735,2902],[880,1743],[3339,4805],[681,1004],[1211,403],[1154,2721],[831,641],[1065,207],[1133,-508],[793,-842],[1416,-716],[3030,-610],[656,-451],[1098,-1362],[1874,-1831],[311,-834],[1112,-643],[910,-68],[2205,-874],[1108,-829],[463,0],[1633,1300],[1198,-815],[741,-54],[1455,1993],[902,76],[1415,712],[588,730],[1644,-268],[551,241],[715,1569],[892,1302],[1878,-178],[784,-1184],[1855,-182],[3470,1098],[1864,-35],[1717,-826],[974,1008],[-184,1053],[625,783],[2204,-424],[85,489],[-425,1773],[-188,2048],[416,429],[2392,433],[1248,388],[1377,1016],[1997,1967],[899,1156],[336,1534],[-426,1098],[815,1962],[116,789],[-152,2416]],[[665616,160284],[-326,1151],[1218,1172],[-371,1150],[-2146,464],[-383,1520],[878,546],[248,899],[-535,1768],[-681,777],[-2031,177],[-2675,1201],[-896,797],[-1345,2143],[-513,1305],[-572,679],[-2761,2319],[-1959,764],[-2054,384],[-755,605],[-1996,113],[-1554,-480],[-2002,-1660],[-773,-1581],[-73,-976],[-802,-1901],[84,-1417],[-386,-1177],[-673,-656],[-220,-1297],[240,-814],[-599,-1490],[-2469,-999],[-1038,-1280],[-516,-214],[-1517,497],[-892,779],[-1359,-465],[-533,-2843],[-1060,-398],[-2091,2462],[-961,65],[-1475,-613],[-1426,436],[-328,997],[-830,4157],[-507,775],[-1991,1103],[-498,1015],[9,1662],[866,2329],[304,1742],[-895,2950],[-989,2649],[-794,746],[-1079,382],[-1892,1429],[-1135,250],[-1034,867],[-173,1989],[8,1457],[-471,1516],[-267,2182],[258,889],[1126,467],[369,1052],[-498,2556],[1569,780],[507,920],[-433,907],[-785,184],[-1172,1080],[-507,1181],[-1153,1998],[-600,1694],[-304,1444],[-765,1101],[-480,656],[-2334,-388],[-1364,415],[-4399,-796],[-867,-504],[-471,-1455],[-811,-131],[-793,789],[453,1838],[-396,677],[-1973,233],[-1190,-514],[-1549,-50],[-1494,364],[-1207,1193],[-909,1432],[-304,861],[-818,493],[-1860,72],[-952,-785],[-1218,-299],[-1560,1125],[-1403,-456],[-186,-1414],[649,-1120],[-1009,-2081],[-604,-176],[-586,571],[-1441,3440],[-1194,1197],[-1196,124],[-1202,-379],[-613,-500],[-140,-1042],[668,-1508],[-1116,-746],[-1313,1445],[-61,1408],[640,1413],[98,799],[-360,903],[-1400,1096],[-1539,-235],[-1257,-1505],[-1769,-1077],[-1608,-18],[-3498,2035],[-1690,334],[-1390,587],[-506,-231],[-407,-2256],[-1076,-1085],[-1745,524],[-1287,5],[195,-2513],[-1220,-960],[-1653,-223],[-509,475],[-243,1147],[678,1156],[271,1316],[-915,367],[-1070,-475],[-1001,150],[-2229,1516],[-583,-8],[-3114,-1069],[-2930,-1337],[-1231,-220],[-1045,328],[-1341,1057],[950,1296],[1187,241],[1151,723],[526,1299],[-178,787],[-1086,1582],[-1663,517],[-1302,-464],[15,-776],[567,-1320],[26,-717],[-620,-1239],[-1294,-429],[-1231,573],[-204,615],[-745,2804],[-728,1455],[-938,408],[-430,-367],[-637,-1592],[-1182,-1699],[-1266,296],[-1729,1513],[145,987],[1582,1367],[785,1057],[-504,878],[-1556,-56],[-2461,446],[-3322,1207],[-2270,12],[-290,-737],[658,-2130],[-1081,-471],[-599,933],[-723,338],[-792,-344],[-810,-1028],[-208,-886],[130,-1261],[-856,-1385],[-3349,-2051],[-2599,-1799],[-969,187],[54,1897],[-980,1507],[-811,298],[-838,-135],[-1085,-836],[13,-2025],[-371,-424],[-964,134],[-481,510],[225,854],[796,1349],[-388,711],[-1272,597],[-1493,-81],[-885,-688],[-1372,16]],[[496053,221085],[-468,119],[-2004,2369],[-821,395],[-1521,-297],[-730,-1017],[90,-1216],[1342,-384],[1142,-902],[411,-1119],[-706,-767],[-1031,-85],[-1111,279],[-3733,1671],[-1987,295],[-1081,-218],[-985,694],[-251,1344],[211,1141],[-645,2067],[-884,815],[-2227,295],[-1878,-559],[-1661,-82],[-2297,867],[-876,987],[-177,1237],[-993,581],[-1005,-1192],[-887,80],[-1772,985],[-1739,381],[-1587,-1198],[-1286,-670],[-1219,-42],[-1535,1064],[-1278,2419]],[[458874,231422],[-667,1190],[17,635],[-952,1056],[292,1150],[-793,422],[-344,1107],[311,707],[1471,1225],[265,596],[-434,694],[136,685],[1279,479],[1263,-219],[905,-765],[149,-543],[1025,-1298],[742,1675],[-380,968],[1169,427],[-390,1108],[737,243],[1657,-14],[468,738],[1648,419],[1718,1266],[895,-491],[1619,678],[229,444],[61,1692],[284,806],[1002,787],[128,473],[-35,3172],[-775,1179],[-47,1050],[-1235,957],[6,2715],[404,1202],[-609,1442],[-343,1485],[-1014,543],[216,4423],[-11,1979],[-868,1392],[35,1041],[-535,887],[-30,1566],[479,818],[774,-483],[746,1101],[-175,617],[728,515],[903,1395],[654,295],[452,1101],[-1,1333],[691,527],[719,2636],[-221,1652],[-618,1160],[-8,1331],[-295,956],[268,1814],[1005,1056],[-544,1159],[-303,1612],[452,564],[3597,-69],[1154,873],[514,944],[-379,2076],[203,392],[2522,188],[1002,-447],[960,391],[957,1200],[327,2511],[850,379],[3267,-456],[626,-584],[592,444],[1374,399],[1595,-93],[1095,1907],[1172,483],[847,701],[-1064,851],[-36,1170],[-543,535],[-3454,1597],[-236,1006],[-1341,865],[-852,-983],[-809,-104],[-3135,761],[-821,633],[-222,1188],[-634,503],[-1517,-399],[-671,1048],[115,1561],[-209,635],[53,1997],[307,785],[-576,859],[-1566,-864],[-1454,-359],[-1128,-1399],[-167,-796],[-1371,-673],[-838,-885],[-1094,255],[-1434,-118],[-965,194],[-2151,-329],[-771,638],[-864,21],[-1009,1091],[122,1059],[-326,969],[-2733,3317],[-542,143],[-2237,-84],[-713,1518],[-668,1357],[-1466,2300],[-200,789],[123,1385],[-676,1811],[2144,-288],[2226,-533],[848,686],[2148,973],[1659,416],[3543,2084],[-209,1063],[-1142,97],[-1820,1192],[-1168,503],[14,1597],[1336,2215],[1173,508],[2285,109],[1765,1273],[921,1832],[1658,1808],[934,793],[1682,-768],[748,370],[838,-147],[1099,620],[1179,1700],[-428,962],[17,1615],[-439,720],[1672,950],[426,1320],[2453,877],[518,566]],[[485831,358154],[686,-90],[1180,-1488],[194,-1181],[765,-442],[1437,366],[-188,-1569],[-784,-772],[1684,-589],[1112,-165],[710,-435],[2594,904],[649,-739],[2,-686],[-932,-719],[-192,-1324],[1020,-1400],[261,1679],[865,243],[893,-300],[1187,-1468],[1630,-171],[335,-700],[973,-196],[-276,-660],[-1434,-498],[-92,-646],[1995,-523],[57,-736],[1386,-1188],[544,-1160],[1153,-515],[1080,615],[1132,2047],[1704,-272],[888,-731],[863,-1449],[1756,-1331],[163,-956],[956,-962],[2358,3420],[872,1600],[763,2293],[1857,727],[1832,997],[541,957],[162,1001],[765,769],[129,648],[1080,1388],[1145,624],[1034,1419],[798,356],[718,858],[1483,266],[501,-214],[1711,-1462],[1200,-612],[1267,516],[1513,-527],[1355,3],[1140,-436],[922,1],[1683,-401],[3097,-21],[1404,400],[503,508],[1022,-344],[792,-1231],[1191,-25],[168,-809],[1204,-550],[2033,-1831],[1813,1369],[989,48],[384,562],[1898,-553],[2184,300],[1630,418],[20,-837],[2051,-2039],[1960,111],[1231,-718],[1483,428],[257,711],[919,259],[1120,-760],[1250,13],[281,-527],[945,169],[680,-402],[1887,186],[1358,1693],[1048,287],[719,706],[1621,-474],[926,-554],[458,-1091]],[[581142,347540],[-97,-380],[1715,-2532],[384,-1110],[-184,-3337],[705,-1614],[443,-76],[1577,941],[1072,159],[555,1123],[575,327],[1380,-471],[894,2312],[600,455],[1024,-597],[257,-817],[841,-154],[1830,1497],[776,109],[777,855],[1176,1984],[1505,-227],[838,-1211],[1720,1033],[2069,256],[1224,2564],[1766,446],[1074,669],[1617,276],[270,683],[1786,1113],[1831,446],[159,966],[2340,920],[1395,-631],[753,650],[1757,2152],[510,290],[635,1344],[1212,-116],[169,793],[978,1412],[1085,629],[477,1154],[1123,617],[2254,-613],[1368,46],[1200,-568],[800,1284],[990,328],[1639,1089],[1510,289],[3006,808],[3411,-845],[2561,122],[2025,347],[1239,-721],[1437,94],[2158,-390],[1191,471],[666,1011],[1069,221],[1334,-1311],[1438,-591],[553,-501],[3303,-1534],[740,-553],[1536,-600],[774,-998],[802,-411],[520,1022],[503,-214],[391,-1368],[1086,-255],[563,-2315],[1181,102],[616,-354],[1077,-1467],[1242,-231],[610,-1202],[1909,-342],[497,-446],[-376,-1948],[157,-573],[1978,-583],[526,-577],[1126,-466],[388,-590],[-404,-1383],[2254,-577],[670,-907],[921,-2855],[583,-719],[1568,-507],[230,-613],[-154,-2056],[1311,-644],[434,-1854],[-1050,-706],[435,-710],[1034,-53],[1404,-733],[943,-1360],[-41,-930],[-544,-1162],[1244,-1717]],[[689571,327623],[-617,-1254],[-1862,-2315],[-2158,125],[-331,-663],[915,-2512],[-1654,-836],[426,-1336],[-115,-879],[-1384,-487],[-52,-786],[774,-1125],[-44,-808],[-684,-1123],[53,-999],[916,-881],[-1309,-1246],[-666,-1063],[712,-1379],[-623,-879],[-205,-1064],[366,-2294],[-1549,-3079],[332,-1789],[-447,-332],[-1028,153],[-576,-414],[165,-1157],[-1157,-1001],[-3065,-3148],[-496,-196],[-1196,578],[-594,-559],[1032,-1506],[-251,-668],[-1644,140],[-1355,-865],[-1549,-142],[-551,-278],[-390,-1614],[-1314,-1605],[-1018,-711],[-425,-866],[341,-1777],[-1050,-2128],[1450,-2748],[131,-1173],[-750,-1639],[64,-727],[608,-856],[508,-466],[739,-1438],[1173,-786],[1566,-397],[2015,-898],[1116,134],[2556,-1295],[781,312],[401,1136],[1025,660],[2125,-806],[732,-921],[170,-1818],[451,-610],[898,-280],[1316,952],[963,-361],[980,-904],[1201,-134],[1531,-775],[-331,-1532],[90,-545],[1026,-227],[1633,-825],[997,-783],[156,-1433],[646,-780],[1928,-799],[2715,154],[2310,-425],[2871,-1576],[775,-1335],[-580,-841],[-2556,-575],[-368,-806],[533,-360],[1841,-439],[1377,-613],[1027,578],[99,941],[694,662],[586,-289],[509,-916],[246,-1163],[635,-389],[1166,986],[1131,479],[1230,-263],[2617,-956],[1039,478],[414,1269],[592,690],[946,-321],[527,-1740],[-199,-1004],[-873,-918],[-7,-484],[1215,-1220],[2123,-1031],[-188,-631],[-1539,-817],[-465,-2743],[193,-1205],[-57,-4890],[601,-942],[1154,-956],[-51,-1029],[-1345,-803],[-376,-937],[1667,-3491],[384,-192],[1206,618],[1302,86],[541,-562],[-715,-1424],[-820,-527],[-624,-939],[291,-934],[3089,-1551],[1348,-308],[172,-612]],[[724542,221877],[-778,-2258],[43,-1365],[489,-1880],[-61,-1308],[-572,-3490],[-677,-1397],[-2255,-1561],[-1834,-579],[-1116,271],[-856,592],[-3820,-187],[-1523,352],[-1584,-155],[-1840,-1031],[-254,-2413],[140,-2636],[-1068,-2709],[-563,-390],[-1729,-284],[-815,107],[-1198,632],[-2179,1484],[-2816,635],[-1571,-786],[-1819,774],[-3465,382],[-2668,1067],[-2504,384],[-1347,-127],[294,-864],[13,-1401],[-512,-470],[-4410,736],[-1467,710],[-2365,791],[-881,-634],[-919,-1522],[-223,-848],[-1129,-920],[-1356,-247],[-825,-614],[-524,-925],[-671,-5432],[137,-684],[-171,-2668],[-295,-1498],[41,-1160],[556,-2010],[1229,-2091],[1688,-1965],[557,-386],[1586,-191],[2320,173],[1515,-381],[1481,-665],[2007,-1203],[3170,-3688],[1375,-3312],[377,-1522],[236,-2086],[-223,-767],[-1223,-401],[-1670,697],[-1918,2275],[-1378,1071],[-1494,60],[-1627,-314],[-865,-970],[-2606,-4272],[-1374,-2665],[-674,-655],[-1718,-859],[-1146,162],[-1221,495],[-1331,-11],[-1052,-586]]]}