{"type":"Topology","objects":{"districts":{"geometries":[{"properties":{"DISTRICT":"BHOJPUR","STATE_CODE":1,"PR_NAME":"Koshi Province"},"type":"Polygon","arcs":[[-5,-22,-17,-1,-36]],"id":10},{"properties":{"DISTRICT":"DHANKUTA","STATE_CODE":1,"PR_NAME":"Koshi Province"},"type":"Polygon","arcs":[[-13,-6,-24,-37,0,-16,-30]],"id":17},{"properties":{"DISTRICT":"ILAM","STATE_CODE":1,"PR_NAME":"Koshi Province"},"type":"Polygon","arcs":[[-7,-15,1,-3]],"id":25},{"properties":{"DISTRICT":"JHAPA","STATE_CODE":1,"PR_NAME":"Koshi Province"},"type":"Polygon","arcs":[[-8,2,3]],"id":27},{"properties":{"DISTRICT":"KHOTANG","STATE_CODE":1,"PR_NAME":"Koshi Province"},"type":"Polygon","arcs":[[-11,-23,4,-35]],"id":36},{"properties":{"DISTRICT":"MORANG","STATE_CODE":1,"PR_NAME":"Koshi Province"},"type":"Polygon","arcs":[[-25,5,-12,6,7,8]],"id":42},{"properties":{"DISTRICT":"OKHALDHUNGA","STATE_CODE":1,"PR_NAME":"Koshi Province"},"type":"Polygon","arcs":[[-34,9,-19,10]],"id":49},{"properties":{"DISTRICT":"PANCHTHAR","STATE_CODE":1,"PR_NAME":"Koshi Province"},"type":"Polygon","arcs":[[11,12,-33,-29,13,14]],"id":51},{"properties":{"DISTRICT":"SANKHUWASABHA","STATE_CODE":1,"PR_NAME":"Koshi Province"},"type":"Polygon","arcs":[[15,16,-21,17,-27,-31]],"id":63},{"properties":{"DISTRICT":"SOLUKHUMBU","STATE_CODE":1,"PR_NAME":"Koshi Province"},"type":"Polygon","arcs":[[18,19,20,21,22]],"id":69},{"properties":{"DISTRICT":"SUNSARI","STATE_CODE":1,"PR_NAME":"Koshi Province"},"type":"Polygon","arcs":[[-38,23,24,25]],"id":70},{"properties":{"DISTRICT":"TAPLEJUNG","STATE_CODE":1,"PR_NAME":"Koshi Province"},"type":"Polygon","arcs":[[-32,26,27,28]],"id":74},{"properties":{"DISTRICT":"TERHATHUM","STATE_CODE":1,"PR_NAME":"Koshi Province"},"type":"Polygon","arcs":[[29,30,31,32]],"id":75},{"properties":{"DISTRICT":"UDAYAPUR","STATE_CODE":1,"PR_NAME":"Koshi Province"},"type":"Polygon","arcs":[[33,34,35,36,37,38]],"id":76}],"type":"GeometryCollection"}},"bbox":[86.15826776900008,26.34742364400006,88.20429852100006,28.112817145000065],"transform":{"scale":[2.046032798032777e-06,1.7653952663952718e-06],"translate":[86.15826776900008,26.34742364400006]},"arcs":[[[488900,321668],[-219,2510],[-892,3426],[1818,1150],[344,983],[-1292,1683],[-1942,-176],[-748,458],[-883,2484],[194,719],[1484,644],[1660,244],[2181,1690],[687,1036],[267,1209],[-302,1034],[-1534,2229],[-170,1125],[547,729],[2230,941],[292,1480],[-1096,1598],[-622,1382],[562,1009],[2934,1215],[1069,1225],[580,1680],[130,2775],[1139,1866],[1380,280],[935,-380],[493,856],[-87,1687],[483,822],[1225,753],[2609,828],[782,460],[1554,2016],[1480,964],[794,1347],[175,2494],[437,1668],[-29,908],[-954,2317],[-433,3379],[-577,1708],[-1144,1371],[-649,3214],[-650,1222],[-1098,627],[-520,2548],[-769,862],[-20,1029],[-535,1202],[-1853,3591],[-328,1315],[115,2700],[212,883],[1393,2435],[540,4951],[-147,1589],[2005,607],[1448,746],[649,1519],[-608,1677],[276,1371],[2537,1690],[1125,144],[1803,-265],[730,1121],[617,1550],[1266,1392],[322,1144],[1972,1008],[953,845],[1040,1765],[436,1656],[652,783],[3637,180],[2956,1408],[666,609],[1217,2270],[1161,934],[3219,514],[842,1264],[-252,1847],[-724,990],[85,625],[1022,1020],[1648,848],[883,-331],[1699,365],[945,506],[4386,4658],[1102,890],[1282,1516],[499,1230],[-724,988],[-355,1228],[287,1366],[2043,1895],[445,1718],[-89,1432],[-1589,6937],[159,1048],[-918,1243],[-1695,276],[-1959,62]],[[897317,429196],[1774,-1115],[2680,228],[440,596],[868,-278],[2354,-2022],[-11,-1026],[1886,-1075],[279,-2008],[696,-1655],[865,-1175],[1647,-688],[934,175],[-86,-2995],[-1346,-1648],[-291,-889],[-748,-532],[105,-1813],[1117,-2011],[1228,-438],[923,-2586],[-175,-1009],[643,-1700],[1051,-1589],[-82,-1505],[822,-2074],[1231,-1283],[565,-1228],[1153,-1748],[669,-153],[888,-1962],[-93,-815],[505,-969],[799,-342],[3180,383],[996,-944],[978,-286],[1125,-575],[2811,-989],[725,-1414],[1809,456],[683,631],[2372,73],[1430,1217],[2525,1137],[1979,-2146],[840,-1736],[266,-3295],[646,-1347],[1093,-1428],[614,-1269],[-13,-1541],[-376,-939],[503,-1146],[-142,-613],[681,-487],[1288,-1655],[3265,-373],[1331,-2032],[1222,-1513],[1193,-425],[970,-924],[118,-1237],[1053,-1031],[674,-93],[1218,-1206],[1537,-782],[1479,-87],[3679,280],[1169,-508],[1619,-291],[521,-829],[-2363,-2353],[-862,-1692],[-583,-645],[-1251,-2256],[-724,-971],[-564,-1448],[-291,-1730],[561,-2952],[-777,-1921],[-524,-3454],[2505,-3996],[1314,-1510],[215,-806],[1665,-731],[1498,-1847],[1261,-891],[796,-2563],[1279,-1315],[420,-1144],[1554,-1959],[-1008,-2107],[508,-973],[-1413,-2490],[-284,-1294],[-1398,-2483],[230,-1514],[-1059,-601],[-297,-1174],[1297,-914],[1376,-1771],[553,-1584],[931,-47],[785,-1288],[802,-60],[2312,-2048],[963,289],[1321,-594],[-7,-827],[2033,-1212],[882,-1550],[514,-2745],[1091,-1099],[-72,-551],[1473,-795],[1308,-265],[438,-2505],[-622,-1523],[25,-758],[1231,-407],[-435,-632],[-82,-1631],[639,-1043],[-521,-748],[-1810,-466],[-1256,-922],[8,-1019],[1194,-1034],[364,-770],[-1502,-4021],[566,-721],[1085,-206],[1523,-1209],[-50,-1060],[-1070,-1709],[377,-1752],[2803,-4568],[348,-2063],[-456,-2545],[156,-723],[-344,-1349],[-48,-1410],[855,-3095],[694,-646],[284,-2201],[479,-952],[351,-1879],[907,-2815]],[[748508,227847],[1905,-2687],[1344,-2830],[1579,-2132],[501,-1424],[875,-14],[855,-1400],[-238,-1562],[628,-1684],[879,-3197],[500,-2595],[794,-1802],[384,-1426],[-484,-1846],[-706,-1287],[-289,-1650],[935,-2485],[1037,-1378],[144,1509],[1648,-1188],[1830,-480],[1146,-661],[1922,-1739],[2491,-1406],[894,-250],[1180,-798],[2542,-2278],[788,-1075],[3161,-1870],[1369,-403],[4986,-2172],[1010,-2232],[2462,-1558],[3295,524],[1898,-204],[1433,-563],[2053,-84],[2393,815],[1486,89],[279,802],[-366,1214],[-107,1734],[195,1476],[675,900],[569,1877],[1924,1588],[654,1031],[874,413],[1311,1229],[2154,872],[569,1204],[1529,437],[1340,936],[770,-323],[968,163],[1687,-917],[2623,-353],[1439,-1330],[1840,-821],[1032,-1753],[1394,-1331],[502,-1853],[780,-963],[1258,-539],[572,-703],[872,-173],[2106,711],[1278,-345],[1244,360],[2494,-1198],[1090,-172],[955,252],[85,-1301],[1194,273],[-377,1765],[-947,1267],[-306,2719],[247,975],[-893,269],[-699,1538],[402,1744],[1380,424],[716,552],[1163,-204],[958,-1558],[1921,-1074],[1857,-1424],[1081,1337],[1255,886],[872,1],[675,-847],[2239,152],[1153,1601],[916,588],[2078,107],[1002,-234],[666,747],[1421,272],[1893,700],[2505,-503],[312,700],[1483,1140],[2500,637],[922,-463],[2084,-1549],[812,-2156],[875,-766],[1051,2186],[-1116,1619],[1320,845],[-907,1514],[649,509],[-1310,1323],[522,594],[-643,1257],[247,958],[-251,809],[-3135,1679],[380,2027],[604,-12],[-108,1878],[1973,2886],[1524,1288],[1872,213],[1674,968],[1429,-973],[1452,424],[804,627],[-345,1757],[415,1725],[-347,1864],[-552,877],[587,453],[608,1349],[1181,1316],[2058,2667],[-355,1512],[-773,646],[-110,1699],[-529,1334],[104,1342],[-2672,1535],[28,1515],[1143,-686],[1005,700],[196,657],[1872,424],[24,3607],[541,3604],[1200,2910],[788,922],[988,934],[902,-591],[-292,-1790],[-912,-1155],[95,-682],[-628,-1916],[123,-1042],[2645,-1342],[1051,-943],[933,120],[640,1245],[78,993],[515,668],[1411,-1067],[-199,-1568],[-876,-1262],[46,-1387],[1244,-1131],[62,-1674],[786,-567],[-322,-1291],[-524,-479],[-79,-988],[1413,-3359],[2420,633],[761,-657],[1635,1849],[1776,-1614],[1016,453],[688,2524],[44,2436],[308,1823],[-445,1392],[178,1073],[1111,2447],[1199,499],[471,-678],[36,-2132],[1982,-1734],[928,658],[2772,601],[830,-25],[1301,694],[268,1540],[1793,157],[-10,1170],[663,1458],[792,-448],[-252,-2126],[76,-1602],[518,-1090],[-674,-1294],[1081,-1464],[1354,576],[1705,-407],[435,-1112],[-115,-1161],[1351,-290],[611,-1014],[679,-351],[342,-1047],[1355,-1568],[-117,-976],[453,-680],[-434,-864],[743,-1305],[463,1674],[1734,1876],[2557,1431],[364,1313],[718,1210],[62,1299],[557,1921],[704,452],[603,2582],[-527,882],[302,1130],[1055,2122],[91,1560],[744,1945],[-142,746],[751,1079],[508,1500],[-20,1213],[1210,-400],[1351,-1072],[961,-392],[506,-786],[631,-2148],[1883,2583],[885,962],[1013,466],[544,753],[462,1926],[1415,840],[-159,1657],[1610,1081],[1110,-1095],[850,-2378],[-1635,-1840],[-490,-1045],[901,-1105],[-698,-972],[-15,-855],[1164,-204],[-351,-1509],[439,-1684],[1189,-811],[243,-581],[-1538,-1056],[702,-805],[306,-2021],[-501,-980],[436,-1240],[-419,-848],[229,-1415],[1218,-1729],[-136,-1073],[970,-1818],[782,-467],[-87,-877],[1123,-1589],[1377,-957],[1374,165],[647,-668],[862,694],[487,972],[782,-559],[1093,294],[475,3080],[3068,2725],[644,2245],[-577,1688],[1341,1739],[1086,471],[453,1009],[63,2535],[790,-689],[-15,-1474],[896,-1091],[538,-2448],[642,219],[1985,1364],[774,772],[1006,-233],[617,1335],[707,2504],[432,803],[-39,2308],[666,2007],[-150,1224],[1001,1369],[513,1508],[940,1727],[-190,1322],[-1002,2924],[-728,777],[776,839],[1216,-1254],[616,-1699],[1391,-765],[200,-1061],[822,-1473],[127,-1256],[-577,-1098],[597,-1643],[2164,-2306],[362,489],[1052,-1034],[1934,-1073],[1472,882],[2545,-281],[1973,719]],[[991769,246637],[1518,-6505],[2,-2088],[-349,-4259],[-676,-2081],[606,-3328],[-423,-3498],[-139,-2473],[206,-1061],[-910,-2370],[137,-1884],[-1215,-1974],[186,-1968],[-319,-2574],[-732,-1002],[-1005,-2663],[-971,-1539],[-1691,-1256],[-1711,-3666],[-1171,-1158],[447,-1149],[-256,-961],[82,-4724],[-309,-762],[378,-1218],[-1842,-3099],[343,-2393],[79,-2276],[-302,-2611],[-682,-8506],[68,-2644],[-1153,-1945],[-833,-120],[-497,-1282],[1218,-1992],[-1139,-341],[-378,-1771],[-1511,-1461],[-3610,-387],[-1249,-759],[-139,-831],[-1001,-557],[-578,-1730],[-242,-2038],[97,-3223],[-632,-1341],[173,-571],[-407,-2168],[-1525,-202],[-2305,-1924],[-506,-674],[877,-1893],[110,-2701],[-1188,-3253],[299,-1467],[-1360,-1688],[1259,-1307],[308,-1763],[-152,-1558],[-866,-618],[-598,1747],[-958,1097],[-894,-235],[-107,-680],[978,-882],[-1098,-1248],[-1071,1966],[-1542,-662],[264,-1562],[523,-943],[18,-1005],[-2244,1140],[-186,973],[-1040,-409],[-395,-1894],[893,-1728],[-220,-1078],[-970,-736],[1327,-1133],[43,-698],[-870,-822],[-1431,96],[-550,1821],[-1127,253],[-1,-5783],[1034,-114],[1430,-1624],[521,-1396],[-1223,-911],[-975,-1250],[-1570,-943],[-1044,79],[-1168,-589],[-596,-1384],[483,-875],[920,113],[849,874],[554,-885],[-466,-1665],[83,-1077],[939,-1237],[-899,-5148],[-260,-363],[-2883,-543],[-952,-1140],[777,-1302],[148,-901],[-451,-616],[-1752,-747],[-804,-663],[245,-1100],[742,-676],[928,-48],[1796,872],[317,-210],[322,-2691],[535,-1370],[-392,-1058],[425,-1579],[1271,-776],[-9,-975],[1289,-774],[-648,-1467],[-1640,-1757],[-402,-1924],[699,-991],[1672,-461],[786,-548],[269,-931],[-290,-1027],[-871,-690],[-1308,-300],[-1532,617],[170,-1155],[1017,-416],[1028,-1012],[-207,-1317],[-1043,-540],[-3371,-32],[-1100,-1011],[371,-1144],[1456,-2858],[618,-2118],[64,-905],[-304,-2366],[-3,-1732],[-286,-2187],[-503,-1022],[-3038,-1981],[-1811,-2048],[-575,-2523],[-592,-519],[-1893,-2929],[-1024,-1020],[-3157,-2570],[-302,-1443],[929,-1716],[-1055,-227],[-852,878],[-1272,-762],[-297,1344],[-1668,-259],[-1557,-1603],[-1044,-2493],[101,-825],[-1343,-96],[-738,-1176],[-754,1045],[-1105,184],[-1154,-710],[435,-601],[-625,-1641],[-991,176],[-272,-544],[-2150,-754],[-690,-2061],[-892,385],[-117,-1384],[-1054,-57],[-1067,-2919],[-1421,-735],[550,-1763],[1508,-319],[-800,-1996],[-879,-1044],[-376,-982],[273,-1158],[1525,-1418],[-493,-1026],[-2705,-453],[-8152,-1695],[-385,35],[-1345,1991],[-1086,332],[-1020,705],[-921,-800],[-1146,603],[-700,1564],[-654,712],[-437,1363],[-142,11326],[-12636,2611],[-5507,4483],[-10376,7009],[-892,508],[-1276,-437],[-803,176],[-438,1589],[279,2136],[-418,1830],[-962,855],[-1297,-54],[-2451,896],[-192,1101],[1016,1576],[2533,1358],[1027,1244],[223,880],[-357,1887],[-499,1002],[-603,128],[-11796,1064],[5343,5107],[-1627,3872],[-3060,7274],[-5836,5240],[-1237,-5792],[-7917,-3360],[-2874,-1468],[-144,-1603],[-715,-702],[-1832,-322],[241,-2367],[-147,-1613],[739,-1217],[1375,-581],[-640,-892],[91,-1497],[-5091,-2054],[-1129,-4988],[-10002,2070],[672,4423],[50,1296],[-2206,1106],[-1064,870],[-671,942],[-2170,2091],[-2790,1572],[-3185,1594],[-6159,2382],[-937,-185],[-733,397],[-1182,-654],[153,-753],[1413,-364],[-182,-897],[-721,-114],[-887,528],[-219,-926],[1043,-493],[415,-720],[-657,-771],[-1126,-677],[-877,-1520],[-233,-1073],[-723,-587],[-1525,323],[495,-1347],[-452,-511],[-1279,287],[-830,-682],[1381,-1218],[42,-1667],[-322,-1240],[-797,-1060],[-23,-1452],[-620,-814],[895,-676],[481,699],[875,-291],[-525,-2564],[-373,-997],[-1112,750],[-464,-556],[98,-912],[602,-456],[-1410,-768],[2240,-1201],[-1365,-1792],[-989,338],[-808,-1494],[-1012,-500],[419,-1747],[-1265,-1216],[793,-819],[-1245,-788],[-5292,-1207],[-3108,5488],[-4080,-153],[-2666,-5555],[-5276,2712],[493,1714],[-1536,2496],[-1174,1349],[-1165,-269],[-1100,1865],[-1243,1223],[-6197,483],[-3132,4208],[-6270,-129]],[[366662,615026],[108,-1965],[643,-3333],[642,-2675],[206,-2882],[470,-1364],[91,-2460],[1065,-1490],[68,-879],[617,-593],[254,-1528],[1827,-2737],[531,-2116],[755,-1182],[1354,-406],[1016,-865],[1201,506],[1142,-1473],[-557,-1061],[-509,-2337],[-436,-645],[-764,-3108],[-1015,-1011],[978,-1981],[1973,-2043],[824,-3513],[789,-816],[311,-1034],[2190,-364],[2231,440],[598,-668],[1304,-666],[1014,-1866],[-157,-813],[781,-567],[548,-1622],[-209,-1830],[-1328,-1271],[135,-637],[1008,-1063],[2031,-1409],[1223,-1270],[1670,-2814],[1472,-1072],[733,-151],[885,-1141],[779,-1673],[3172,-2557],[826,23],[965,-1003],[3316,-1930],[-430,-490],[-2949,-1507],[-702,-845],[-1097,-414],[-2405,-1439],[-972,-1470],[-1249,-1282],[525,-2297],[-48,-2582],[-353,-1111],[-1117,-580],[-1097,-2201],[-951,-937],[-317,-899],[-2565,-1344],[-1121,-1283],[-1284,-3195],[-1060,291],[-923,-445],[-1581,-181],[-1588,190],[-1516,834],[-1254,-35],[-1332,568],[-2661,77],[-2216,-322],[-1332,114],[-1532,-700],[-1425,-889],[-447,-1031],[-1533,-1120],[-779,-1156],[-2469,-1663],[-608,-1156],[-350,-1483],[-1006,-1111],[1757,237],[2039,-2062],[658,-1176],[350,-2026],[629,-1329],[1807,-1881],[531,-1126],[906,-1066],[2694,-1741],[2474,-591],[988,-1461],[1050,-878],[138,-1293],[-676,-1224],[462,-726],[281,-2814],[16,-2552],[430,-2373],[-201,-1564],[-765,-2125],[-1838,-1477],[-1104,-1692],[-627,-1541],[-1147,-1031],[-775,-1446],[-292,-1577],[377,-2810],[-1617,-3078],[-271,-1056],[1948,-1066],[955,-1334],[1197,-2355],[576,-1589],[141,-1831],[-644,-1675],[-257,-1741],[-571,-1163],[-26,-1302],[526,-2276],[-641,-785],[-426,-2147],[-389,-378],[-663,-2304],[418,-1053],[-1120,-863],[-1752,179],[-1615,-479],[-2090,-1439],[-993,-1054],[-2256,-3739],[-1109,-566],[1686,-1000],[1362,-2175],[452,-1739],[597,-904],[3497,-1991],[1747,-718],[1679,-1492],[3409,-3254],[1950,-23],[1782,-882],[2600,-666],[828,-437],[1688,-349],[629,-598],[807,20],[619,-577],[210,-1871],[472,-533],[1005,-2406],[1004,-370],[825,-1534],[1453,-597],[946,-2742],[709,-686],[1415,-2828],[770,-1872],[-650,-2140],[61,-740],[-722,-1488],[-2295,-72],[-930,-369],[-682,-782],[-483,-1740],[-400,-3174],[-795,-1359],[-314,-1696],[178,-1403],[-32,-1055],[-1224,-1087],[-1287,-4336],[1047,21],[1151,-489],[1935,-1980],[774,-1141],[3871,-1685],[2014,-1952],[-344,-1390],[407,-1539],[543,-629],[-1219,-3244],[358,-1192],[-795,-1844],[-724,-636],[-2177,-706],[-973,-1313],[651,-2444],[969,545],[1498,-766],[1727,313],[932,-1000],[648,-1957],[1159,-1542],[-504,-2726],[498,-1619],[-596,-1810],[777,-3141],[-649,-1000],[-359,-1796],[148,-529],[-758,-1091],[-1567,-1245],[-314,-2309],[-541,-746],[602,-3415],[-541,-2825],[133,-1557],[-756,-689],[-906,727],[-238,-2043],[-1445,198],[-1042,-780],[-242,-1176],[837,-1426],[-754,-2162],[-1053,-406],[-561,-1494],[-1323,-2100],[881,-1770]],[[582451,284290],[1185,20],[1024,-509],[2774,-29],[3343,-1588],[2183,-112],[2604,1415],[1596,325],[2017,1499],[1327,1315],[-171,491],[775,1159],[303,1697],[968,1072],[292,1101],[1519,1314],[1722,-164],[2467,-1237],[2252,1032],[2529,628],[967,1071],[2639,585],[1446,617],[1059,-249],[1165,-1152],[117,-684],[883,-1170],[1151,-546],[784,1116],[2879,-601],[1942,298],[997,-295],[1869,278],[1504,-637],[912,-1312],[-19,-1603],[675,-302],[3000,2139],[313,1014],[801,88],[322,-990],[973,637],[3839,-665],[125,1839],[616,1108],[752,-551],[1084,256],[186,811],[2195,123],[755,-334],[221,1134],[1198,1111],[815,379],[1029,-66],[2013,-1079],[807,-216],[1646,167],[1306,1748],[1950,-931],[593,-1251],[87,-1151],[-327,-1510],[207,-1115],[757,-1476],[-516,-206],[597,-1367],[2941,2119],[2559,493],[1678,-681],[1797,-1803],[753,-345],[1346,148],[344,1360],[1085,1561],[648,-514],[1017,893],[1445,-58],[1200,-500],[1206,-40],[1061,-3],[1198,544],[1879,-548],[1963,712],[2170,-1201],[987,-1716],[626,-470],[3400,-292],[1522,485],[662,968],[1202,1042]],[[705695,291380],[885,-1710],[2757,-2857],[2035,-611],[1796,-1394],[-258,-908],[1140,-723],[935,-1067],[977,-290],[360,-939],[1613,-1223],[516,218],[1153,-1127],[1675,-484],[1349,874],[468,-1659],[1454,-1114],[670,-1876],[3020,-1420],[1027,650],[919,-1464],[324,-1194],[616,-594],[45,-1680],[367,-1925],[1618,-109],[715,-1092],[1027,-200],[986,-735],[-147,-1276],[-861,-2332],[754,-123],[224,-1181],[-709,-1016],[-784,-193],[-1087,-1720],[5,-1703],[1930,-1664],[502,-1406],[486,-305],[1115,302],[375,-863],[928,20],[708,-640],[1243,315],[1251,-1579],[2520,-1972],[267,-1705],[-1100,-1150],[-379,-1303],[-581,-738],[60,-1119],[-1144,-1859],[-942,-321],[-1416,-1706],[-400,-1851],[-1155,-704],[-807,-953],[804,-813],[3407,-1234],[728,-734],[-159,-1150],[1561,-838],[1352,1056],[1710,-731],[611,659],[854,1946],[1335,-900],[1161,215],[203,-1927],[-1799,-1684]],[[748508,227847],[-1055,-931],[-524,-904],[-1065,-3599],[42,-2646],[-408,-1165],[-1317,-1962],[-1538,-1618],[-3466,-2630],[-4073,-1967],[-2200,-1714],[-595,-2966],[-1,-2028],[-328,-1391],[-45,-3730],[-697,-1872],[395,-1079],[-727,-1980],[828,-1847],[-116,-825],[-1119,-1203],[-264,-1552],[-750,-1741],[-728,-798],[-599,-1262],[-121,-2342],[-1317,-1085],[-161,-1618],[208,-1104],[-139,-1823],[-325,-740],[-127,-1910],[113,-2125],[1034,-1879],[148,-1386],[1627,-994],[1164,-2365],[67,-607],[1227,-1377],[706,-1242],[103,-2126],[-510,-1958],[930,-2560],[-235,-2291],[429,-1035],[-429,-1069],[-1337,-1363],[-1783,-1337],[-613,-1278],[757,-1398],[-965,-2662],[-1479,-848],[-1022,-224],[-998,211],[-555,-998],[197,-1343],[-206,-785],[422,-1807],[231,-887],[1265,-2119],[-544,-1006],[-2381,-796],[-148,-425],[1605,-1305],[870,-1359],[-78,-2296],[24,-4805],[294,-2746],[210,-819],[1354,-1851],[425,-1282],[220,-2076],[-403,-1859],[-1280,-2112],[-335,-3561],[-587,-2741],[34,-856],[973,-2584],[-374,-3849],[605,-3666],[-235,-1508],[837,-2018],[343,-2044],[1243,-1024],[439,-772],[139,-1874],[-126,-1586],[136,-3446],[381,-1523],[1056,-2225],[2981,-2624],[936,-1284],[99,-874],[-1405,-3633],[48,-944],[886,-1969],[1261,-1494],[2320,-972],[2363,-1482],[825,-874],[-382,-4628],[1791,-3131],[1591,422],[129,-808]],[[744604,49654],[-758,-16],[317,-11083],[-13717,-5632],[769,-7005],[-11914,182],[-7500,-2074],[-2408,-5100],[-1497,-168],[-8310,713],[-71,1588],[679,1934],[-470,1630],[17,929],[-1922,443],[-4851,1365],[-10149,5482],[-2333,6334],[-254,917],[-5257,1424],[-1248,314],[-8660,4773],[-62,512],[-10199,2579],[-2209,504],[-5672,837],[-6255,1436],[-2107,-658],[-1477,-484],[-7156,-3074],[-781,72],[-7462,-6031],[-4218,166],[-7310,-1126],[-3984,-402],[-3672,-539],[-6077,-6817],[-3565,581],[-2258,-3847],[-3808,-7401],[-1482,-9103],[2423,-6273],[-2757,-2977],[-2409,-2376],[-3307,-2183],[-1966,2107],[-3547,2321],[-3817,2619],[-4164,4198],[-505,2194],[-5382,-2949],[-5574,4056],[-229,167],[-3368,-596],[-4964,-32],[-3191,714],[-702,6636],[16,1345],[524,1314],[-61,3892],[366,4661],[-2723,2237],[-2123,1021],[-686,-428],[-1027,203],[-1441,-670],[-984,1174],[98,1001],[-1408,488]],[[114355,471391],[-1655,370],[-1347,1417],[-1791,5153],[-505,626],[-1146,425],[-1081,-103],[-1549,-706],[-1251,-36],[-1740,2060],[-3125,2811],[-1721,236],[-1928,-421],[-3124,727],[-1115,1279],[-669,2588],[-627,704],[75,2260],[1429,2798],[-3,1335],[-787,1968],[181,1436],[-413,880],[-1156,474],[-3402,716],[-1650,-542],[-1254,52],[-1379,548],[-1897,290],[-1532,-169],[-634,388],[-1446,211],[-1625,826],[-314,1132],[-756,713],[-1352,256],[-3800,327],[-635,399],[-1477,2402],[-1646,1420],[-1259,429],[-800,-105],[-933,-279],[-1234,756],[-1036,1755],[-2316,1130],[-1830,250],[-1140,1054],[377,3089],[-379,641],[-821,-235],[-1490,-1799],[-1277,624],[-931,-449],[-163,-1361],[-553,-1154],[-1216,-939],[-147,-776],[-854,-216],[-1315,-978],[-2064,-397],[-1082,-755],[-669,-1334],[-234,-1154],[-513,-485],[-2425,-876],[-1497,-924],[-903,-211],[-2763,941],[-2491,1532],[-2184,1928],[-1380,366],[-1891,1086],[-1797,1440],[754,74],[96,1498],[-507,523],[1185,2110],[831,1042],[1334,801],[116,1640],[1383,1940],[808,359],[1460,1596],[286,1326],[1773,722],[190,1543],[1672,382],[1032,1740],[1263,595],[938,1792],[1021,851],[2248,1031],[10,965],[-1092,732],[-1047,2314],[-183,1428],[1249,2933],[-244,1329],[-498,741],[-1360,554],[-277,1513],[-826,1200],[-2,1040],[-931,376],[-351,690],[116,1956],[-304,266],[-3544,584],[-1072,1082],[191,696],[1257,1266],[14,674],[-2377,456],[-226,1734],[-460,1274],[1068,1434],[-420,1347],[418,958],[-615,1119],[352,1216],[524,3495],[-629,1175],[1384,2032],[924,2233],[-1162,365],[-104,898],[1376,2802],[1294,1717],[-467,2595],[22,1914],[-833,2238],[1136,361],[677,1128],[-437,1103],[979,924],[282,1473],[-448,1005],[584,1626],[-31,1105],[1407,838],[875,1703],[1501,751],[490,726],[-177,868],[-805,759],[1533,1292],[-12,1456],[1345,1628],[449,1485],[658,716],[1044,282],[1326,-304],[509,1192],[-246,1676],[1967,2304],[-355,2244],[2244,1753],[344,1074],[-322,1180],[-578,277],[884,1708],[247,1359],[1331,1976],[1562,3465],[2282,2337],[1780,812],[649,782],[1073,228],[969,968],[2557,939],[1538,387],[1976,1130],[1456,1211],[-108,1368],[495,1957],[940,729],[254,836],[925,167],[2787,1689],[1176,179],[518,1285],[1780,1569],[360,899],[718,260],[300,987],[1289,435],[1555,3224],[728,606],[1844,93],[501,521],[498,2434],[2330,3028],[1177,529],[51,1018],[540,1728],[1886,2472],[1517,1024],[2520,926],[711,-116],[1093,486],[2307,387],[321,798]],[[255489,569738],[347,-2566],[689,-2129],[-1058,-905],[-101,-740],[633,-1520],[-439,-1218],[316,-964],[1127,-784],[544,-2274],[-108,-1212],[-1185,-1422],[249,-1542],[1415,-1172],[201,-533],[-663,-3205],[668,-331],[682,-333],[380,-1061],[-162,-1039],[-1717,-1189],[-1522,-2012],[-1021,-666],[-2,-1555],[-452,-818],[-2604,527],[-1759,-1061],[416,-2642],[1440,-654],[757,-1086],[87,-974],[-2022,-2406],[600,-1881],[-1402,-1469],[204,-1064],[1171,-760],[445,-1480],[-1349,-2041],[-2197,269],[-1471,-113],[-838,-1037],[-545,-2281],[-430,-339],[-1579,757],[-1701,173],[-1176,-943],[-1834,-2151],[-3237,-540],[-1330,-615],[-1031,-2506],[-122,-971],[-572,-1163],[-1278,104],[-1116,-778],[-1466,35],[-615,-299],[-576,-700],[-506,-1996],[476,-2736],[-322,-751],[-1351,-607],[-3234,1259],[-636,-557],[-382,-1127],[-3255,-555],[-1175,824],[-950,135],[-990,-576],[-784,-898],[-1490,-3275],[-695,-690],[-1367,-573],[-1494,828],[-2033,-132],[-1377,-335],[-987,150],[-505,1169],[-994,95],[-1592,-764],[-1383,-1333],[-2014,103],[-444,349],[-822,1159],[-835,339],[-2227,-2697],[499,-625],[1273,199],[126,-817],[-675,-766],[-781,15],[-1094,680],[-698,9],[-1342,-1349],[-214,-1584],[-1319,-1020],[-722,-2295],[-492,-413],[-950,253],[-634,-683],[-428,-1583],[-893,-672],[-2014,-793],[-1034,-2276],[-1001,-948],[-134,-1260],[-949,-752],[-1609,-169],[-2427,-1751],[-2220,-1231],[-2540,-561],[-1940,102],[-1221,-227],[-1918,627],[-2152,-6],[-853,-424],[-1268,-1851],[-1723,-1453],[-1406,-375],[-1065,-700],[-1447,-342],[-1274,-674],[-522,-814],[-718,-2225],[-1550,-1752],[-1622,-867],[-1034,-246],[-1292,136],[-2226,-865],[-1734,171],[-2183,-619],[-344,-890],[-1985,-1115],[-596,-1211],[-3401,-3368],[-392,-1967]],[[705695,291380],[-1461,-245],[-3168,-10],[-1011,147],[-2159,-1195],[-1733,856]],[[696163,290933],[-1206,1300],[-792,1220],[-156,1672],[-863,1612],[-3074,60],[-741,1297],[-1105,2843],[-490,2050],[-1563,1258],[-1886,-437],[-3148,786],[-1020,1102],[-1449,980],[-1733,-1091],[-3250,-413],[-1956,-907],[-3857,-51],[1101,2288],[-68,557],[1314,2014],[60,688],[2023,2981],[242,1163],[-222,1300],[-749,1108],[-520,1561],[957,1083],[-273,668],[455,919],[-1711,2218],[-349,875],[467,681],[-2693,3250],[359,1485],[419,525],[-845,1479],[-339,1833],[1064,127],[505,585],[-196,777],[584,597],[194,1335],[-186,1597],[494,795],[-411,1032],[357,951],[-431,765],[509,589],[-519,925],[441,2300],[-861,1777],[-1087,652],[-1025,200],[-1310,782],[-478,786],[-1195,-77],[-953,292],[-1389,2235],[-1806,1617],[-1461,-136],[-884,1426],[-2311,1979],[-783,2278],[-993,2086]],[[934644,617765],[504,-735],[1855,-1728],[846,-460],[967,10],[1032,-638],[732,-1153],[-204,-1941],[-1529,88],[-2266,-498],[-733,145],[-1614,-466],[-272,-470],[-1899,-1435],[-1104,-453],[-1130,-1498],[-786,81],[-1062,-739],[-826,-1519],[-1027,-962],[65,-704],[-630,-2723],[-1214,-832],[741,-2373],[-59,-583],[-1247,-2726],[40,-1657],[-512,-1439],[180,-944],[-518,-2068],[473,-1244],[-29,-1340],[-1331,-3207],[-234,-2375],[691,-737],[872,-1710],[1053,-1304],[56,-787],[1405,-1991],[1464,-263],[2187,-1443],[588,-2364],[1381,-2750],[-80,-989],[1583,-2002],[352,-1798],[509,-1087],[-1447,-1079],[-1629,-2463],[-25,-860],[-1435,-645],[-614,-743],[-1678,-856],[-232,-1089],[-1278,-2181],[72,-2147],[-511,-1290],[-884,-1028],[-808,-437],[-1060,-1832],[-873,-1898],[-36,-1137],[1220,-2665],[620,-1744],[-894,-1186],[-868,-187],[-1039,348],[-1134,-1154],[-711,-127],[-701,-1281],[-1050,-655],[21,-1062],[629,-1526],[-450,-1906],[-449,-661],[22,-1072],[-478,-1803],[340,-534],[345,-3801],[-508,-640],[260,-829],[-97,-2175],[-382,-1741],[472,-1370],[-146,-1390],[-1547,-382],[-394,-1669],[-1304,-2474],[364,-2154],[-1897,-434],[-901,-898],[-101,-1123],[366,-1073],[-324,-1045],[-115,-2901],[-608,-1234],[-857,-388],[-1636,-3061],[-174,-568],[918,-2017],[769,-776],[-231,-910],[-1049,-2205],[-571,-717],[810,-1519],[946,-900],[273,-2066],[7,-1663],[-1030,-1387],[-122,-3015],[-310,-1803],[257,-1609],[-527,-1066],[915,-599],[1081,-1283],[1038,-805],[-160,-1116],[-1375,-1153],[-587,-1085],[-959,28],[-589,-512],[182,-1977],[-252,-1993],[-690,-778],[350,-1522],[-989,-2953],[177,-861],[-383,-1979],[-427,-875],[-1211,-329],[-118,-797],[-907,15],[-864,-572],[-142,-1334],[-617,-758],[335,-922],[-564,-717],[-2069,-737],[-1567,-876],[87,-1000],[-273,-1748],[-928,-1237],[-59,-1196],[-626,-1382],[532,-291],[639,-2885],[-131,-950],[678,-751],[-53,-2383],[333,-542]],[[897317,429196],[-2003,-80],[-1306,-1280],[-1950,-618],[-1599,376],[-1459,661],[-1098,-39],[-2184,-704],[-1067,-584],[-1730,-206],[-795,1358],[-2788,631],[-635,700],[-832,182],[-2933,-1569],[-264,-1607],[-882,-531],[-655,324],[-1264,-319],[-2561,750],[-851,-61],[-726,567],[-1564,446],[-1803,-404],[-876,-792],[-1991,-483],[-1300,-2365],[-574,-613],[-5467,-523],[-1101,-1070],[-578,780],[-2384,-467],[-334,-1290],[-574,-483],[-741,-1550],[-862,-967],[-1429,1],[-969,-545],[-696,67],[-1331,-1086],[-132,-2213],[-2868,-1395],[-708,-2214],[-1004,-885],[-886,-194],[-855,-676],[-1163,-385],[-489,-1247],[-1924,-1950],[-2219,17],[-959,417],[-914,-353],[-1455,-2043],[-1737,-1565],[-288,-725],[-1418,-2169],[-347,-1131],[-237,-682],[-1146,-677],[-2465,-842],[-664,-595],[-2088,-520],[-1783,-1078],[-1773,-2038],[-1641,-2157],[-2607,-523],[-1488,-1267],[-1868,-501],[-1497,-85],[-2464,-1293],[-2012,-2076],[-466,-243],[-1727,-1814],[-1773,-1285],[-1210,-572],[-1457,-1231],[-540,-883],[-1354,556],[-827,-156],[-1435,369],[-1490,-532],[-1704,-34],[-1682,1756],[-1078,615],[-1790,1697],[-1729,168],[-946,-178],[-2642,495],[-1798,-987],[-1557,-1923],[-106,-670],[-1125,-2360],[-270,-1752],[-625,-742],[-1149,-429],[-1565,-1265],[-2469,-1344],[-1687,-365],[-150,-670],[-953,-585],[-978,-1179],[-213,-969],[-1028,-1157],[-833,-1434],[-1343,-1592],[-858,-602],[-64,-1692],[-361,-940],[-1000,-1022],[-1421,-842],[-1155,-1078],[-2567,-52],[-954,-701],[-1525,-2919],[-2175,-5198],[-924,-3442],[-378,-572],[-1319,-642],[1497,-2093],[1,-965],[2374,-838],[1264,-1752],[1969,-1578],[2531,-1666],[586,-159],[1943,-2390],[776,-231],[1231,-1402],[-1941,-637],[-773,-519],[-2663,-1096],[-658,-1571],[730,-2544],[1089,-1564],[241,-1998],[-370,-655],[-1591,-1522],[-195,-1069],[-1673,-3409],[-351,-1795],[-494,-1255],[380,-1334],[-108,-2336],[-268,-1245],[-195,-2678],[-1654,-297],[-1261,-948],[-3882,-1089],[-719,-1023],[-1886,-1123],[-1104,87],[-1378,-948],[-1206,-150],[-2864,-1318],[-1864,-710],[-2283,106],[-459,-360],[-1166,-1212],[-1147,-1596],[-2314,-935],[-2718,1127],[-1716,-13],[-1216,-368],[-2556,634],[-1903,43],[-800,-421],[-1421,673],[-645,-853],[-1705,315],[-3432,-301]],[[611424,446715],[-1715,1114],[-1715,1991],[-1298,1194],[-3592,2242],[-686,1033],[-629,1587],[-185,3282],[-686,902],[-1354,1037],[-436,905],[-1264,1493],[-1550,731],[-802,-19],[606,1979],[53,1008],[725,1537],[-341,810],[-56,1430],[-1721,2150],[-998,624],[-1182,1386],[-1789,1088],[-1457,-455],[-1031,361],[-1205,1473],[-2022,-774],[-2064,-16],[-2376,-1196],[-746,-151],[-1514,454],[-2528,-202],[-1042,392],[-1972,-24],[-1453,-692],[-4420,-1709],[-1676,-929],[-2529,945],[-124,691],[-2583,216],[-1368,806],[-882,971],[-2353,939],[-1339,-246],[-788,237],[-1349,-135],[-1348,-581],[-2533,-1775],[-1087,-204],[-1976,-826],[-2603,-794],[-1028,-1258],[257,-1392],[-437,-394]],[[541233,469951],[-974,-181],[-935,701],[-708,1500],[315,1442],[-422,575],[-2109,1762],[-633,1046],[-1008,286],[-1503,1115],[148,1956],[-164,1383],[-1413,2258],[-442,2245],[-1110,1265],[-1184,1840],[-245,795],[189,1532],[-740,1578],[-2309,1184],[-1036,1224],[-288,1425],[-889,2234],[-892,761],[-2279,719],[-2370,1119],[-1348,1650],[-146,1037],[-959,3100],[-831,318],[-2049,160],[-1092,736],[-439,1561],[185,697],[1444,1223],[47,1368],[-623,3377],[-2411,491],[-1028,1393],[43,738],[805,1052],[1185,138],[1781,-1103],[813,1],[1420,747],[-44,1234],[-1285,1231],[-705,630],[-381,977],[1091,4399],[-562,1111],[-1902,2488],[-1017,3831],[616,1652],[267,2261],[-345,900],[-1010,1198],[-3724,2200],[-1172,1842],[-2599,1395],[-568,1058],[692,1069],[714,1924],[2692,2410],[454,1886],[-3175,2691],[-284,860],[156,1198],[1421,2218],[2095,2790],[378,1570],[-261,1684],[-1825,1949],[-1498,972],[-1140,1282],[-1495,2110],[-2084,1368],[-960,2880],[-1455,1331],[-1099,1380],[-3013,1730],[-1336,210],[-2254,974],[-814,697],[-1166,2401],[-2043,2294],[-1492,983],[-1450,1251],[-1003,80],[-2476,-425],[-1221,558],[-980,1727],[-416,1520],[-1545,797],[201,1191],[1945,1956],[273,1017],[-1105,2694],[-938,1618],[-153,1043],[473,1301],[-47,1475],[-1248,1469],[212,1128],[1326,3393],[1162,864],[1064,-166],[910,497],[808,1376],[1137,3013],[1373,1945],[-914,1554],[-413,1455],[-1086,-18],[-3596,1631],[-1667,1036],[-1022,-986],[-959,855],[-2045,11],[-1439,781],[-1252,52],[-443,387],[-75,1387],[-426,917],[-1147,-762],[-1576,-40],[-1734,-1683],[-889,-191],[-1841,-1867],[-881,458],[-1838,-154],[-1258,1049],[-1612,-355],[-1437,283],[-1162,-90],[-2117,1310],[-554,9],[-570,-1228],[-1117,-611],[-882,-974],[-1172,-2355],[-1735,-1437],[-548,-1141],[-1020,-1177],[-870,-1676],[-1539,510],[-2522,1338],[-1339,1549],[-1301,388],[-1548,-214],[-1818,-1025],[-469,-730],[-1525,-985],[-1465,-272],[-1922,-1033],[-960,-8],[-750,-704],[-2157,-1238],[-3058,-512],[-2081,699],[-1046,665],[-1010,-442],[-2374,834],[-1783,-447],[-1419,757],[-3623,1208],[-1161,44],[-1055,1402],[-1571,1446],[-816,-1],[-1493,1123],[-1321,392],[-1630,96],[-916,726],[-690,1128],[-1518,1100],[-1491,1838],[-2412,-304],[-832,222],[-1442,-138],[-2491,767]],[[404439,907344],[2192,822],[2167,2195],[5146,-197],[1451,-625],[1857,139],[3039,2327],[608,-330],[709,-1755],[1552,-1563],[1553,-800],[2026,207],[1654,-504],[1705,695],[1638,-87],[1991,-3267],[353,-1702],[1350,-2451],[1755,-1738],[404,-2206],[1113,-2121],[1569,-122],[2404,-553],[2085,-839],[4706,-3147],[1569,-1843],[83,-816],[-520,-1129],[-342,-2292],[386,-2711],[1198,-818],[843,-1095],[1995,-4875],[1215,-921],[-373,-2136],[505,-1616],[2732,-1497],[5060,-1290],[1347,-2137],[298,-7123],[319,-1634],[-323,-2102],[859,-1790],[-121,-1392],[995,-2170],[2071,-2817],[1130,17],[1821,-610],[1438,-1459],[617,-975],[3154,1073],[2834,275],[1264,-245],[1870,-1565],[2332,-1708],[933,-311],[1067,-1033],[1048,-2080],[450,-361],[4018,-848],[1626,-729],[2221,-203],[3039,-360],[2008,884],[1078,-228],[1163,-663],[2663,-403],[3223,1210],[1231,155],[1212,-802],[423,434],[2765,343],[962,345],[2226,361],[1382,-576],[1450,119],[352,-1078],[741,-610],[880,1650],[813,2257],[2468,3105],[709,676],[610,1214],[154,1198],[626,1042],[1874,1333],[2448,964],[948,-314],[2132,1412],[1277,1379],[169,638],[1234,949],[956,135],[1239,-728],[689,672],[2203,-920],[1206,-314],[1675,-868],[2170,-453],[2328,-1025],[1528,825],[1147,-400],[1072,-762],[1392,116],[2111,-505],[2204,-40],[166,-4353],[886,-1107],[1273,-350],[1221,-1073],[2050,-1232],[1053,-1332],[2271,-44],[638,346],[904,-313],[706,447],[1491,-73],[1192,567],[1753,374],[1041,636],[1970,-968],[1622,-199],[1194,1447],[1156,-470],[517,-916],[1885,-300],[2651,822],[894,2087],[1574,2430],[1385,1129],[391,1196],[1447,1913],[1747,910],[1760,81],[1688,979],[2300,753],[1700,-334],[2519,1028],[706,636],[2020,97],[908,671],[1801,2134],[974,516],[2291,544],[576,333],[1628,1939],[306,-1100],[2363,-360],[786,-642],[343,-2644],[-195,-1114],[1907,-844],[1626,-2527],[-103,-828],[-886,-1724],[-2300,-786],[-2178,474],[-5549,-1036],[-2437,-975],[-588,-463],[-408,-1536],[1793,-197],[2129,45],[804,-400],[2487,-595],[1559,-144],[1599,-456],[4602,-2226],[662,-90],[1606,-921],[955,-210],[2284,-1027],[2094,-440],[587,135],[3618,1644],[1766,1582],[1294,807],[614,792],[2573,1993],[1738,977],[494,1950],[1930,424],[1161,1135],[1872,753],[2051,1494],[917,-1195],[980,-246],[791,687],[1351,-49],[1485,756],[1651,-534],[1543,932],[2221,-480],[1681,-95],[1108,-886],[1280,-533],[1739,81],[1543,844],[797,-180],[1483,287],[1590,-1387],[971,495],[974,1169],[2345,1752],[232,938],[1474,1461],[577,1583],[831,1053],[760,4135],[2455,841],[2580,222],[825,-591],[1735,-712],[853,-592],[764,-1179],[1482,-65],[1256,464],[1082,-182],[680,-943],[1171,-2530],[1845,-1712],[-180,-1731],[564,-1588],[487,-3439],[1013,-1677],[440,-3349],[-1079,-2402],[405,-3110],[-115,-1090],[782,-529],[1096,332],[878,729],[2827,-33],[2780,-1949],[1259,-1849],[141,-901],[724,-1226],[601,-172],[970,803],[303,2216],[1267,1946],[2889,1507],[1995,-273],[680,898],[1408,783],[440,579],[-7,4059],[1610,1006],[3103,359],[2385,-727],[2294,890],[3542,769],[2131,-500],[850,371],[2166,-877],[113,-2725],[-1266,-1346],[-295,-675],[-1717,-2208],[1069,-1470],[-738,-1481],[164,-1729],[652,-982],[-374,-1763],[413,-1488]],[[255489,569738],[-3888,-522],[-2339,-2658],[-2536,-2601],[-1380,-1866],[-1789,-77],[-1585,-355],[-2533,-220],[-1921,-334],[-1021,294],[-2333,-430],[-4358,717],[-3691,1196],[-2087,212],[-3542,922],[-1808,-480],[-1298,-20],[-1122,-651],[-3417,1232],[-818,70],[-1233,-462],[-2551,-502],[-3817,6],[-1636,-705],[-1999,3013],[-432,1736],[-1045,3163],[413,2326],[-142,1506],[404,1667],[-506,938],[-1259,606],[-440,1097],[-1390,1857],[-1422,1153],[-977,244],[-752,851],[-1586,1132],[-2816,3733],[-2003,1181],[-1000,246],[-276,659],[-387,1410],[-1329,3225],[-2698,843],[-526,586],[-490,1937],[-1975,1189],[-2228,1612],[-2479,1329],[-888,976],[-868,2022],[-930,1359],[-50,2023],[-316,1011],[-932,1323],[-1338,809],[-1102,-487],[-3059,889],[-1305,-263],[-777,-1557],[-1055,-1072],[-1341,-129],[-2413,339],[-1863,-850],[-1648,791],[-585,1406],[-763,1045],[-1314,802],[-2043,3015],[1322,2342],[1559,1879],[572,1716],[-41,739],[-1820,1359],[-1393,1651],[-3095,2051],[-255,595],[257,1640],[-602,2275],[-814,741],[-675,1215],[-929,2481],[-785,1044],[-1142,3074],[-1429,2561],[-899,2111],[-1739,-74],[-2270,375],[-1283,-935],[-1675,618],[-1405,1281],[-272,724],[-1917,1645],[-535,1035],[-992,1095],[-498,1599],[-1168,877],[-341,1499],[-124,2299],[-853,530],[-796,2003],[-2774,3110],[-1585,668],[-3961,-519],[-1765,-652],[-1690,539],[-3523,-631],[-2875,1483],[-766,876],[-2024,629],[-1693,2511],[-1011,-682],[-878,139],[-662,875]],[[97612,667586],[1002,1896],[-105,2146],[467,668],[-218,1302],[288,1644],[1083,1614],[780,576],[1210,1721],[2023,1235],[834,1745],[-939,2546],[241,995],[1173,2198],[1717,1975],[558,1424],[1945,1755],[758,360],[1697,46],[1197,311],[981,1723],[1455,915],[2696,3523],[1382,-101],[760,619],[1533,330],[1004,-185],[1521,1284],[1236,29],[2203,2598],[604,1815],[334,2077],[2344,2121],[2713,1269],[2232,3422],[1134,355],[2200,192],[2329,536],[507,406],[3586,610],[2016,648],[2330,537],[1760,44],[1200,548],[1570,-85],[1816,-650],[1831,691],[2075,62],[2314,-1049],[1540,-885],[1457,2886],[1036,10],[1108,855],[307,2476],[1692,2624],[250,1277],[-114,1132],[858,789],[476,2934],[2163,1267],[640,1193],[148,1533],[479,565],[1061,-752],[1493,328],[1432,1059],[1997,594],[356,1537],[860,984],[-24,1201],[-719,1456],[158,710],[891,648],[1582,344],[658,890],[768,2395],[1247,1107],[379,2651],[-1078,2052],[1165,2578],[-84,2630],[186,1175],[775,1660],[-815,2159],[558,2828],[679,1061],[1496,985],[1567,1586],[429,935],[1063,681],[260,1640],[-84,2141],[1088,1148],[401,2514],[1236,2588],[-305,1622],[179,1363],[440,850],[352,1746],[942,1699],[1510,1982],[-190,2499],[3077,1455],[1750,1520],[-1174,2693],[-2096,1851],[-1053,4456],[963,3260],[151,2419],[-292,1299],[279,2534],[699,826],[602,1350],[-8,2418],[-1556,2398],[250,1530],[460,956],[-848,310],[-1552,1079],[-702,-134],[-3804,1434],[-2320,1274],[-895,260],[-1932,-165],[-1013,2099],[185,1847],[1369,1909],[152,3158],[760,2594],[837,1818],[113,1418],[879,2411],[490,3844],[353,626],[1054,3221],[529,1100],[170,2195],[-318,1996],[-628,1888],[-278,3261],[-449,1432],[114,1190],[985,2076],[659,2045],[-392,1768],[-762,2009],[8,2043],[-258,1859],[1221,2047],[229,2456],[-632,2711],[-1388,2998],[-389,1141],[-523,5517],[-447,898],[-1782,1304],[-1023,317],[-1590,1350],[-2116,3391],[-371,243],[-2576,-407],[-2278,-893],[-1008,347],[-882,2055],[-665,3564],[-169,1615],[-1296,1936],[332,509],[-1387,1588],[-189,2568],[-420,1358],[156,968],[1861,532],[1175,923],[662,1789],[-2252,1728],[-853,2242],[-421,1735],[789,1954],[650,1018],[235,5082],[-597,1427],[2203,1803],[96,2042],[524,2754],[692,2098],[-574,1135],[566,1031],[1531,1409],[1672,646],[454,1121],[655,215],[152,889],[-457,2129],[688,801],[279,1547],[480,1120],[135,3073],[-145,1757],[1546,2385],[3488,245],[2565,-292],[1291,1283],[480,1050],[1602,1071],[1188,3787],[2171,1534],[1307,1604],[-100,1473],[-1316,866],[-766,1808],[-1057,653],[482,2967],[1170,1354],[1086,786],[453,1581],[789,1459],[-143,1457],[-2216,3809],[-211,904],[363,2505],[654,837],[1449,698],[791,1105],[2144,-490],[861,1192],[985,-103],[841,-795],[5000,-1919],[364,-460],[144,-1527],[2014,-401],[4375,-1105],[919,-1008],[307,-1330],[902,-1241],[576,-1951],[-506,-978],[-2137,-1624],[627,-1719],[143,-1509],[963,-1347],[1077,-1968],[2060,-1218],[1658,-190],[2546,719],[2126,-313],[4540,-1993],[2034,1516],[1191,359],[4188,456],[3898,3544],[17,1274],[693,1652],[273,2401],[471,977],[126,1591],[674,1152],[2974,2192],[1996,789],[2692,282],[1081,444],[3169,2259],[1061,602],[1325,-22],[2426,-402],[3447,-358],[2037,-720],[1463,37],[2187,1047],[1052,-506],[1638,-254],[2797,-1644],[1436,-113],[2217,130],[666,-332],[1349,370],[2102,-3120],[1606,36],[1304,-2257],[-521,-4843],[733,-832],[919,-1694],[1238,-1129],[2906,-589],[1388,-761],[1341,-1283],[-726,-1071],[-1921,-1209],[-1618,-792],[-1484,-2449],[-318,-2953],[-491,-2720],[-1067,-1733],[-1063,-356],[-276,-1382],[305,-1780],[1045,-672],[693,-2338],[1060,-1377],[1782,-1136],[1221,-481],[4056,1102],[1890,115],[825,443],[1237,-902],[472,-1048],[1854,-1776],[-226,-1830],[404,-1058],[1025,-217],[305,-561],[1210,-515],[2119,-2898],[1970,1082],[3427,1060],[753,510],[1141,-217],[980,-1220],[2349,-1145],[2338,603],[1756,-186],[1849,-1145],[959,-84],[1050,-1334],[3777,44],[732,217],[708,1077],[1098,-23],[1009,789],[955,-24],[1192,576],[110,2119],[259,714],[1236,1203],[1624,588],[673,-428],[1887,34],[1133,-603],[2835,-624],[2483,-1759],[152,-1254],[-784,-2064],[-51,-1720],[946,-1560],[1034,-528],[728,-844],[1094,-689],[1192,-2136],[1498,-959],[2273,-952],[431,-1561],[2086,-474],[2660,-1012],[3265,-380],[1566,-376],[829,-633],[2314,-686],[1020,-917],[1613,24],[1964,-693],[272,-1976],[675,-818],[960,-322],[1344,-1381],[568,-1310],[-200,-2948],[97,-1639],[-233,-2146],[489,-1779],[3811,-1500],[1767,-1010],[2229,-747],[1926,-37],[5508,-549],[1438,-584],[960,229],[1741,-469],[1554,-1081],[2966,-1638],[449,-37]],[[404439,907344],[-511,-3034],[-847,-1920],[-653,-3078],[242,-1641],[-416,-1737],[324,-3543],[787,-1832],[-3587,-2181],[-968,-1563],[44,-1380],[-1957,-1719],[-390,-2880],[339,-855],[1178,-1587],[1260,-1313],[222,-577],[287,-3332],[-81,-1608],[392,-1649],[-394,-2789],[183,-634],[2258,-2043],[753,-1585],[192,-1457],[1875,-3116],[-76,-992],[968,-1486],[250,-1733],[719,-1605],[786,-1156],[470,-3377],[-614,-839],[87,-2118],[-1639,-1576],[-475,-1778],[-2089,-1451],[-1888,-2075],[-235,-771],[1860,-226],[1854,-746],[1994,840],[1361,138],[3427,-884],[1041,-1908],[1181,-781],[2910,-1055],[708,-1687],[-1114,-1038],[-441,-1417],[-2958,-4285],[-772,-467],[-246,-746],[-2571,-3180],[-2667,-1128],[-2100,-601],[-355,-567],[1482,-3899],[-42,-2147],[-2227,-1473],[-878,-1025],[-217,-1963],[456,-1790],[-164,-1264],[725,-1734],[-42,-1254],[852,-3267],[-572,-1363],[-914,-726],[-486,-1208],[2679,-1293],[2200,-2128],[1389,-512],[1169,-1278],[-9,-3537],[591,-1755],[1809,-1209],[1811,227],[1807,-921],[868,-1347],[-541,-1979],[162,-2697],[-1149,-3522],[-814,-1019],[-1500,-1278],[-512,-2121],[48,-1296],[-607,-1108],[-944,-809],[-1815,-864],[-865,-821],[-538,-1150],[-509,-2161],[-817,-2315],[-160,-3298],[656,-6152],[-353,-3879],[134,-1516],[-420,-1405],[-1184,-1940],[-273,-3815],[-1935,-2195],[-1705,-601],[-585,-1682],[-804,-1344],[-2696,-2159],[-58,-1427],[-1706,-3115],[-852,-1231],[-1405,-1287],[-491,-1480],[-181,-2572],[-480,-2131],[-435,-850],[-1146,-1072],[-68,-1162],[1267,-1852],[-310,-1294],[407,-2244],[-145,-1349],[239,-1302],[-378,-3602],[164,-2149],[-166,-960],[-854,-1494],[-460,-1341],[384,-737],[3182,-1162],[1156,-1150],[1056,-2314],[622,-2215],[-127,-896],[181,-2575],[321,-1007],[-481,-3076],[185,-2311],[-740,-723],[-2456,-1552],[-893,-367],[-422,-716],[-1590,-731],[-891,-783],[-1143,-1831],[-1016,-1019],[-2333,-6246],[-260,-2462],[312,-2673],[1782,-2898],[136,-1135],[2389,-1924],[2412,-3037],[1616,-2398],[1251,-2374],[-1697,-961],[-386,-1144],[-2810,-1768],[-2006,-457],[-567,-1016],[-72,-1337],[-452,-903],[-127,-1906],[-1479,-1628],[461,-693],[-619,-867],[-1253,-304],[-122,-796]],[[383354,629598],[-312,-2758],[317,-2145],[-700,32],[-971,-1649],[-1779,-2542],[-1135,-946],[-1685,-172],[-1746,-516],[-2172,-321],[-1685,311],[-1337,-993],[-1469,-1766],[-1538,-519],[-480,-588]],[[366662,615026],[-4171,702],[-790,-250],[-1927,520],[-919,-195],[-2257,-2057],[-1141,526],[-2932,-1539],[-889,137],[-1607,-775],[-700,32],[-890,729],[-1714,847],[-2955,2396],[-917,76],[-2546,-1393],[-1911,771],[-1592,-710],[-1221,-19],[-1413,-1015],[-1156,-387],[-1013,112],[-2079,758],[-1261,1909],[-1482,728],[-1114,1770],[-569,147],[-1157,-582],[-2407,-3401],[-1714,-1273],[-1164,-2887],[-207,-1958],[-1140,-2520],[-1021,-1458],[-2570,-1440],[-1824,-216],[-1708,-842],[-1316,-1988],[-727,59],[-2580,1860],[-2623,350],[-2576,155],[-842,-495],[-1003,-1291],[-902,56],[-1669,-2618],[-297,-908],[-699,-375],[-282,-969],[-991,-845],[-448,1115],[-1538,-1762],[-836,-1684],[-2052,594],[-455,493],[-2674,641],[-1875,-428],[-1554,-1241],[-1764,57],[-2953,377],[-1689,-253],[-1634,455],[-1320,-256],[-2558,197],[-6572,-1271],[-4083,52],[-1790,-475],[-1654,-1355],[207,-2856],[1003,-1725],[-503,-1949],[-42,-3252],[-528,-1603],[-1188,-2331],[566,-929],[26,-981],[-441,-1392],[409,-1804],[-648,-1956]],[[493157,300303],[1857,-140],[994,242],[1930,-649],[2287,131],[1132,-2374],[1563,-1155],[1456,57],[533,-680],[842,78],[4019,-1733],[479,-505],[302,-291],[2577,465],[1786,-503],[1081,-797],[2201,-404],[1048,252],[1436,2980],[1181,1086],[1505,339],[309,823],[1358,1383],[1310,1686],[729,27],[807,-1171],[632,-311],[1671,-135],[1351,-1574],[1670,-179],[1946,-1317],[749,-30],[1384,-1167],[654,-1236],[2765,996],[766,-379],[1053,215],[1672,945],[2117,-548],[1119,702],[1125,148],[2933,1146],[966,-67],[847,488],[936,-66],[894,883],[904,-236],[1289,812],[1257,-326],[534,-1960],[710,-887],[1409,302],[779,883],[1004,371],[1377,-860],[814,-2039],[1709,-1004],[1362,-1403],[457,-134],[402,-1567],[879,-1931],[844,-1126],[894,-237],[1318,639],[2147,336],[902,-280],[1669,-1492],[2883,-1756],[1779,221]],[[582451,284290],[1232,-1597],[604,-2102],[1290,-2108],[-508,-939],[-517,-1939],[-1143,-1149],[83,-1226],[-957,-1399],[-397,-1514],[1428,-643],[-318,-1927],[-1005,-965],[-230,-1364],[-1300,-1397],[-569,-981],[-888,-2972],[-408,-365],[-1559,-124],[-59,-846],[-2338,-2545],[-584,-1578],[-1416,-1061],[-2086,-4115],[-52,-1268],[539,-1643],[-647,-1351],[205,-2908],[923,-1689],[986,-2861],[1137,-1018],[-182,-649],[1427,-890],[163,-1584],[1740,-1727],[969,-2466],[172,-2474],[-371,-1203],[36,-1381],[-412,-2164],[896,-1026],[-91,-1211],[-1437,188],[-760,-807],[376,-1076],[-1138,-1395],[-1433,-1107],[416,-1842],[-1191,-710],[-1358,-2892],[-199,-2167],[-606,-229],[-1134,916],[-812,55],[-305,-676],[1189,-1131],[-31,-952],[-1142,-1172],[-435,-1099],[-964,-306],[-490,-742],[-707,-42],[-342,-1878],[-1194,-1966],[-461,-1436],[109,-1287],[-411,-2172],[-105,-2471],[-1723,-1981],[-522,-1609],[-654,-896],[404,-721],[-1250,-741],[-810,-97],[-533,-1458],[-1538,-939],[-1469,-1492],[-752,1106],[-955,-219],[-186,-869],[344,-926],[-293,-1477],[-1129,-905],[714,-727],[-1373,-2046],[697,-1832],[-749,-1452],[1718,-571],[522,-991],[0,-877],[850,-2232],[1948,-2706],[167,-875],[-680,-1255],[1307,-1403],[1702,-719],[418,-999],[-431,-1304],[376,-1080],[-75,-2039],[-296,-2368],[212,-1200],[-804,-395],[-1670,-2628],[-984,-596],[-467,-1019],[-419,-2341],[-1307,-581],[-340,-636],[425,-2888],[-1608,-1032],[-439,-1822],[632,-1417],[1064,-1246],[1246,-4526],[-98,-1303],[-1848,-1576],[-297,-679],[-408,-2392],[-853,-2455],[-45,-2374],[-586,-272],[-1730,409],[-1089,-508],[-409,-1320],[-830,-581],[-808,-1223],[-64,-1011],[-705,-622],[-1577,-132],[-1328,-1233],[-805,-1961],[-1204,-1166],[-646,-1415],[95,-1105],[480,-1129],[-241,-928],[-722,-234],[-1485,479],[-839,-604],[516,-1843],[-455,-1039],[-1119,-120],[-602,-501],[-169,-1347],[-1572,-757],[-688,-1356],[429,-2633],[767,95],[1036,3013],[692,166],[1014,-1280],[-169,-1349],[-962,-1645],[-872,-1980],[73,-1495],[818,-905],[160,-1156],[187,-1016],[-1092,-1356],[-706,-2191],[-1736,-3234],[520,-1625],[-349,-1198],[-882,-1950],[64,-3439],[-462,-1066],[-1927,-1781],[-223,-950],[566,-674],[1147,-528],[709,-1109],[753,-578],[384,-1667],[-715,-1780],[564,-1173],[-225,-1394],[910,-223],[-234,-1234],[-808,-1974],[140,-814],[-438,-2497],[798,-125],[-205,-1493],[1330,-3929],[-618,-2593],[-647,-787],[-204,-1459],[298,-457],[-1390,-2265],[158,-1508],[914,-1291]],[[532405,37673],[-7984,-316],[-1156,-1789],[-114,-588],[-1014,-702],[-776,-1423],[-888,-1085],[-1280,310],[-743,1294],[-2685,1517],[130,2144],[-12188,624],[-164,-282],[1457,-4656],[-8190,-1235],[-4796,403],[-6946,3371],[-2826,1897],[-1687,898],[-4217,3689],[-5960,5003],[-4461,3882],[-8594,7484],[-1914,11971],[-1798,14604],[-494,3695],[-515,4959],[-990,6073],[-511,2472],[-1387,5499],[-1600,2628],[-276,10630],[453,9402],[-511,3976],[-99,812],[-13267,847],[-1132,-10734],[-10863,-15979],[-2355,-4540],[-5370,-2087],[-3305,-1575],[-3286,-1421],[-5161,1166],[-449,-35],[-2075,-2881],[-4595,1288],[121,756],[-2285,72],[-944,-1948],[-2037,402],[-1401,-324],[-2708,273],[-1067,-2192],[-2020,-82],[-296,-240],[-2107,234],[-1423,-102],[-545,-1226],[-892,-4988],[-615,-5052],[702,-4110],[-12594,-751],[231,641],[1149,804],[-157,1020],[1497,1493],[120,693],[885,1520],[1448,518],[821,861],[735,1613],[-759,1483],[-211,1486],[437,1532],[902,1931],[1234,1431],[1210,2676],[1400,1970],[2005,2226],[1324,1746],[2617,589],[1126,542],[2304,728],[2564,224],[1435,1242],[1467,1796],[2414,517],[2201,1779],[696,1195],[511,1566],[1251,1006],[832,1785],[423,894],[1289,1070],[2247,1541],[1662,1518],[1773,1973],[2095,1997],[-342,2195],[-835,1129],[-2089,1778],[-1129,1491],[-586,2004],[133,1618],[934,2922],[2177,4262],[241,1000],[-128,1474],[-1086,3208],[-1012,1864],[-2503,3961],[-415,1032],[3234,2127],[149,918],[-443,795],[299,1141],[1496,1035],[148,863],[-150,2089],[1255,2218],[-293,1014],[305,1599],[1299,1406],[556,1143],[1765,671],[1163,-69],[680,665],[162,2048],[896,969],[772,2473],[484,567],[2845,1743],[268,458],[-45,2506],[-576,1070],[-102,1725],[-579,1526],[467,1989],[1279,1615],[-178,2179],[19,2082],[-469,2207],[-1417,2757],[-257,1364],[199,1627]],[[665092,537538],[-124,3260],[-631,1652],[-1029,908],[-2965,1130],[-2509,2383],[-747,-82],[-1314,521],[-1600,4604],[-307,2693],[76,1087],[-586,2123],[-680,812],[-2774,2083],[-1170,1917],[-1262,931],[-725,1067],[-593,1782],[-533,672],[-1074,2727],[-218,2387],[-1001,863],[-2123,3440],[-1132,1410],[-2576,1401],[-769,683],[-863,3423],[-66,1108],[283,2215],[-234,1793],[-827,1477],[-1274,1470],[-885,1782],[-700,2401],[-720,680],[-846,2409],[-742,826],[1105,2768],[190,1603],[1392,1070],[1571,1885],[1498,3840],[77,1985],[399,1166],[226,2189],[680,1995],[153,2106],[847,2340],[-60,2013],[-408,2102],[-7,1883],[301,1929],[-186,866],[108,2495],[-716,2227],[-127,2106],[1024,1176],[1692,2475],[1583,1060],[1065,1049],[701,1255],[187,1697],[-517,998],[-1243,1365],[-755,1172],[512,1371],[1089,899],[-963,2770],[207,1509],[1117,945],[699,-12],[1745,1274],[416,585],[578,2727],[-340,1103],[-1037,1524],[315,1617],[-188,1383],[1750,3563],[777,4869],[272,707],[1104,1164],[1989,571],[-2433,4917],[-355,1870],[734,2020],[-489,2981],[905,892],[1228,143],[1027,805],[316,2489],[396,1158],[3001,1806],[1274,518],[2625,3840],[831,1423],[2032,2843],[264,859],[1234,1239],[3624,-1303],[1293,-754],[1047,-1386],[1780,688],[372,476],[-497,1889],[-317,2713],[509,3145],[595,1258],[286,1894],[1138,2359],[636,858],[937,2691],[-390,1175],[-334,2853],[804,866],[1368,881],[1416,192],[954,527],[492,928],[24,1573],[-341,3000],[-1761,1773],[-475,1185],[-1778,51],[-1850,635],[2342,1487],[2760,1299],[1337,1358],[320,1779],[-490,898],[255,695],[1346,994],[607,2548],[-372,2646],[242,2466],[1703,4022],[993,963],[1346,681],[295,675],[-146,1198],[408,935],[912,797],[195,707],[931,527],[624,-283],[1666,-2226],[2390,-282],[1026,-703],[151,-2374],[-213,-2332],[674,-2782],[772,-1191],[1146,-942],[766,-67],[1386,754],[1855,1833],[1546,398],[662,-825],[1151,108],[2531,-377],[462,-522],[-50,-1958],[773,-569],[1374,133],[1249,617],[1061,2291],[242,2095],[1978,1488],[906,1668],[130,1060],[-797,3439],[-1097,1571],[247,1168],[922,1776],[2696,3234],[594,908],[2279,483],[1722,-161],[1233,-376],[2054,-1151],[1250,210],[146,2651],[-774,1224],[-122,851],[1202,2483],[1002,977],[868,1501],[-1422,2132],[2788,2008],[1572,1695],[886,725],[1649,294],[474,1613],[786,1403],[2910,3500],[-1068,1453],[-1007,2504],[-916,927],[-285,1278],[440,524],[2175,1040],[1244,820],[1136,1196],[1023,2154],[1062,934],[-594,1357],[224,2760],[1031,1930],[1900,2526],[243,1069],[-556,1714],[-1328,2224],[-468,1187],[-818,342],[-1198,1041],[-901,2091],[-550,715]],[[737895,826561],[3952,444],[935,1440],[2216,-199],[1155,435],[615,696],[1720,294],[1243,-148],[1173,-682],[904,-6],[2311,733],[2968,-1042],[1203,737],[1763,-290],[3916,-1281],[786,-961],[1487,-988],[927,-76],[1588,783],[1997,1340],[914,1438],[864,812],[-176,980],[-850,1589],[-175,886],[640,1209],[382,1489],[773,741],[686,1254],[1388,1390],[751,2675],[820,904],[2538,-535],[1584,393],[360,443],[954,2862],[568,655],[897,3320],[841,1088],[1854,2946],[755,2059],[882,831],[2710,1077],[994,1199],[1514,502],[-760,1479],[754,1903],[-679,1422],[-852,630],[-46,1395],[1004,2014],[267,2062],[647,1168],[394,1538],[1152,1320],[786,3499],[863,1054],[2038,946],[1830,547],[1701,1673],[3127,1553],[1075,1264],[-174,1475],[1919,2643],[2023,1894],[1461,-333],[1136,438],[978,-1368],[1007,-153],[1086,1132],[329,3122],[677,1546],[-392,2123],[-937,888],[400,2351],[865,2204],[549,890],[581,1837],[970,785],[205,2331],[1145,-722],[2582,-654],[813,-6],[1273,-936],[758,-932],[1126,-364],[1309,1162],[2186,84],[866,-173],[396,-740],[12,-1405],[335,-951],[-27,-1629],[648,-1913],[-993,-2481],[-1376,-1453],[-193,-557],[1652,-982],[1424,-1740],[162,-1698],[1232,-1359],[623,-3241],[713,-1154],[3052,1730],[2399,529],[2308,-988],[2975,-1629],[1090,80],[4574,781],[1403,591],[641,1023],[2064,1356],[1440,-324],[1217,505],[1090,25],[895,-609],[1251,-144],[5250,1152],[1400,-435],[955,-1435],[419,-1208],[926,-767],[1686,-749],[5646,-113],[1400,-491],[209,-1039],[539,-351],[2118,-3677],[981,-1403],[251,-1174],[993,-1203],[810,-485],[1293,-212],[2758,-1440],[3352,-999],[756,-966],[788,998],[2235,1031],[1976,1780],[1286,547],[564,1246],[1027,1020],[1376,430],[3399,4],[2245,142],[1311,-229],[871,-628],[992,-212],[348,981],[2311,3928],[1380,263],[3198,-770],[860,-1113],[1647,-1507],[2889,-631],[770,-538],[2426,-846],[114,-1040],[833,-1959],[1061,-1515],[1100,-225],[1950,-949],[782,676],[909,1515],[1959,2009],[2377,506],[718,657],[2388,47],[1191,-968],[-142,-715],[1329,-1189],[691,-1906],[445,-5213],[-117,-2547],[399,-1324],[1435,-1174],[919,-1203],[1395,5],[2267,329],[1967,-136],[2268,427],[1791,1180],[1735,2624],[1863,1826],[1566,1871],[685,324],[1642,-283],[2027,35],[2495,-1983],[1921,-5],[1704,-823],[562,27],[1945,-2149],[527,-1232],[1416,28],[3001,-1007],[1128,-750],[796,-1095],[2806,-1420],[865,-1439],[796,-651],[405,-964],[889,-718],[2287,252],[1036,-199],[1469,-1624],[1360,421],[2227,-40],[495,-826],[312,-1769],[-181,-697],[489,-1722],[1143,-883],[533,-832],[114,-1843],[-199,-1104],[-906,-519],[-2048,-240],[-657,-999],[-1118,-1046],[-330,-1566],[-1091,-1888],[-659,-649],[-2748,-1422],[-977,109],[-3181,-1288],[211,-1854],[2591,-926],[617,-822],[2422,-2051],[483,-1715],[-51,-2276],[1023,-2372],[1500,-904],[428,-718],[835,-225],[761,-1600],[783,-646],[171,-802],[-736,-1091],[-238,-1364],[-1705,-1093],[-1787,-1777],[-160,-552],[-1322,-1884],[-1536,-371],[-367,-431],[519,-958],[-445,-1959],[174,-1229],[780,-796],[-856,-2379],[-2396,-2745],[476,-2757],[526,-1601],[-88,-1819],[-1125,-494],[-1182,-1600],[-2006,-979],[-1800,-109],[-1719,-595],[-2006,243],[-15,-932],[-1040,-1476],[-781,-4022],[-189,-2203],[285,-731],[-153,-1251],[491,-947],[-72,-1678],[-619,-752],[-305,-1434],[-1091,-1970],[-923,-1098],[-137,-1563],[-813,-1368],[461,-567],[1101,-1644],[90,-1526],[1209,-1584],[719,-1648],[-1550,-1801],[-587,-1374],[-662,-372],[-373,-1666],[-737,-1392],[-137,-2649],[-920,-4934],[-2549,-2975],[-193,-611],[-1528,-1432],[-2256,-813],[-973,-1458],[-632,-227],[-1764,-1575],[-1079,-1718],[-1136,-834],[386,-3180],[-380,-1453],[-679,-1266],[-598,-2761],[164,-624],[933,-814],[-2053,-3545],[-481,-3394],[-458,-1714],[144,-769],[-2487,-2579],[-661,-1321],[-785,-691],[-2344,-858],[-1803,-1212],[-1694,-440],[-1968,-1682],[-2228,-2786],[-2183,-4350],[-392,-1286],[-548,-511],[-158,-1302],[-565,-755],[-959,-2221],[1281,-1438],[745,-477],[805,-2025],[-548,-527],[-362,-1194],[-1543,-1746],[-1369,-1072],[-1118,-173],[-1005,-742],[108,-1107],[-481,-1330],[287,-852],[-85,-1699],[-935,-829],[-718,-139],[-1014,-1764],[-1064,-863],[-928,-2809],[24,-1347],[1245,-1455],[1795,-332],[822,-1416],[-391,-348],[-1917,-287],[-1104,-1300],[-1248,-3255],[-56,-1031],[1738,-1496],[13,-1323],[-1617,-933],[-1338,-2719],[-1092,58],[-1461,-570],[-336,-859],[-1001,-269],[-1133,-1903],[-408,-1790],[369,-772],[-302,-2023],[37,-3034],[646,-2022],[-640,-1640],[820,-1570],[791,-636],[590,-1190],[982,-194],[1615,-1734],[1193,-640],[492,-1151],[1018,-1331],[561,-1393],[1609,-1216],[1037,-92],[578,-524],[-471,-1707],[-659,-752],[800,-618],[425,-1613],[1503,-1012],[1054,-1314],[-2222,-3553],[22,-535]],[[934644,617765],[-1677,-1569],[-2762,-1880],[-1184,-282],[-1841,-1892],[-1292,-786],[-1225,-1523],[-1850,-2851],[-1910,-2285],[-1221,-978],[-1717,-2927],[-1231,-3670],[-722,-872],[-1556,-3356],[-1035,-3861],[-28,-2175],[-506,-1672],[4,-1305],[-1344,-3420],[-709,-1265],[-567,-2892],[530,-1980],[-388,-862],[-427,-3321],[-1426,-1685],[-636,-350],[-113,-1548],[-474,-779],[-1036,-299],[158,-1517],[-1067,-1171],[-615,-1523],[-711,-613],[-698,-1548],[-264,-1401],[341,-769],[-151,-1047],[-2055,-1643],[-2253,-1235],[-2032,-284],[-1177,-1139],[-585,-1409],[-466,136],[-2208,-2586],[245,-1344],[-1378,-2483],[-1721,-1147],[-575,-1015],[-368,-1471],[-2721,-483],[-175,-1296],[-1280,-1283],[-782,-444],[-1100,-1549],[-1072,-476],[-30,-1808],[-2608,-2087],[-1764,-1254],[-827,466],[-2917,-654],[-1228,-908],[-1212,-9],[62,859],[-1435,-173],[-637,766],[-4182,-1500],[-1412,1069],[-1061,-160],[-795,465],[-359,1511],[-840,69],[-781,-807],[-1381,565],[-1357,-24],[-1295,-523],[-1494,1195],[-997,-522],[-1271,6],[-1971,440],[-1606,-1362],[430,-833],[-659,-367],[-1752,969],[-956,-864],[-1838,790],[-1289,135],[-1400,-1032],[-380,-1065],[-1910,114],[-538,-566],[-1331,317],[-1876,-171],[-1355,1334],[-1548,458],[-938,945],[-1491,890],[-2057,-481],[-1249,544],[-1948,-118],[-1050,223],[-4124,-1372],[-3534,-1857],[-1440,226],[-1581,-1112],[-2418,-777],[-1236,-108],[-1089,-777],[-2468,328],[-1582,-494],[-1035,620],[-878,-71],[-2370,-883],[-1176,-120],[-3416,-1143],[-1879,191],[-585,111],[-1457,1265],[-2486,258],[-659,293],[-1064,1725],[-983,-182],[-1605,570],[-1376,-119],[-1412,532],[-1148,-913],[-1425,-201],[-1772,-731],[-1038,251],[-1253,798],[-1215,333],[-1290,-595],[-1748,-324],[-3731,4243],[-2264,-54],[-1460,-251],[-1379,829],[-1404,-325],[-1140,174],[-892,1021],[-1399,27],[-1132,1027],[-2579,524],[-1145,-1246],[-1498,1],[-969,-335],[-639,-1132],[-112,-1821],[-2614,-2010],[-431,-2898],[-606,-2072]],[[653371,361162],[-1193,134],[-1282,-244],[-1256,-743],[-1153,-1677],[1191,-1189],[-24,-1084],[-538,-720],[-1606,-414],[-1193,157],[-2644,1453],[-813,-77],[-1287,-647],[-1065,-1213],[-767,-1660],[9,-1127],[-424,-744],[-2433,233],[-2204,1381],[-1474,1462],[-1310,268],[-4839,-1575],[-337,753],[591,2728],[-984,1595],[-319,2421],[661,436],[1034,2163],[527,1554],[-180,1725],[589,1552],[-498,1145],[379,2042],[-383,1936],[-1608,671],[-372,1371],[-1706,333],[-341,883],[-1075,1106],[474,802],[-521,1531],[-463,2824],[-79,2364],[-371,1305],[553,1563],[-176,1472],[250,1046],[-1466,4039],[-95,1194],[-1890,2276],[-559,923],[-820,320],[-1163,1943],[-967,969],[-1454,2491],[-875,1113],[-696,-91],[-1449,1155],[-1081,2031],[-231,1223],[-1107,1248],[-343,1037],[-50,2085],[-785,3850],[-982,2075],[-36,1693],[-281,928],[-1802,3393],[-349,1187],[1006,2299],[-398,1076],[-70,1950],[718,2172],[60,4327],[1177,2327],[1922,1107],[491,914],[1655,1590],[633,1414]],[[611424,446715],[215,2383],[1072,2371],[-46,1298],[-694,2413],[-873,1525],[295,1713],[653,539],[833,2260],[339,1693],[665,1471],[2306,2532],[2087,2648],[2056,301],[1309,804],[1813,506],[1533,126],[1788,-273],[1718,517],[2748,-327],[2150,13],[1172,2432],[889,1242],[2263,2691],[4683,3958],[-1298,2126],[587,848],[11,2808],[-170,1899],[209,1514],[-678,1591],[127,1146],[495,901],[1383,2077],[455,1895],[941,2559],[1260,1729],[420,1074],[645,4361],[281,3114],[724,1493],[2729,3123],[722,1033],[545,2922],[1229,2037],[1135,1371],[1623,2158],[746,323],[1389,1412],[851,1608],[1874,2118],[633,1828],[764,1264],[3062,3655]],[[665092,537538],[2155,181],[2478,-1209],[1565,-1284],[1651,-233],[1850,-632],[1339,334],[1503,819],[453,-107],[1233,-1450],[1886,-902],[454,-1094],[1009,-472],[215,-6],[781,82],[1422,-490],[1574,-168],[1020,201],[1278,857],[2356,-36],[2916,-985],[1146,-24],[1110,-469],[802,302],[1264,-266],[2600,-36],[2662,-371],[3124,244],[2240,-203],[942,-728],[3444,-561],[1675,-734],[1619,-181],[1032,-1469],[1131,-1173],[1442,-346],[1067,150],[1209,-847],[1719,58],[2333,-924],[1316,-1129],[594,28],[2299,-896],[1531,860],[1863,313],[3298,-114],[1822,181],[489,-299],[3663,851],[1256,-155]],[[744922,523006],[577,-2029],[2433,-3120],[1609,-1123],[3304,-1303],[3953,-2355],[1828,-2710],[838,-728],[1202,-391],[1789,-1777],[2013,-297],[1638,-635],[606,-682],[1618,-2919],[2169,-313],[849,-458],[837,-1691],[1754,-1995],[3154,-1740],[821,-848],[1889,-2896],[-229,-2912],[437,-2092],[-117,-625],[-2261,-2976],[-892,-1969],[-1033,-570],[-1292,-18],[-731,-1184],[-1810,-741],[-3729,-937],[-3616,-2124],[-952,-1107],[-468,-1600],[-1674,-2238],[12,-694],[-709,-1815],[-598,-2978],[217,-1453],[-108,-3215],[262,-1223],[-290,-2154],[-527,-712],[-1107,-1147],[-437,-1217],[-951,-827],[-1317,-257],[-1087,-1472],[-495,-171],[-1939,215],[-1448,-2178],[-531,-21],[-1668,529],[-1587,-1188],[-1008,-149],[-2571,651],[-1234,-836],[-590,-1041],[-1704,-1116],[-1459,-118],[-1303,-1242],[-339,-1293],[-1699,24],[-1759,-935],[-2701,-296],[-1245,712],[-1557,374],[183,-1653],[53,-887],[-1162,-1659],[-1687,-39],[-1406,-991],[-862,-2188],[-452,-536],[-1524,320],[-1037,-488],[-1375,-1167],[-1018,-1357],[-1623,-631],[-1709,-255],[-1879,290],[-1047,-550],[-270,-830],[-371,-950],[-1321,-775],[-482,570],[-1408,-290],[-2739,-1562],[-1650,-1345],[-2505,-1696],[-1321,-3141],[-1920,-2889],[-2607,-2248],[-680,-2579],[-579,-1319],[-1754,-1418],[-382,-1270],[84,-1981],[-2335,-1860],[-1350,-2480],[-1496,-1314],[-2016,-560],[-1089,-1713],[-1579,-1317],[-1265,-635],[-1158,21],[-1343,-833],[-1753,-2200],[-1062,-1084],[-388,-2010],[-645,-726],[-974,-1648],[120,-1690],[1435,-626],[1114,383],[560,-265],[961,-2205],[344,-3896],[-369,-923],[-1104,-316],[-1537,-2296],[13,-1811],[-1435,-1175],[-2115,-1370],[-2781,-2150],[-1454,-1522],[-628,-965],[-1228,-2573],[-1282,-1152],[-794,-1803],[-1082,-205],[-2783,-1709],[-1286,-1840],[-2919,-284],[-1435,768]],[[114355,471391],[3179,-1349],[1413,-289],[475,-671],[-300,-981],[651,-1479],[618,-611],[2395,-808],[2151,206],[1630,-1096],[1172,-1067],[792,-2261],[336,-1883],[-71,-3652],[439,-979],[1358,-605],[1334,-934],[1443,-233],[1122,1006],[1182,215]],[[135674,453920],[1619,-665],[663,-1064],[-780,-1833],[-987,-971],[-2996,-1592],[-700,-811],[-337,-1570],[1158,-1690],[1664,-255],[4805,1806],[1480,-412],[1170,-1387],[72,-1211],[551,-1675],[1522,-1377],[1256,-2006],[2249,-655],[675,-1595],[-122,-1214],[-683,-727],[489,-1697],[-76,-2022],[2884,-1818],[540,23],[1437,993],[865,-122],[892,-953],[1202,209],[775,850],[659,1419],[1958,1523],[1310,61],[2209,-2372],[546,-281],[812,-14],[882,634],[820,1217],[1544,1623],[956,1484],[1158,601],[1401,-1011],[1896,48],[2175,763],[1886,1201],[1521,1474],[697,1360],[711,2359],[1973,2133],[1409,2314],[931,986],[1729,684],[2793,770],[1581,-225],[2420,2131],[912,305],[642,-546],[956,212],[2847,2546],[4184,1103],[1273,627],[1750,1634],[2413,577],[1991,-375],[1828,-1047],[2181,-1493],[1852,-1685],[1307,-363],[1551,-1134],[793,-887],[935,-374],[2285,-16],[1032,372],[3269,-1059],[4471,-2250],[2237,-449],[1270,42],[1872,-268],[1731,-1021],[2534,-702],[1572,-678],[1231,-1925],[1490,-641],[1086,-801],[2689,-825],[1588,-776],[105,-1303],[1384,-2527],[1350,-715],[1172,-1386],[537,-1174],[1753,-1808],[1637,-763],[2102,-171],[854,-583],[939,-1399],[2150,-2225],[904,-1252],[424,-2008],[-203,-342],[-568,-705],[1423,-2946],[3074,-2947],[1541,-2345],[-591,-2377],[778,-1417],[810,-810],[1801,-501],[1501,-891],[-381,-1104],[448,-2520],[525,-1225],[1427,-2198],[824,-834],[587,-2047],[-171,-2516],[174,-603],[1732,-2014],[919,-733],[2147,-193],[1154,-712],[2566,-2815],[243,-1285],[1127,-547],[340,-1780],[-43,-3314],[316,-2019],[483,-1230],[1618,-1366],[494,-1196],[6,-1355],[346,-1946],[-83,-1466],[-717,-1812],[-130,-2838],[599,-738],[966,-258],[466,-796],[-15,-3181],[-868,-2573],[118,-702],[476,-817],[1422,-469],[815,-686],[184,-2294],[1777,-5285],[-44,-2354],[-262,-2360],[-1173,-3676],[-35,-782],[850,-1095],[443,-1371],[-20,-1791],[-456,-2404],[-1089,-2482],[168,-1522],[1208,-1819],[1116,-2754],[690,-3419],[371,-3798],[525,-1030],[1832,-1002],[443,-1410],[-60,-1593],[-549,-2186],[-537,-1320],[761,-977],[786,713],[1809,904],[1363,-368],[904,-1231],[687,-2181],[1613,-359],[2649,-895],[2910,-549],[616,-951],[2417,-1843],[1872,-8],[1278,819],[1121,220],[2337,-597],[1749,-844],[2250,1297],[962,414],[2370,-225],[946,869],[602,1514],[-223,1635],[495,1025],[4794,2355],[2084,-114],[1318,657],[2690,2199],[925,1202],[526,129],[1334,-694],[1500,-94],[1857,1346],[1251,434],[1782,77],[3631,834],[1008,-570],[1735,166],[1595,-464],[2841,-449],[2819,1035],[955,9],[841,-938],[1849,-348],[1426,773],[2285,2945],[1394,1316],[2247,194],[953,1440],[449,28],[1253,-1589],[1939,-296],[884,-366],[1958,29],[1565,646],[2056,-95]],[[388917,315413],[2145,7],[2333,-624],[2664,-1390],[1782,-73],[937,410],[1000,1002],[1226,1713],[1122,-359],[336,-1080],[-556,-2348],[789,-1851],[895,-701],[3268,-532],[1667,-593],[423,-965],[308,-601],[2592,-734],[910,-1401],[1457,4],[331,2013],[691,895],[1541,209],[1539,-451],[1167,406],[1305,829],[2213,1741],[2208,767],[1066,1552],[1232,1086],[1156,642],[541,-122],[1845,-1332],[712,115],[336,1838],[514,1102],[584,344],[1079,-567],[683,-858],[2210,-1307],[2063,1084],[1244,1467],[307,1220],[1064,798],[1332,275],[529,-425],[68,-1082],[975,-546],[1250,450],[1955,-106],[2207,404],[1867,1172],[522,700],[1048,61],[1075,-989],[1783,-333],[2025,455],[-738,2307],[200,842],[1206,556],[1827,240],[1618,-93],[3144,137],[1769,1073],[629,1230],[1415,869],[2964,789],[2226,-68],[1648,884],[779,51],[1640,679],[3358,113],[3299,-1114],[767,-903],[1116,-2705],[670,-1221],[881,-802]],[[488900,321668],[162,-1243],[608,-701],[2276,-1410],[940,-1104],[1484,-2665],[481,-2005],[-31,-2461],[215,-1751],[-146,-2389],[-1379,-5074],[-353,-562]],[[493157,300303],[-435,-1062],[-1871,-21],[-980,-373],[-1944,-2082],[-877,-1812],[-318,-4723],[-433,-4333],[-664,-3338],[-2790,-4444],[-782,-1888],[1012,-7147],[-306,-1529],[-810,-2666],[-2099,-1628],[-863,-1690],[-322,-1906],[-606,-1386],[-620,-424],[-932,-2371],[-925,-1831],[-397,-1419],[-99,-1517],[-460,-2406],[-2478,-3049],[-492,-1299],[-3839,-7570],[-1240,-1978],[-1404,-1844],[-1198,-1998],[-655,-690],[-2262,-1288],[-1368,-79],[-2475,194],[-3772,-437],[-4961,-29],[-788,143],[-1445,-280],[-2078,-3333],[-2835,799],[-3589,2054],[-1568,1606],[-2423,2174],[-2651,-1242],[-770,-1207],[-902,-648],[-819,-1533],[162,-1624],[-970,-1252],[-1438,-1027],[-1391,-2219],[-1,-2146],[-405,-2129],[-2756,-794],[-558,-642],[-150,-1227],[-1738,-1681],[135,-1710],[-467,-2247],[-1566,-2406]],[[417481,205669],[-1084,-1057],[-2251,-109],[-658,919],[-682,-632],[48,-1029],[-1973,-1748],[-789,-915],[-936,534],[-802,-429],[-212,-2526],[-1360,871],[-1751,1955],[-425,1233],[244,2521],[-189,1408],[-1118,2220],[-884,313],[-1967,1200],[-1179,1378],[-734,1749],[-365,2958],[-516,1380],[-1393,1864],[-1585,135],[-3766,-1002],[-2350,-963],[-1016,-152],[-2341,444],[-2113,1759],[-796,208],[-2934,2420],[-1318,1700],[-918,1664],[-1533,1888],[42,896],[1059,2153],[383,1206],[-729,2879],[-623,791],[-1644,1455],[-838,-333],[-760,-1024],[-2380,-2081],[-2382,-677],[369,-2106],[-400,-1870],[276,-2543],[-180,-866],[502,-1879],[752,-1053],[-411,-1007],[-1539,-276],[-1,-974],[-1879,-1003],[534,-528],[-274,-1304],[-1355,-1498],[-786,-31],[-656,-763],[-71,-889],[-1927,-1272],[-974,-1173],[-1184,-996],[-580,-892],[-51,-931],[-1381,-1897],[-390,-980],[-939,-482],[-1988,969],[-1116,-349],[-1014,341],[-1620,116],[-326,-440],[-1887,-1140],[-645,-1982],[171,-3351],[-842,-40],[-1200,507],[-1151,-636],[-294,-1393],[-738,149],[-1705,-1287],[-1425,151],[202,-1676],[-1317,-954],[-842,1032],[-1492,-241],[-635,-1182],[-946,384],[158,1103],[544,815],[-261,1085],[-591,784],[-106,3317],[-608,1436],[-568,521],[14,1167],[-1079,739],[-2464,739],[-1122,146],[-456,399],[-1818,491],[-742,-1160],[-1511,-1650],[-1620,202],[-254,-767],[-782,-274],[-810,435],[-1679,272],[-366,1225],[-1924,1103],[-985,-180],[-768,-123],[-1061,-1146],[-1433,-88],[-1159,-1293],[-1457,-244],[-1025,-1076],[-1457,-575],[-1160,-971],[-261,-785],[-1291,579],[-1601,-175],[-665,-1184],[-1329,-937],[-1169,449],[-530,-837],[-870,-418],[-1242,-1366],[-1630,374],[-1086,-1455],[-117,-874],[-670,-1147],[-1259,-502],[-292,-1192],[-590,156],[317,2218],[494,1397],[-338,1213],[-2161,1601],[-1087,-496],[-445,1376],[-642,91],[-657,825],[-430,2156],[-1169,389],[204,2207],[-827,1284],[-2573,10],[-662,-861],[-866,526],[-1234,-910],[-2500,-34],[-673,-1056],[-1342,-509],[-2121,753],[-492,-526],[-1215,-208],[-994,257],[-1289,-348],[35,-930],[-1094,-936],[-399,-2305],[-1972,-617],[-776,-1435],[-1700,-1755],[-890,-1372],[-3333,-1193],[-2979,790],[-576,622],[-2544,917],[-897,711],[-375,1249],[543,680],[-1005,1709],[56,747],[-1193,1472],[-858,363],[-390,-1048],[-1812,-2675],[-296,-996],[-1067,-1271],[-496,-1351],[-455,253],[-1682,-194],[-1314,-1063],[-983,484],[-242,1206],[-1739,2517],[-1096,616],[-1217,-382],[-2207,548],[-379,-908],[-1104,-1280],[-1461,-204],[-300,-2262],[-1222,151],[-1879,1618],[-1207,279],[-1088,648],[-1494,-645],[-1164,-2614],[-1912,957],[-1109,1287],[-189,820],[-837,1188],[-115,1417],[-845,289],[-1019,-1208],[-1529,-404],[-2284,156],[-1298,77],[-591,-725],[-683,2588],[-1201,553],[-54,1461],[-957,2193],[901,2405],[-1315,424],[-247,2010],[-1160,1215],[-1906,955],[-700,973],[-196,1361],[397,1350],[180,1951],[-583,1539],[955,2322],[117,1300],[-2047,617],[-1246,1278],[-2039,790],[-1667,222],[-1705,-73],[-1340,618],[-54,822],[714,1029],[773,500],[736,1075],[181,1159],[1267,1620],[279,797],[947,731],[1045,1419],[337,895],[833,483],[-10,1028],[516,1123],[1888,98],[-35,875],[534,969],[1282,1495],[425,925],[-20,1784],[315,606],[-415,1100],[471,1356],[-1230,-60],[-1074,461],[-1192,-351],[-1129,-1584],[-923,-361],[-769,1099],[300,1473],[-122,1529],[-955,1223],[-566,-473],[-2303,405],[-601,-1197],[-974,-200],[-629,-631],[-822,20],[-1404,-1676],[-162,-1018],[-2331,769],[-1777,384],[-589,-497],[-1099,731],[212,1264],[-2673,1249],[161,1951],[2003,2058],[141,801],[-776,464],[1113,1515],[1921,-1436],[154,757],[2412,2150],[-510,1639],[1055,718],[710,1970],[908,1343],[1465,682],[-76,1536],[-738,1713],[348,1211],[-363,1084],[1287,2220],[203,1325],[-1576,819],[502,1083],[-204,686],[-1002,564],[-1601,302],[-2401,-254],[-1034,-490],[-1114,-2007],[-1380,-312],[-3190,167],[-1104,445],[-1560,-459],[-1498,129],[628,1516],[-526,1610],[145,638],[-729,2090],[-602,761],[-861,23],[-351,-1045],[-1004,-769],[-880,1558],[538,1136],[-384,920],[-981,-215],[-1458,338],[-421,717],[222,1235],[-292,2438],[-353,873],[-2019,777],[-1823,-540],[-1712,1953],[551,327],[-713,1859],[-1063,625],[-1421,1759],[-907,507],[-2063,458],[-1056,1782],[789,663],[-753,936],[-1089,3997],[1330,2146],[-279,1048],[-588,-495],[-1934,-247],[-1691,321],[-1885,-516],[-1468,184],[-679,-215],[-1196,461],[-1646,-113],[-762,473],[-1660,252],[-662,629],[-841,-49],[-939,858],[-783,127],[-2458,1979],[-918,100],[-2457,1721],[-1274,1445],[-1241,1001],[-1176,516],[-1207,-252],[-1990,1064],[-289,717],[-1502,-142],[-990,565],[-3012,167],[-724,302],[-952,1100],[-1399,-810],[-1595,324],[-666,490],[-820,-761],[-1590,128],[-707,-303],[-1742,-6],[-1047,782],[-864,-654],[411,-1018],[-339,-509],[61,-1517],[-1179,-1660],[-952,-429],[-747,-1161],[-271,-1483],[253,-1337],[-759,-673],[-484,-1305],[-169,-2586],[-1253,-1015],[-1019,-1191],[-387,-1787],[262,-1218],[-1902,-1384],[-1508,1393],[-2080,74],[-1423,1065],[-2434,664],[-1865,-355],[-2296,1330],[-1110,233],[-2409,-220],[-1487,-393],[-2121,-100],[-619,198],[-1614,-324],[-1129,160],[-1408,877],[-1623,-779],[-1731,2027],[-1566,-582],[-2707,1551],[-1065,161],[-434,615],[-2153,-416],[-1780,756],[-2013,65],[-2334,-1214],[-1588,111],[-1732,-717],[-1781,-459],[-609,-573],[-865,-1914],[-1961,-714],[-734,-870],[-2871,-1556],[-145,-664],[-1126,-1039],[-2060,-1150],[-316,-971],[-1131,-1079],[-2338,877],[-713,651],[-3215,4162],[-919,753],[-2394,3039],[-2227,850],[-1929,-195],[-1987,993],[-3465,2116],[-2239,754],[-1665,989],[-699,1083],[-1448,362],[-417,633],[-1932,396],[-1559,-132],[-543,2631],[-770,770],[-1064,16],[-714,-552],[-958,28],[-813,829],[-1724,4005],[-669,159],[-1657,1167],[-327,1753],[-2740,481],[-1046,-41],[-553,765],[-1337,957],[-478,874],[903,1799],[-669,1033],[-65,1443],[596,1964],[508,-2261],[2277,-845],[1537,-896],[2319,-1675],[2667,-2541],[978,-564],[1319,-1925],[2750,-2607],[2488,-1296],[3920,758],[696,-658],[1125,-2433],[2073,-404],[2798,-1071],[1096,-697],[211,-1927],[866,-1455],[1416,-1002],[1096,609],[351,1825],[-902,3600],[308,1298],[870,1442],[2023,34],[3642,-394],[728,165],[2130,1139],[668,1648],[478,1945],[950,1763],[1084,-349],[1924,-1659],[1984,103],[1365,1529],[211,2656],[98,2175],[872,1568],[1388,1399],[2609,1608],[3191,1235],[1025,931],[615,1496],[-78,1734],[729,1531],[76,2206],[1103,1140],[3233,509],[1304,352],[2057,1058],[1244,1068],[1326,689],[2744,2684],[1908,1205],[2339,654],[1539,-217],[929,363],[2156,95],[2253,-111],[1205,479],[2042,-545],[2638,438],[1707,-501],[2023,127],[1330,387],[919,1056],[1605,3061],[1672,1666],[1468,2320],[890,2964],[146,3646],[730,2763],[-278,1856],[-463,908],[3148,1838],[468,2874],[-905,1216],[701,579],[178,895],[-985,1277],[1004,2270],[682,665],[-659,1190],[1779,2859],[860,604],[-59,1355],[1423,520],[-1524,1289],[-859,340],[-1066,-252],[-775,764],[-1316,557],[-1121,-83],[-910,442],[-1307,2556],[189,1390],[-230,820],[96,2082],[-362,2183],[-1266,643],[-1217,1573],[-1156,936],[-2388,1340],[-400,1207],[231,611],[-1919,-150],[-547,2105],[567,1169],[651,237],[963,-646],[483,409],[130,1974],[1419,1040],[486,3411],[624,-110],[792,1431],[-200,3510],[446,918],[-858,1331],[1143,765],[302,764],[1201,1211],[-1190,470],[-1045,-364],[-996,766],[163,1129],[-615,977],[-2531,374],[-780,725],[-1993,-313],[-1785,384],[-3098,-3094],[-1042,-602],[-2005,408],[-1416,-765],[-906,-44],[-549,568],[-2098,1027],[-1516,458],[-1648,131],[-2328,3355],[494,407],[2177,-49],[656,766],[5507,-529],[948,728],[134,825],[891,1019],[239,816],[833,714],[694,2451],[745,314],[-35,1030],[468,744],[308,1448],[-418,1607],[1628,2506],[-603,931],[2243,2541],[82,2149],[767,1252],[446,107],[570,-1895],[1838,-81],[836,-622],[1202,362],[1368,-58],[1058,-781],[549,-1364],[711,-72],[1573,1559],[1612,-824],[665,122],[217,1597],[587,1409],[623,651],[1168,-164],[357,779],[-1601,1051],[-238,440],[1594,2212],[-40,2114],[763,1222],[1071,480],[834,1292],[-469,890],[680,1190],[687,471],[123,924],[863,942],[35,715],[904,521],[-289,740],[2728,2644]]]}