{"type":"Topology","objects":{"districts":{"geometries":[{"properties":{"DISTRICT":"ARGHAKHANCHI","STATE_CODE":5,"PR_NAME":"Lumbini Province"},"type":"Polygon","arcs":[[-30,-12,-8,-22,-10,-16]],"id":1},{"properties":{"DISTRICT":"BANKE","STATE_CODE":5,"PR_NAME":"Lumbini Province"},"type":"Polygon","arcs":[[-4,0,-6,1]],"id":6},{"properties":{"DISTRICT":"BARDIYA","STATE_CODE":5,"PR_NAME":"Lumbini Province"},"type":"Polygon","arcs":[[2,3]],"id":8},{"properties":{"DISTRICT":"DANG","STATE_CODE":5,"PR_NAME":"Lumbini Province"},"type":"Polygon","arcs":[[-11,4,5,6,-23,-19,7]],"id":14},{"properties":{"DISTRICT":"GULMI","STATE_CODE":5,"PR_NAME":"Lumbini Province"},"type":"Polygon","arcs":[[-21,8,-17,9]],"id":23},{"properties":{"DISTRICT":"KAPILBASTU","STATE_CODE":5,"PR_NAME":"Lumbini Province"},"type":"Polygon","arcs":[[10,11,-29,12]],"id":33},{"properties":{"DISTRICT":"NAWALPARASI_W","STATE_CODE":5,"PR_NAME":"Lumbini Province"},"type":"Polygon","arcs":[[-32,-15,13]],"id":47},{"properties":{"DISTRICT":"PALPA","STATE_CODE":5,"PR_NAME":"Lumbini Province"},"type":"Polygon","arcs":[[14,-31,15,16,17]],"id":50},{"properties":{"DISTRICT":"PYUTHAN","STATE_CODE":5,"PR_NAME":"Lumbini Province"},"type":"Polygon","arcs":[[18,-26,19,20,21]],"id":54},{"properties":{"DISTRICT":"ROLPA","STATE_CODE":5,"PR_NAME":"Lumbini Province"},"type":"Polygon","arcs":[[22,23,-27,24,25]],"id":58},{"properties":{"DISTRICT":"RUKUM_E","STATE_CODE":5,"PR_NAME":"Lumbini Province"},"type":"Polygon","arcs":[[26,27]],"id":59},{"properties":{"DISTRICT":"RUPANDEHI","STATE_CODE":5,"PR_NAME":"Lumbini Province"},"type":"Polygon","arcs":[[28,29,30,31,32]],"id":61}],"type":"GeometryCollection"}},"bbox":[81.06089295200007,27.33102589400005,84.03062183000003,28.869115520000037],"transform":{"scale":[2.969731847731803e-06,1.5380911640911514e-06],"translate":[81.06089295200007,27.33102589400005]},"arcs":[[[230990,638525],[1004,-520],[366,-1292],[1564,-1953],[864,182],[1638,946],[1011,-2327],[1083,-3160],[1172,-607],[963,-1558],[899,344],[726,-692],[563,-1106],[1671,262],[645,-596],[295,-851],[409,-3306],[486,-1179],[73,-1637],[448,-1737],[-270,-2191],[628,-2552],[1618,-233],[686,1558],[1448,2799],[473,1399],[1118,235],[824,-923],[981,-1725],[926,-190],[1620,-1092],[1400,117],[911,-958],[743,-814],[548,1],[1777,-1111],[1242,-71],[703,-429],[438,-1563],[581,-494],[1162,-1873],[1205,-3442],[1565,-2431],[998,-1055],[1133,-4066],[-164,-2130],[-273,-1440],[-1009,-2867],[1073,-353],[1499,276],[1264,604],[1589,-377],[653,1301],[1441,1531],[1412,-2068],[521,-2254],[1269,-712],[1271,-1518],[1523,-103],[1008,-627],[385,219],[1506,-264],[1289,-2113],[824,-798],[1111,-607],[816,111]],[[339540,384316],[-1578,-355],[-5912,1801],[-6589,391],[-9235,2100],[-2336,579],[-4528,-450],[-3205,284],[-2190,-3768],[-808,-4394],[-2819,-4023],[-1079,-4355],[-3244,-6350],[-22,-3783],[-2700,-3434],[-1617,-4657],[208,-1462],[81,-3425],[23,-5328],[-1993,-986],[-1327,-853],[-710,-85],[-2349,-1066],[-547,20],[-1163,-943],[-864,48],[-590,616],[-1672,818],[-2483,625],[-862,1203],[-664,1419],[-1006,2976],[-1475,2475],[-1493,1975],[-1053,1621],[-1425,1443],[-2185,2715],[-2600,3819],[-2207,2125],[-617,811],[-1251,2277],[-643,1516],[-894,928],[-1839,1038],[-360,857],[-1093,1013],[-1804,267],[-743,451],[-1455,-885],[-1318,31],[-217,445],[-9675,14848],[-2745,4116],[-3628,5587],[-6192,9462],[-4546,6861],[-9039,13919],[-1699,827],[-10185,1624],[-6593,1203],[-934,1132],[-480,1017],[-1082,212],[-2716,2691],[-410,60],[-902,-78],[-1631,4584],[-731,1167],[-1208,849],[-5027,5348],[-3870,3026],[-3930,4234],[-5460,7227],[-4006,4542],[-3233,2830],[-7160,6362],[-3884,3591]],[[150122,479642],[-3001,2691],[-2665,2533],[-3259,3671],[13,5690],[448,12227],[1437,5302],[-1046,1462],[-2785,3320],[-1684,1041],[-3278,4743],[-2691,4148],[62,6355],[-1400,3456],[361,1241],[-33,1572],[-362,665],[-5682,5033],[-838,1045],[-1817,1010],[-1619,1111],[-1906,435],[-2249,-287],[-4727,-249],[-2556,992],[-2419,1084],[-580,-1262],[230,-1000],[-552,-350],[-266,-972],[-777,-898],[-837,-3069],[28,-1650],[482,-1189],[1039,-657],[1895,-823],[418,-2084],[-301,-528],[126,-1259],[-414,-753],[28,-1216],[-527,-694],[-582,-2230],[-713,-1849],[-1428,-641],[-807,132],[-5240,-1003],[-2340,-319],[-2594,406],[-4624,-4142],[-906,-177],[-872,2224],[983,5370],[3218,1982],[-2607,7787],[-3208,-3044],[-305,3325],[-428,586],[-1489,622],[-699,1205],[84,2209],[751,463],[1136,-376],[2166,-170],[2354,754],[1180,4042],[-2153,4769],[463,7408],[290,2267],[-2190,4889],[-4877,9798],[-2593,1969],[-1959,3677],[-1896,4068],[-6136,12892],[-3447,7484],[-4414,10000],[-2078,4861],[240,6024],[380,17166],[-1853,4956],[-3200,8197],[-2076,8711],[-925,1499],[-5891,2175],[-6030,2219],[-3020,1039],[-5951,1549],[-3378,1073],[-9418,3327],[-7160,2612],[-3212,1848],[-4208,6182],[66,1425],[-157,1903],[-862,2350],[-1568,2392],[-235,1042],[732,3731],[508,1318],[563,2966],[354,1091],[1417,3004],[2178,3438],[2934,3191],[295,701],[608,3892],[61,1178],[497,2464],[-83,2241],[524,2287],[659,1234],[980,617],[1150,-265],[2993,1013],[904,1130],[402,2600],[94,1553],[967,2265],[557,670],[1544,1134],[595,1121],[2395,3347],[910,1646],[801,2008],[1235,2364],[1264,1605],[1361,968],[553,1010],[-279,810],[1334,1914],[506,460],[851,46],[698,-562],[944,240],[584,2903],[295,4877],[364,1693],[1141,2563],[246,1117],[-179,1060],[2926,5397],[2817,6010],[1611,3042],[1159,1775],[1768,3148],[2230,3510],[2173,2596],[2688,2894],[2181,3215],[1209,2244],[885,1065],[2931,5689],[1330,3167],[1332,2172],[575,1370],[1201,3852],[1175,4135],[1176,3139],[787,999],[711,414],[1265,1638],[270,1289],[77,2278],[262,1539],[36,2541],[588,1255],[1574,2656],[1532,2200],[1562,4211],[464,2393],[112,3071],[-198,6260],[-337,1622],[-336,2636],[-34,2104],[553,-4],[1370,917],[1058,-870],[1004,-97],[1219,369],[396,-578],[-125,-1120],[684,-251],[235,1124],[1096,266],[338,-777],[1181,-652],[851,52],[1269,-738],[922,-1339],[221,-2654],[-303,-1495],[-944,-2252],[-504,-1758],[-90,-1752],[-710,-334],[-593,598],[-741,-1081],[221,-2578],[939,-1276],[362,-850],[479,-2077],[-265,-640],[140,-1500],[382,-651],[1180,-166],[1313,-648],[776,-869],[341,-974],[3151,-1930],[975,-315],[276,-1050],[481,-227],[1495,-1498],[1242,57],[1032,-698],[1154,-149],[730,416],[1205,29],[1295,-1052],[1214,-2167],[185,-923],[1143,-683],[813,-1163],[79,-584],[936,-1063],[1129,-262],[1219,-1079],[540,269],[1289,-767],[882,-902],[2178,-761],[150,-562],[-305,-1785],[1490,-2472],[722,-762],[994,-1763],[1342,-371],[990,326],[820,-1128],[379,-2256],[1535,-2099],[-709,-2909],[-361,-742],[658,-1058],[208,-1383],[619,241],[1341,-255],[576,-1563],[336,-2174],[157,-2568],[-289,-1249],[301,-1647],[436,-965],[1443,-2093],[1130,-506],[462,-1489],[570,-989],[1148,-342],[1485,-974],[899,723],[1307,557],[1286,117],[959,-771],[345,-1748],[567,-1374],[1087,96],[268,-854],[373,-3413],[631,-1448],[897,-497],[1614,285],[866,-207],[849,-1486],[-18,-917],[1028,-2102],[1287,842],[632,31],[1261,-2050],[738,-841],[836,-396],[980,-1982],[951,-450],[393,-1290],[-317,-1273],[1121,-3763],[388,-956],[1293,-1119],[1301,-199],[1827,-1234],[801,-918],[1124,-2023],[1463,-3256],[87,-1398],[-317,-1340],[108,-852],[1152,352],[1401,-314],[646,-590],[1516,-245],[810,1064],[640,-7],[727,-1928],[1297,-1120],[1524,-3069],[1004,-702],[653,-915],[150,-1433],[599,-1713],[1169,-928],[890,-1433],[524,-376],[1218,-2119],[369,-1158],[983,464],[701,-462],[1225,-2430],[1417,-1623],[875,-2988],[1778,-3033],[1241,629],[704,-895],[923,-2197],[1665,-2581],[1582,-836],[374,-716],[256,-1482],[1159,-3084],[978,-1275],[1792,-1399],[1377,-1767],[611,-1515],[343,-1515],[552,-1368],[2661,-2768],[862,-2126],[2646,-349],[1039,-880],[764,1168],[299,1591],[457,22],[1516,-1676],[1545,-2434],[1221,-78],[435,-425],[1192,-3035],[-8,-821],[105,-1013],[1395,-2640],[691,-526],[671,-1010],[562,-1873],[970,-1146],[1170,-490],[935,-1609],[1376,-1909],[327,-890],[1245,-1112],[642,-238],[892,494],[1730,-2818],[1139,-857],[609,-5],[1752,-650],[698,-508],[1618,-51],[1822,-810],[865,-1872],[1356,-984],[1358,752],[1290,-627],[-456,-3118],[-1002,-2075],[-778,-1992],[-201,-1946],[-561,-2052],[-910,-1637],[-1162,-4381],[-147,-1396],[19,-2488],[276,-2136],[-321,-2294],[-624,-1482],[-990,-1497],[-99,-1713],[-853,-3031],[3,-1152],[524,-2600]],[[230990,638525],[-439,-148],[-1723,823],[-700,540],[-1206,576],[-2192,-43],[-544,209],[-1013,2240],[-973,-423],[-658,663],[-758,2101],[-1231,782],[-842,3275],[-750,438],[-1094,2341],[-1121,603],[-888,-223],[-2619,1346],[-1203,899],[-651,-130],[-1598,-952],[-1172,-94],[-685,1041],[228,-1713],[558,-1475],[1498,762],[306,-228],[218,-1508],[833,706],[299,-1768],[-453,-1823],[433,-1292],[-829,-2653],[-547,-2534],[16,-845],[-1075,-965],[121,2304],[596,1172],[205,2016],[-259,1333],[-1087,-1431],[-614,-2890],[-830,-2386],[-28,-2237],[-420,-2051],[-848,-2013],[-2196,-11191],[-350,323],[-742,1712],[-1840,2164],[-974,-1057],[-301,-1043],[49,-1245],[-993,-2071],[-262,-1913],[-1685,-1654],[1512,-1230],[339,-613],[-764,-1740],[668,-1674],[-74,-1308],[540,-1175],[-226,-1312],[-875,704],[-517,-451],[-208,-1635],[-611,-1126],[-931,-267],[-1075,-918],[-698,-1140],[-653,167],[-2413,-2607],[-238,-783],[-118,-1976],[-467,-1008],[-1244,-255],[-1015,625],[-959,-1664],[-195,-1838],[15,-2390],[-520,-2009],[-1262,-1126],[-1396,313],[-1283,-1178],[-467,258],[-533,2085],[-1144,-1920],[-710,574],[100,1247],[428,1161],[-382,398],[-1072,-2366],[-836,-987],[-523,-1699],[-16,-1047],[344,-1519],[-393,-400],[-1429,1070],[-800,-1038],[244,-962],[645,-524],[51,-1803],[-585,-221],[-858,-2260],[-1629,-2502],[-937,-995],[-782,-105],[-508,629],[-154,-1601],[-168,-991],[181,-1077],[-160,-1052],[-888,-806],[-697,10],[-1546,-893],[-823,-828],[-524,167],[-1270,-485],[-842,602],[-931,-832],[-785,-2470],[-1004,-734],[-960,-262],[-1016,-1482],[-118,-1984],[675,-1145],[232,-1074],[-17,-2466],[-999,-2689],[-1210,-507],[-1074,96],[-740,-464],[-112,-1821],[1941,-1533],[-1599,-1194],[1192,-2419],[-403,-1695],[-490,-627],[-365,-276],[-602,-1415],[194,-1311],[1055,649],[683,-1068],[-150,-1583],[-539,-730],[-724,-28],[-702,447],[-537,-432],[-305,-1317],[47,-1179],[-255,-1356],[-470,-1019],[-472,55],[-1106,2170],[-548,-148],[-414,-1903],[-397,-616],[-1049,-596],[-493,-1918],[394,-1666],[290,-2418],[537,-1510],[595,-985],[-169,-2290],[250,-1672],[-188,-520],[-1026,764],[-707,-666],[117,-607],[1257,-1058],[1025,-1546],[-1586,-2039],[287,-1826],[1495,-1329],[548,-1861],[976,-1944],[17,-858],[-561,-1310],[-1019,-332],[-545,667],[-410,-798],[818,-2456],[8,-484],[830,-1747],[1021,-289],[212,-657],[-630,-2517],[545,-579],[1159,-252],[588,-1015],[761,-280],[1546,-1605],[273,-1800],[-1215,-246],[-437,-1199],[-494,-3151],[-1601,-1394],[-983,-245],[-1072,415],[-736,1238],[-868,-1366],[600,-1613],[703,-642],[-522,-1195]],[[555292,254004],[-931,-3405],[-1107,-187],[-844,3563],[-1404,-2247],[-2029,-2120],[-2886,-888],[-3039,320],[-1737,918],[-773,4179],[-3023,-5709],[-5629,-2728],[-3602,1562],[-95,-1516],[-1555,-2818],[-1324,-1582],[-4698,2306],[-1665,-1130],[-893,-2377],[-1267,-2362],[-848,-44],[-2100,1129],[-2758,-1781],[-4998,-2650],[-2480,-2136],[-1703,217],[-2015,-1142],[-790,-877],[-749,1221],[-2682,-674],[-1384,847],[-1120,283],[-2385,1367],[-5434,-3510],[-2634,-531],[-815,-1926],[-2040,-286],[-763,1202],[-2870,-3990],[-2634,348],[-5610,1091],[-3933,4144],[-3290,2075],[-4854,6470],[-3737,2966],[-2969,4593],[-3638,6966],[-2818,8210],[-279,564],[-1952,5597],[-10298,7899],[-9601,10066],[-1409,1511],[-5272,7411],[-3280,4524],[-7375,10560],[-1290,1904],[-1587,1687],[-5917,5238],[-855,1752],[-3702,7107],[-2837,5556],[-4932,3411],[-5664,4243],[-7622,7354],[-188,39],[-1261,-5237],[-700,60],[-2903,1167],[-5416,3319],[-378,520],[-2755,7711],[-4426,5487],[-3200,5549],[-443,3085],[-3211,6310],[-3202,8772],[-1245,-215]],[[339540,384316],[189,1791],[-919,161],[262,1196],[-182,639],[844,804],[317,1441],[-501,2218],[-158,2468],[-475,302],[-239,2095],[526,786],[-93,1084],[245,942],[154,2345],[617,1232],[625,-309],[1376,504],[1287,-6],[1655,-632],[471,-729],[952,-345],[696,677],[319,1486],[1402,1299],[14,-1080],[640,-2262],[970,-709],[952,-259],[1388,1410],[967,-228],[1491,1428],[-171,-1566],[653,-117],[577,-709],[710,-130],[1211,868],[1125,2410],[496,606],[840,2304],[556,202],[408,2320],[1142,-649],[1549,-1596],[336,183],[1616,1973],[1040,-100],[2217,-1064],[2050,-2419],[1639,-703],[2167,-2032],[999,-388],[995,312],[932,-254],[1041,610],[596,-106],[1039,422],[633,741],[-375,1713],[276,1543],[-251,962],[221,2016],[-206,1251],[-517,1204],[-59,1534],[1088,1551],[-187,2351],[-128,2473],[-702,877],[41,939],[-424,2001],[-637,1562],[77,1146],[-414,1185],[-68,2141],[595,3153],[883,1575],[135,735],[-295,1735],[-198,3892],[135,1342],[898,1536],[277,1013],[339,3617],[-446,2830],[-455,1897],[-772,1339],[-1998,586],[-1020,1455],[-167,2006],[-331,1180],[-840,828],[-640,2201],[-484,678],[-875,-392],[-1749,-323],[-911,229],[-2169,1365],[-1448,1226],[-1559,2057],[-1092,1003],[-1241,824],[-984,360],[-1220,787],[-1251,2229],[-1574,1458],[-693,-183],[-1552,2778],[-582,288],[-946,1080],[-1193,499],[-1011,1625],[-756,259],[-952,-307],[-963,624],[-1276,2000],[-586,535],[-1038,275],[-874,984],[-1038,-1586],[-774,1200],[-1283,733],[-633,-334],[-858,914],[-1081,1951],[-1861,620],[-1108,1218],[-1466,883],[-706,1555],[-806,719],[-669,-907],[-549,-143],[-2098,3411],[-961,428],[-1412,-534],[-1632,916],[-3063,1276],[-666,588],[-499,1139],[-92,2737],[-596,1935],[246,1787],[-592,3352],[227,2148],[471,1124],[143,1883],[-263,713],[152,2001],[-31,2534],[-858,4392],[-496,836],[-799,3040],[-806,1787],[-725,2246],[-553,1046],[-1142,3481],[-1098,2177],[-383,1467],[-632,1221],[-770,834],[-1611,2334],[-892,1773],[-172,1692],[-753,1214],[-1120,134],[-565,1168],[-33,1591],[-979,1369],[-884,523],[-832,-1702],[-645,120],[-1197,1283],[-563,1146],[-163,1270],[369,2377],[-512,1650],[-644,484],[-378,-600],[-1693,240],[-701,-425],[-1182,1265],[-645,1941],[-424,445],[-884,60],[-1585,1376],[134,1723],[-308,1253],[-1137,1116],[-1095,-276],[-1576,1194],[365,2553],[-637,2556],[-1678,1974],[522,2347],[-390,1979]],[[290336,582445],[644,1731],[1005,1495],[484,387],[991,-31],[564,-366],[794,441],[1259,-413],[999,1421],[1199,2287],[803,358],[1531,1923],[441,1474],[45,2528],[-274,1076],[-928,1793],[-686,1919],[-2457,3238],[-627,2776],[-992,1414],[-1070,2146],[824,3681],[461,1053],[154,1642],[834,442],[1204,1194],[361,890],[667,-419],[771,192],[973,-720],[1013,-335],[503,-1650],[680,-1112],[849,-813],[480,-3548],[119,-2428],[782,-615],[794,-2176],[134,-2315],[786,-760],[415,-1253],[797,478],[911,1584],[1379,791],[132,-1136],[407,-324],[396,951],[587,-282],[-89,-2331],[543,-989],[-390,-1745],[-974,-74],[-912,-628],[-751,-3088],[-790,-1406],[-1727,729],[-1129,-1017],[-775,-305],[481,-3993],[1794,-4996],[683,-3217],[248,-493],[1901,-864],[1663,674],[1993,-1168],[1153,150],[1340,-1737],[1000,-1768],[883,-2735],[1616,-1915],[703,-1405],[1589,-981],[1040,-2195],[647,509],[1555,-162],[992,2139],[151,2337],[1347,3668],[495,605],[1388,-79],[-276,1538],[809,1266],[759,2796],[699,4497],[1163,813],[360,1708],[661,1142],[1077,3223],[735,706],[2529,-946],[1728,-1915],[575,-427],[297,1397],[1476,1824],[1323,1958],[1155,2316],[1606,-68],[1819,450],[382,648],[-95,1125],[472,1834],[2367,2781],[1102,-372],[655,349],[806,-441],[1109,-2432],[744,-852],[565,-162],[774,-937],[1772,1604],[1266,153],[625,-415],[1535,-1563],[363,-1429],[1253,-2513],[1624,-2621],[-96,-1267],[413,-1324],[1072,290],[467,977],[1308,-612],[211,1517],[367,492],[1748,27],[557,331],[1081,3136],[1475,3105],[570,121],[471,-106],[1453,-1558],[1435,544],[781,-38],[1522,-834],[1041,-83],[1132,-791],[1725,-2708],[1387,481],[1585,1490],[1692,605],[1535,1684],[1998,-1009],[766,-1132],[755,-1602],[1961,-2483],[1531,-320],[2113,-1010],[504,698],[842,380],[770,-338],[2161,613],[437,2279],[805,258],[1334,-217],[1219,953],[928,383],[929,743],[676,1118],[1043,-341],[987,195],[869,-776],[1070,-888],[1638,727],[969,-803],[1014,-270],[625,530],[496,-1397],[-61,-4477],[190,-2079],[295,-910],[984,-641],[1507,211],[618,-1893],[374,-3639],[2342,1119],[723,-302],[1841,551],[527,-573],[1157,-82],[1699,-488],[685,-913],[220,-1157],[1082,-1198],[880,-1389],[183,-2377],[-84,-1509],[265,-1127],[758,-946],[1563,-650],[296,-423],[553,-2222],[606,-944],[338,-1292],[1249,-1254],[150,-1127],[671,-1138],[-39,-990],[584,-1250],[962,-407],[2217,-2394],[707,-606],[2834,2561],[987,54],[835,463],[697,-2777],[715,-1234],[-126,-1887],[-830,-2635],[-48,-1155],[371,-2043],[673,-1558]],[[588022,355342],[177,-1090],[-636,-1574],[555,-1132],[1271,-228],[245,-1013],[-331,-1233],[-472,-479],[-736,75],[-1021,603],[-1506,-1115],[-1573,-518],[-397,-939],[651,-1269],[608,-522],[1097,-350],[2602,-1141],[281,-1063],[-820,-1223],[-689,-237],[-2512,830],[-884,-254],[-920,-1137],[-334,-1499],[-35,-1193],[-1851,-2384],[-881,-2428],[-485,-532],[-1683,-135],[-1248,-584],[-2641,-2008],[-1463,-677],[-1584,-1887],[-465,-1252],[-166,-1695],[-1171,-1023],[-89,-3239],[1439,-836],[997,-1458],[456,-1222],[-79,-2641],[897,-1434],[1184,-582],[1523,199],[825,-628],[380,-1535],[769,-1749],[2032,-1322],[962,-2540],[776,-1651],[980,-1209],[232,787],[-537,4164],[555,1664],[858,666],[1352,47],[1343,-2314],[-417,-3688],[225,-1188],[637,-442],[1405,669]],[[685126,601928],[753,-655],[607,128],[1166,-350],[727,-1288],[845,-925],[1951,-169],[728,811],[945,568],[724,1583],[1440,209],[492,597],[545,-712],[146,-2034],[448,-1808],[1028,-419],[1441,888],[1083,1976],[570,1795],[683,989],[1087,2621],[928,920],[205,1132],[1326,1061],[953,2036],[419,-168],[931,-1639],[694,-426],[490,-2613],[929,-1017],[662,-2373],[475,230],[1524,2036],[339,1148],[1119,1024],[1160,2774],[954,785],[419,-155],[261,-1423],[630,-548],[339,-1224],[1399,-1244],[657,-1430],[983,-1562],[1020,-607],[865,-1192],[438,-1010],[159,-1337],[1246,-1097],[927,-1250],[1063,-13],[246,-598],[-5,-2588],[1434,-1956],[620,-2294],[633,-956],[779,-456],[-59,-1686],[799,-926],[996,-1833],[698,-1672],[156,-2516],[1119,-477],[932,-878],[761,68],[704,-1713],[1045,-203],[1509,-1782],[710,-1933],[22,-1645],[522,-1825],[1021,-1201],[147,-2275],[655,-655],[1131,119],[894,-604],[1300,-2330],[-42,-2116],[687,-1376],[390,-1478],[809,925],[597,1348],[692,-842],[591,272],[858,186],[1031,1424],[1044,231],[2308,-98],[1380,1900],[1606,1377],[523,-157],[554,-941],[395,-1325],[1132,-736],[838,-1719],[702,280],[820,-563],[1332,359],[807,-849],[1174,-65],[1723,773],[732,-143],[1012,830],[1316,1501],[863,-117],[244,684],[710,57],[764,2081],[940,-215],[-25,-868],[1001,-813],[1425,-1768],[177,-1579],[410,-708],[-67,-1462],[1669,-1898],[404,-1302],[-135,-2316],[220,-986],[756,-239],[1104,-1538],[674,-1823],[2111,-4595],[1860,2417],[408,-2026],[881,-2598],[344,-2922],[1274,-2127],[626,-1398],[1236,-1056],[687,-254],[386,-1914],[1336,-943],[94,-2233],[703,-1856],[1655,-771],[556,-3635],[-4,-1838],[1193,-1531],[976,104],[967,898],[590,1122],[806,385],[754,-202],[974,1059],[1138,-1805],[499,-1513],[549,-540],[1986,875],[770,1935],[916,1540],[774,471],[938,-1435],[464,-220],[1026,530],[417,883],[1547,-283],[747,411],[1530,-1425],[-209,-2481],[-515,-3031],[-673,-1660],[1258,-1076],[863,178],[1140,-869],[634,-1940],[1145,26],[1313,1148],[533,759],[1526,561],[429,1504],[1445,2491],[395,1680],[1526,671],[758,-1041],[1054,-2021],[1356,-1266],[565,-206],[1121,567],[1619,-1556],[900,-1216],[1798,2127],[2262,635],[1629,-888],[637,-839],[989,-532],[198,-1039],[-132,-1395],[325,-4464],[1762,-1480],[1578,-2443],[60,-968],[-452,-1018],[-564,-2079],[215,-1273],[470,-832],[985,-1005],[719,-365],[1127,-57],[1010,-1314],[25,-2498],[323,-1258],[1348,-2501],[-384,-581],[-1427,-984],[-1247,-1564],[-787,-2818],[-215,-1473],[-683,-952],[-1136,181],[-775,-407],[86,-668],[959,-3320],[-793,-3407],[17,-2165],[-861,-3832],[409,-1058],[1116,-539],[87,-1326],[-685,-1360],[-120,-835],[1036,-1075],[1957,-897],[1170,-128],[1352,1007],[417,-485],[507,-2181],[1217,-2543],[1295,191],[822,-668],[192,-2427],[1253,102],[652,-947],[678,-3342],[887,-715],[613,-69],[554,-1235],[119,-2974],[-91,-972],[-637,-2415],[333,-1352],[-263,-1888],[-702,-1424],[-1561,-2422],[-1076,-1250],[-975,-478],[-1870,-533],[-326,-529],[147,-2520],[333,-2184],[-66,-602],[-1723,522],[-488,-963],[144,-1298],[-762,-1241],[-1342,1017],[-1456,43],[-2712,-1351],[-1450,224],[-613,1457],[-1468,220],[-697,-1604],[-558,-1931],[-431,-297],[-1285,330],[-460,-899],[-1106,-877],[-705,-93],[-1136,-2454],[-580,67],[-937,1003],[-1276,-1600],[-361,0],[-866,1020],[-1723,1077],[-711,83],[-870,792],[-243,1027],[-1465,2255],[-858,1676],[-512,556],[-2368,750],[-1107,881],[-620,1037],[-885,626],[-832,-255],[-650,-790],[-902,-3349],[-947,-496],[-532,-1236],[-2609,-5917],[-688,-2145],[-575,-3573],[-763,-1325],[-1413,-1878],[-2031,-1125],[-938,-1103],[-1011,-656],[-402,-1486],[832,-1921],[-48,-872],[-1529,-2185]],[[757668,386797],[-362,1132],[-954,238],[-968,-908],[-846,-229],[-962,323],[-995,-1119],[-822,-429],[-1372,35],[-1859,727],[-668,1244],[-415,2447],[306,2813],[1163,1026],[101,2356],[235,918],[635,943],[1685,-147],[796,1373],[-186,2707],[134,340],[1400,78],[286,893],[950,633],[571,1365],[26,847],[-692,821],[-548,1460],[677,2090],[116,872],[-97,2066],[-1371,523],[-1403,-833],[-1031,38],[-501,567],[-621,-297],[-520,341],[-1587,-220],[-827,1639],[-82,1305],[-1177,2322],[-1264,2893],[-552,1784],[-627,164],[-533,1338],[-514,454],[-242,1909],[-1227,-592],[-327,-586],[-1561,-629],[-481,753],[-266,2045],[236,3109],[-1178,1251],[-876,355],[-442,1626],[-439,4181],[212,1054],[-773,232],[-634,-422],[-81,1205],[-435,481],[-43,2228],[-452,1240],[193,979],[-458,406],[-792,1773],[-283,1795],[166,3841],[165,914],[-303,1236],[242,1068],[-107,2498],[-259,1624],[-654,2755],[-322,2353],[-963,1797],[-1041,1235],[-1111,673],[-267,2564],[-258,681],[-1234,270],[-166,859],[-1110,2286],[-117,948],[-573,541],[-1353,14],[-1072,1804],[-424,1961],[-1928,1076],[121,1805],[-193,1999],[-683,1811],[-1492,577],[-716,-26],[-586,1285],[-256,1233],[-1512,-1302],[-180,-868],[-1307,-2589],[-1268,-855],[-563,-3230],[-677,-707],[-1088,-2552],[-710,-485],[-1298,-1764],[-727,-2797],[-1965,-974],[-740,788],[-3566,805],[-762,1196],[-230,1087],[-1038,372],[-1407,1127],[-684,839],[-351,969],[333,2065],[434,920],[-30,2023],[-276,3668],[-961,475],[-873,-1105],[-1807,-1291],[-1552,258],[-2679,-2846],[-635,1381],[-1344,1827],[186,1469],[-217,1489],[226,2343],[719,1530],[-129,1266],[-1359,996],[-1481,804],[-1221,-743],[-491,239],[-673,-783],[-1732,-1447],[-1234,-1499],[-993,806],[-1431,2762],[-231,1314],[-119,3180],[137,1457],[1277,1699],[-597,898],[-1068,-328],[-833,460],[-800,-1754],[-1212,-168],[-464,490],[-931,2284],[-615,388]],[[555292,254004],[45,1924],[-656,1182],[151,1599],[-254,1645],[109,2581],[-792,2180],[-146,2498],[-855,1611],[311,1668],[-25,1405],[-724,749],[-155,1396],[-858,1188],[-158,998],[1190,1347],[1164,-227],[1106,794],[1275,141],[648,-1270],[1091,-189],[948,809],[1233,-515],[664,605],[23,1935],[543,831],[196,951],[1715,1420],[268,2853],[-173,2001],[15,405],[1390,758],[2219,439],[1331,54],[601,416],[641,-266],[2168,221],[901,-216],[1584,78],[554,-209],[1591,79],[805,301],[1887,-315],[1211,296],[378,-492],[356,-4383],[663,1437],[1507,-99],[773,535],[1791,636],[535,1357],[956,-53],[632,1188],[385,2916],[-495,2363],[-116,1263],[216,1774],[533,684],[-118,1338],[-360,935]],[[587710,301554],[993,-24],[1590,-866],[603,115],[595,1208],[692,-182],[1464,-1255],[1589,-816],[1291,479],[1088,-1203],[1408,22],[924,-537],[516,148],[682,1801],[1572,-695],[1781,28],[1865,-1164],[1024,301],[747,1242],[2569,-303],[1571,848],[852,-667],[1147,-10],[1855,-802],[1016,189],[1275,1218],[1154,40],[1068,-456],[587,-1648],[1073,-1293],[1021,-140],[528,-47],[848,643],[1069,-2176],[648,-664],[716,1133],[1318,689],[1140,-1900],[418,-204],[866,557],[715,64],[858,1702],[577,76],[1066,1336],[973,64],[1557,1106],[1162,-978],[929,1305],[779,372],[884,1726],[837,-272],[1654,-1411],[1766,882],[2620,-800],[678,895],[2755,-1472],[1946,561],[633,1209],[1758,2363],[651,2787],[881,1785],[670,3609],[383,1030],[1563,2736],[433,412],[279,1545],[498,-700],[-118,-1287],[-1111,-3600],[-6,-1131],[981,-246],[523,-798],[-208,-1505],[72,-1746],[519,-2725],[494,-836],[982,-298],[1521,-870],[832,-2145],[-231,-2944],[95,-2725],[1186,-2381],[3477,-4360],[548,-2400],[493,-746],[-242,-1014],[284,-1486],[-261,-692],[632,-742],[213,-2981],[284,-802],[756,2536],[393,459],[520,1570],[516,525],[892,-748],[-513,-2105],[1077,-1090],[1122,92],[-68,944],[342,1951],[-278,938],[972,613],[1072,-607],[686,219],[873,1765],[1848,1407],[767,2822],[663,367],[84,-1069],[585,-1178],[317,158],[-75,1640],[237,940],[-300,863],[305,717],[-353,1833],[66,1283],[1237,246],[631,-2733],[297,-2229],[819,-1615],[472,-2347],[1242,-497],[1017,353],[592,924],[822,-588],[1171,-2165],[610,254],[1126,-820],[645,-2279],[517,1997],[814,575],[504,1471],[406,382],[1217,-1041],[1058,-1483],[642,42],[299,-597],[1386,-1656],[1937,-859],[1570,-415],[1168,-670],[1475,566],[1190,-670],[1972,-222],[1549,-528],[455,82],[948,916],[536,-974],[722,-378],[1204,-1554],[840,436],[1067,1183],[1134,624],[1042,957],[1602,770],[2724,-865],[626,268]],[[726714,56336],[-2194,4204],[-1782,4858],[-1886,5457],[-1218,3831],[-2739,5420],[-3290,409],[-1374,491],[-1731,961],[-1476,236],[-3153,-267],[-2586,-440],[-8569,-854],[-3220,-497],[-12054,-1084],[-607,-12],[-1814,-798],[-369,-150],[-5377,-799],[-6150,-801],[-4808,3215],[-7093,2771],[-4234,1798],[-6605,2224],[-1939,1131],[-2236,1259],[-3187,5920],[-1749,9291],[-3409,6397],[-1445,102],[-3986,6],[-5159,-788],[-1730,-201],[-4395,-755],[-3182,-33],[-3839,210],[-3329,366],[-5424,1672],[-4039,-1440],[-6412,-2162],[-5597,2387],[-6565,481],[-10114,1044],[-204,259],[-66,2096],[111,1588],[627,1349],[35,2223],[-368,841],[198,1727],[655,452],[1153,-351],[43,2023],[423,-453],[975,244],[310,-805],[716,2000],[-329,2540],[-432,-333],[-1003,2676],[-400,2315],[339,1118],[-760,1033],[166,1164],[-230,721],[-304,3065],[-941,1067],[129,1115],[841,815],[-861,895],[949,930],[-20,849],[538,558],[1345,173],[66,836],[-902,1678],[-191,1394],[737,1196],[745,166],[842,845],[338,1026],[-139,1139],[-836,1618],[-253,901],[448,1701],[-133,1188],[779,928],[-65,1737],[530,3276],[966,916],[180,962],[-346,1028],[-1696,2918],[-1630,976],[-84,597],[246,2647],[-592,1022],[-417,1685],[-2145,2338],[-383,1026],[459,1155],[-572,2131],[210,889],[-638,1345],[262,1513],[683,301],[-305,1202],[-1338,434],[152,800],[1040,-178],[610,1332],[-887,979],[-28,773],[1146,1032],[324,1065],[-531,476],[-519,1845],[802,714],[117,1696],[-625,2380],[-891,-354],[-236,2400],[-541,-836],[-833,33],[43,1740],[730,14],[193,573],[-350,1304],[93,945],[-619,1617],[-544,457],[-543,1925],[-561,468],[-1009,-1153],[-491,280],[-96,1225],[214,1400],[-1141,169],[-1113,659],[-464,1294],[1236,1142],[4,1433],[-638,436],[-107,784],[932,1052],[101,1751],[-677,1262],[331,1649],[-145,861],[1167,4168],[-873,2840],[-1648,1806],[-1248,3023],[-622,4261],[265,4912],[543,2631],[119,2915]],[[887767,215142],[1436,169],[690,-552],[482,405],[569,-851],[398,-1266],[743,147],[498,1228],[826,734],[757,123],[545,705],[487,1714],[537,707],[509,1788],[1592,1667],[621,-951],[634,258],[819,-439],[648,-935],[2523,269],[518,-1110],[839,-754],[724,-46],[1236,233],[1690,-90],[897,291],[178,-2036],[391,-1118],[1072,-872],[915,2137],[824,1334],[2406,-236],[1129,339],[1779,127],[837,-342],[2472,-25],[1948,-551],[2203,-1719],[756,-378],[1128,53],[-284,-3030],[-342,-1655],[663,-375],[174,-1065],[-607,-1186],[-241,-1769],[-1014,-391],[568,-4321],[574,-786],[-213,-3068],[-1686,-1702],[-709,-172],[-524,-1899],[608,-1161],[100,-1498],[614,-1286],[63,-1655],[-997,-179],[-1146,301],[-567,-721],[46,-799],[814,-2901],[102,-1093],[-695,-1651],[-1213,-167],[-830,-1389],[-653,-609],[225,-1033],[1480,-2403],[382,-1208],[863,-558],[834,-1624],[319,306],[1394,190],[769,-447],[495,-1705],[-671,-2433],[68,-757],[1979,380],[934,605],[1112,1483],[1210,-290],[1363,-1323],[1129,-1754],[673,424],[1030,-1441],[1636,-7539],[159,-1180],[-665,-275],[-2663,-4062],[62,-1532],[471,-1229],[-189,-1066],[561,-2124],[447,-1095],[561,-2150],[39,-1345],[-206,-2100],[567,-255],[238,1241],[898,976],[215,1267],[-442,1855],[142,1425],[726,1495],[475,115],[623,1068],[1232,-882],[454,-1692],[624,-3738],[597,-1604],[585,-548],[345,-1017],[1211,-425],[1574,-1143],[1016,-990],[746,-1134],[1230,-3422],[1092,-1597],[649,-1840],[566,-1085],[-116,-429],[220,-2533],[-406,-1227],[-1085,-709],[-597,-2831],[-290,-3504],[263,-686],[763,-383],[712,-822],[614,-72],[984,679],[437,-93],[1682,-1745],[873,-1382],[936,-2239],[152,-942],[-1227,532],[-1246,-541],[-578,-1248],[-765,-843],[-915,382],[-329,-1074],[-801,-1295],[-1866,-1840],[318,-1458],[797,-1621],[854,-660],[452,-1239],[1070,-675],[135,-2613],[354,-2825],[-296,-1360],[65,-1343],[-725,-2897],[2042,-1519],[-539,-1929],[-368,-2345],[0,-3037],[215,-2536],[455,-1963],[1200,-1521],[975,-2206],[-1478,-494],[-3705,-1628],[-1225,-918],[-2409,-2231],[-681,-1581],[26,-1665],[952,-4250],[341,-3355],[1445,-4587],[-89,-1819],[-446,-4106],[-430,-2624],[156,-444],[1907,-579],[2176,-167],[1743,-561],[2012,-331],[2975,114],[330,-2265],[-5,-2823],[-913,-3540],[-625,-1057],[-1452,-3045],[-1663,-1416],[-599,-4165],[-951,-1493],[-53,-656],[-1015,-292],[-534,-1063],[-2070,-1731],[-1845,-1131],[-1818,-2656],[-1095,-677],[-10126,14178],[-913,1197],[-6055,5358],[-7157,6314],[-8372,7537],[-6926,6136],[-3326,3110],[-8946,7916],[-4908,4432],[-5330,4650],[-10048,9124],[-5000,4459],[-6446,5511]],[[887767,215142],[-547,1899],[-1040,-65],[-367,-1276],[-1118,819],[-692,-221],[-1991,3848],[-900,561],[-565,1338],[-403,-192],[-1096,757],[-784,1622],[-407,318],[-1445,2210],[-25,562],[-1341,2011],[-35,1877],[-216,1006],[-880,458],[-324,1292],[-1176,-89],[-692,397],[-2864,-366],[-880,768],[-440,-75],[-736,806]],[[739777,283406],[-25,2178],[682,986],[109,849],[-367,1368],[284,3743],[235,711],[-41,1800],[-921,2451],[-958,827],[-974,297],[-969,-379],[-620,268],[25,3323],[229,1672],[812,1827],[287,2422],[-684,542],[132,2071],[-588,345],[100,862],[-382,700],[-526,-64],[-190,1787],[-567,358],[-167,893],[-555,669],[-1770,3326],[-948,679],[1429,1088],[1360,1687],[605,141],[1425,1174],[952,1509],[599,67],[912,-1072],[1937,-294],[528,-945],[1848,-783],[1419,300],[1632,-888],[1033,629],[920,-305],[663,-586],[793,89],[463,685],[470,-158],[966,927],[618,1832],[-438,1960],[609,1187],[222,1721],[1266,1247],[171,1718],[282,730],[717,446],[402,1069],[900,1226],[1886,1859],[-1750,1650],[-494,1057],[130,1791],[1228,-780],[1095,534],[705,1245],[1524,192],[1584,3299],[639,576],[934,2328],[592,1019],[-330,1415],[839,790],[217,1755],[-834,1087],[-558,-733],[-931,-207],[-967,638],[-217,940],[125,1418],[-806,368],[-878,2054],[-654,396],[-1550,2040],[426,1736],[422,4021],[-127,2122],[-532,1367],[-912,1484],[-1873,66],[-974,1308],[-282,1681],[3081,2567],[151,1325],[587,1229],[-139,3579],[188,1263]],[[757668,386797],[1459,-580],[1432,-843],[930,-1260],[522,-30],[1142,-753],[890,144],[2077,1098],[467,-257],[924,408],[392,1818],[755,425],[869,32],[288,781],[397,2366],[165,3513],[-1142,1426],[-234,738],[16,2164],[647,2113],[157,1883],[849,565],[1920,1786],[454,750],[589,-1297],[1535,-393],[742,931],[1040,847],[1262,1772],[521,466],[1006,113],[1129,550],[-286,-1211],[762,-253],[1330,-1029],[824,-1608],[399,-294],[418,-1402],[1169,-807],[460,-891],[84,-1481],[656,-988],[836,-899],[359,-1128],[83,-3299],[407,-469],[1667,-253],[1439,-1414],[459,-704],[716,270],[1871,-488],[323,126],[1011,1944],[845,795],[-11,1343],[878,1791],[1645,-67],[313,-395],[151,-2228],[1045,-361],[470,392],[841,-215]],[[802032,392850],[-140,-1768],[842,-390],[1789,-2257],[752,581],[886,2141],[2537,1016],[1571,-2045],[795,-1684],[1053,-936],[990,-438],[1423,-1180],[1120,-564],[920,-759],[789,662],[1132,3216],[1036,308],[1018,-1086],[777,-327],[1113,81],[1562,948],[946,1653],[235,1577],[-824,-53],[-1113,1320],[-106,1679],[910,1472],[1007,274],[1734,-1187],[646,-838],[1071,-2679],[958,-1595],[302,-1157],[-387,-2190],[736,-1154],[433,536],[779,2158],[305,1179],[686,1330],[87,1943],[-296,1867],[338,770],[1518,-639],[576,-1657],[-301,-2846],[113,-990],[614,-1270],[751,15],[1515,939],[1035,-746],[1515,943],[2382,3452],[1595,-390],[865,1537],[153,2429],[492,1248],[653,484],[748,-942],[1065,-2832],[-40,-1397],[-906,-1981],[346,-1169],[560,306],[936,-326],[2072,261],[941,383],[1666,-5],[748,-962],[606,-1286],[896,-2642],[1195,-48],[2558,1026],[933,1507],[383,1427],[737,605],[774,-936],[195,-1473],[663,-525],[995,129],[694,-991],[-1705,-3555],[-239,-861],[478,-1021],[1549,-1153],[1856,86],[275,-1514],[-621,-1452],[364,-3122],[-18,-2218],[363,-1384],[842,394],[1494,1178],[404,-27],[357,-1348],[671,-1065],[520,1287],[966,1215],[1951,63],[915,3380],[2006,5540],[746,2331],[1402,2934],[1154,1587],[743,492],[1195,-627],[861,-1364],[134,-975],[-826,-1278],[-33,-709],[483,-1620],[822,-679],[864,1169],[343,1106],[219,1984],[837,547],[879,-1287],[986,-2264],[813,-826],[876,902],[976,-55],[929,-803],[895,-394],[692,94],[892,747],[1192,1518],[605,77],[453,-861],[832,-3127],[1489,-2019],[1985,-1400],[399,-664],[189,-2043],[2614,-2902],[1192,-221],[411,1010],[-520,1309],[-1040,538],[21,1306],[607,1104],[2010,-567],[1475,-2234],[680,-348],[371,1011],[-645,1839],[59,1223],[1952,382],[1435,-1943],[958,-282],[1916,-2087],[1160,-2200],[979,-2365],[1158,-4123],[832,-2132],[629,-1120],[1085,-982],[1215,-278],[658,-667],[2072,-4614],[1171,-1113],[987,388],[1859,241],[634,768],[732,1409],[364,127],[833,-802],[1459,-1982],[1161,-1162],[2659,-1913],[934,-325],[1143,194],[511,1217],[115,2049],[-303,1427],[-773,1664],[-19,1722],[619,606],[1550,-251],[440,-1202],[-335,-2480],[294,-890],[1174,-637],[853,-14],[886,612],[270,1945],[-353,1327],[43,1150],[643,1190],[2668,1082],[1078,612],[1430,1791],[896,-508],[13,-2481],[251,-928],[1095,131],[1465,1810],[1274,515],[1971,-1890],[3129,-1388],[879,-532],[975,-1191],[226,-852],[-1068,-1936],[173,-1078],[937,-892],[1838,429],[449,-217],[1196,-1982],[528,-65],[1317,1824],[860,897],[1135,2096],[383,1226],[842,325],[617,-475],[411,-880],[999,-2977],[1199,-1311],[953,52],[1005,825],[1240,1475],[1360,-470],[1384,-1213],[694,-98],[785,1468],[776,-716],[138,-1523],[685,-1214],[1795,-1068],[1298,100],[1468,689],[1741,-363],[690,-1003],[505,-2545],[-165,-1406],[196,-1654],[769,-854],[846,268],[1553,-364],[2917,-2057],[868,-344],[806,106],[552,944],[-321,1378],[-893,1111],[-1048,472],[-71,1497],[571,1252],[1189,365],[641,-485],[1566,-2917],[366,-147],[-441,-1778],[-497,-716],[-525,-1775],[-580,-906],[173,-1051],[-224,-2162],[-692,-1732],[859,-2668],[743,-980],[63,-2014],[476,-1624],[-445,-678],[404,-1614],[-323,-1220],[101,-1602],[-374,-2305],[-859,516],[-801,-1114],[166,-1126],[-726,-788],[-1031,-1744],[-309,-1668],[-227,-3477],[-375,-1666],[-1436,-2223],[-438,-192],[-568,-1216],[-710,-2315],[-869,-2171],[-361,-2751],[253,-2422],[-38,-2052],[-269,-1904],[-382,-1196],[-1315,-4150],[-125,-2754],[-352,-1084],[221,-761],[-362,-2317],[7,-1455],[669,-1364],[-282,-435],[-1953,-1540],[-602,-262],[-1533,767],[-806,-160],[-743,-939],[-1555,305],[-364,1153],[-994,-527],[-187,-1029],[-949,-191],[-377,644],[-1048,140],[-238,-993],[-957,344],[-1674,-434],[-1539,-777],[-308,-1094],[-516,288],[-1274,-1598],[-1428,-1444],[-919,-1221],[-950,-755],[-347,-901],[-713,-607],[-1100,-2283],[-244,-2468],[-938,-70],[-975,1827],[-669,-592],[-354,-67],[-813,1647],[-777,-186],[-1461,519],[524,1171],[-136,881],[-1108,597],[-245,-1434],[146,-1041],[-685,-1005],[-1179,1018],[-863,-1188],[-960,804],[-1463,-703],[-439,1314],[-978,591],[-337,1243],[-1010,-1031],[-553,1133],[-949,205],[-137,-1441],[-1776,512],[-444,381],[-794,-467],[-1441,-33],[-862,352],[-2757,-770],[-2156,1170],[-721,-1073],[-427,-1485],[755,-2643],[124,-2309],[-87,-1570],[169,-3501],[1382,-2669],[-868,-1378],[-1157,862],[-1355,45],[-1756,2019],[-834,-270],[-986,394],[-981,-52],[-493,-395],[-298,-970],[-632,-860],[-1805,1829],[-1608,530],[-551,1297],[-1560,1291],[-1086,1970],[-1652,517],[-1412,-160],[-1179,688],[-744,1152],[-720,-190],[-728,419],[-1608,-750],[-529,91],[-894,-123],[-1770,-1020],[-1699,-417],[-1241,447],[-1000,-1398],[-924,485],[-838,41],[-985,-938],[-1015,-264],[-1238,-2092],[-707,-572],[-1211,-112],[-1183,-447],[-952,-2995],[-2098,297],[-569,422],[-187,933],[-764,-62],[-1182,2122],[-490,238],[-1002,-362],[-490,546],[-981,-398],[-1702,496],[-296,471],[-909,-585],[-1147,248],[-930,1614],[-1349,433],[-1270,819],[-635,148],[-1140,-549],[-513,-957],[1695,-60],[231,-211],[1016,-2807],[648,-2275],[468,-806],[288,-1715],[56,-1603],[-167,-1380],[42,-2423],[727,-1788],[959,-794],[807,-1690],[1268,-2148],[417,-1777],[749,-1442],[21,-820],[-981,-621],[305,-725],[-615,-995],[-423,-1463],[95,-1344],[-271,-2735],[-348,-877],[-134,-1535],[-398,-2061],[-321,-628]],[[588022,355342],[-659,676],[-939,-299],[-1058,2448],[-997,-985],[-1115,244],[10,1651],[-459,3575],[-695,423],[-203,1762],[-1388,-596],[-953,3792],[-768,-304],[-175,-1866],[-526,-689],[-486,525],[3,1224],[68,2726],[-806,1986],[-459,2142],[249,7677],[-732,2296],[325,684],[945,895],[875,1332],[-1567,3593],[-448,1879],[-800,941],[-711,1605],[-270,1977],[-721,805],[-1652,869],[-665,792],[-565,-1656],[-705,579],[-6,1276],[536,1141],[1689,5020],[706,768],[501,1034],[563,2015],[914,1354],[21,3152],[-205,516],[-947,133],[-1097,525],[155,2131],[895,2696],[-709,370],[-648,-224],[-555,388],[-924,-562],[-1819,-439],[-800,-991],[-510,1415],[55,3026],[-257,1292],[-853,2063],[-76,1850],[-366,709],[-1770,482],[-1136,925],[-711,923],[-2816,5120],[-1605,455],[-1357,53],[-2511,2094],[-936,1682],[-749,650],[-1137,2521],[-434,1919],[204,774],[-404,868],[2,1611],[598,983],[-66,2004],[704,2237],[725,1531],[268,1704],[650,861],[1556,201],[686,2766],[714,797],[195,1045],[1179,1652],[674,623],[-1501,1178],[-700,1324],[-595,608],[-1831,1140],[-1564,-134],[-1379,-739],[-1647,310],[-382,-1038],[-868,364],[-698,-103],[-502,695],[-1362,837],[-791,839],[-938,-168],[-488,423],[-1108,2126],[-657,-971],[-1100,1181],[-755,-225],[-641,956],[-1363,86],[-946,2254],[-951,-118],[-753,483],[-99,706],[-1745,1171],[-1077,1320],[-1212,225],[-1115,636],[-1378,221],[-693,-609],[-661,595],[236,1160],[-244,1697],[-842,1081],[-815,2125],[-355,1839],[-916,1963],[-1205,1429],[-592,2262],[-923,869],[-2553,585]],[[638375,668999],[859,-423],[1343,165],[2052,-1370],[1526,779],[1847,481],[905,-115],[963,-1614],[2041,-2445],[1515,-1143],[1233,-3557],[204,-1771],[382,-615],[102,-1245],[636,-2596],[766,-2091],[1110,-364],[1223,725],[1128,-789],[670,-1367],[109,-1182],[770,-1814],[1958,-407],[1819,-962],[1464,-1280],[2107,362],[1157,1547],[426,-20],[1083,-1494],[648,-1652],[460,-504],[2487,-937],[860,132],[1087,-2044],[833,-835],[650,-1290],[94,-1340],[-115,-3795],[526,-1588],[1572,-1664],[365,-641],[808,-2672],[217,-1307],[635,-73],[1278,-1174],[852,-2348],[812,-3030],[1163,-2353],[939,272],[476,-1350],[-63,-1985],[-592,-2513],[28,-2671],[-219,-2789],[-448,-2315]],[[685126,601928],[-443,-1669],[-400,-690],[-604,-1916],[-252,-1711],[-1148,-975],[-843,-1978],[-737,-2681],[-423,-2215],[-445,-1284],[-550,138],[-1841,3373],[-2544,1697],[-1312,533],[-1441,220],[-1355,482],[-1594,-379],[-1149,46],[-1272,-1647],[-763,-216],[-1925,666],[-718,-463],[-1322,-1446],[-182,-1520],[887,82],[414,-2874],[-432,-2632],[-127,-2052],[262,-2704],[300,-1447],[471,-1095],[511,-3219],[953,-3544],[91,-1512],[430,-1482],[-186,-3083],[453,-1591],[281,-1769],[-383,-3758],[-300,-1273],[-527,-1886],[67,-2108],[-242,-1347],[-1244,-450],[529,-2015],[617,-1390],[641,-892],[1415,-289],[962,656],[-71,-1827],[-697,-1980],[-479,-521],[-430,-1364],[19,-1556],[534,-1046],[1196,-625],[755,-803],[1480,-842],[732,-1334],[840,-363],[-28,-1416],[756,-2033],[453,44],[-405,-2357],[-1005,893],[-571,37],[-493,-1415],[692,-604],[482,-3122],[1331,-2004],[531,-1245],[196,-1943],[-1145,-2726],[-726,-683],[-197,-949],[341,-2927],[-304,-1200],[-692,-1316]],[[670801,507392],[-928,-488],[838,-1416],[15,-1192],[-1932,-3848],[-867,123],[-665,1418],[-144,1217],[-446,-144],[-1552,-2734],[-1246,-1028],[-1140,331],[-715,1703],[-1200,1958],[-613,201],[-1059,1215],[-1297,299],[-950,2235],[-1960,409],[-476,1285],[-804,-3705],[156,-719],[382,-1176],[288,-4629],[-213,-1549],[-960,-681],[-702,-83],[-506,-1942],[-615,-340],[-228,-1028],[-332,-2033],[-1195,-4381],[-444,-776],[-686,-3058],[-627,-1458],[-1762,-1756],[-926,-2088],[-56,-2704],[-843,-1208],[-433,-1508],[-867,-1865],[-559,-788],[-859,-177],[-927,-3874],[-312,-3905],[837,-430],[621,168],[1751,-1442],[722,-2693],[-3,-792],[669,-898],[-12,-1683],[315,-1068],[418,-2751],[-378,-989],[264,-1216],[-683,-1383],[96,-1898],[-867,-193],[-17,-1251],[559,-3799],[-608,-628],[-1168,281],[-6,-2156],[-900,613],[-757,-2103],[-1074,-1020],[-1976,-872],[-21,-925],[-635,-1376],[317,-745],[1254,-566],[937,80],[1333,-1516],[158,-1214],[488,145],[442,1387],[180,1707],[458,336],[1979,-1350],[581,-1689],[-489,-1551],[243,-1405],[674,-65],[947,-686],[448,-1075],[922,141],[705,-619],[479,-1977],[875,-1004],[1157,-37],[1288,1641],[589,-869],[-195,-1043],[937,-3799],[496,-556],[1291,-519],[715,-1195],[329,-1760],[2090,-4354],[-170,-1702],[433,-1353],[-965,-1627],[268,-1026],[784,-671],[-1591,-3360],[-31,-349],[916,-2591],[111,-724],[-940,-2300],[25,-598],[924,-2330],[-410,-3107],[-324,-865],[-585,-1111],[-767,-62],[-251,1299],[2,1445],[-749,1579],[-703,3187],[-377,-181],[-501,-1573],[-892,1795],[-459,377],[-1206,-1170],[-777,-420],[-388,-783],[-79,-1851],[-1175,-225],[-678,2528],[-459,334],[-2312,-2415],[-1205,1185],[-824,-106],[-761,-1186],[-1466,1301],[-701,260],[-490,-1332],[-1326,748],[-799,105],[-522,1238],[-1090,165],[-769,491],[-1596,60],[-480,-2075],[-1197,-1382],[-2333,-1035],[-555,-491],[-540,-2477],[-557,-1124],[65,-1911],[-268,-1157],[-1080,-1414],[-908,-1777],[-419,-1950],[-813,-616],[-1623,494],[-1440,1884],[-1090,636],[-822,-183],[-729,2171],[-1178,1475],[-735,-202],[-826,-1064],[-381,-2432],[-492,-1146],[-395,-134],[-1721,315],[-619,-954],[-24,-1045],[-689,-1573],[-606,-148],[-659,630],[-813,2365],[-1092,2237],[-556,220],[-1393,-1131],[52,-1036],[-468,-1624],[-689,-98],[-1599,767],[-1096,-852],[-689,-1266],[-713,-177],[-1588,1736],[-1240,309],[-1073,1288],[-545,193],[-793,-462],[-1060,345],[-1419,-556],[-347,-2056],[-888,-1506],[-22,-2136],[-590,-911],[-379,-1463],[-1030,-2158],[-451,-1596],[-120,-1550],[-1587,-2819],[-689,-504],[-321,-1455]],[[519052,495767],[-822,-647],[-296,336],[0,1889],[-398,2834],[-311,621],[-1183,1055],[-923,-24],[-260,1504],[-556,558],[-267,1256],[-628,260],[-361,1156],[-447,298],[-1099,-610],[-1173,2273],[-1114,61],[-456,845],[-882,484],[-189,1069],[-666,1105],[93,1503],[-970,1144],[347,1378],[-465,427],[-344,1556],[67,994],[-584,1150],[741,652],[170,825],[-1571,1701],[-1144,410],[-543,-953],[-1291,-1021],[-727,420],[-551,-383],[-831,-1520],[-1078,270],[-279,437],[-1456,769],[-930,1285],[-1258,-208],[-1071,903],[-606,1221],[-616,250],[-1312,-26],[-237,476],[812,2060],[462,1673],[38,957],[-1216,1088],[-1526,351],[-373,-190],[-1098,766],[-1094,-155],[-566,-893],[-351,-2029],[-83,-2045],[-1050,-1323],[-831,-2263],[-106,-1190],[-844,921],[-604,-314],[-451,-1405],[-848,-726],[-135,-795],[-669,-550],[-796,2199],[-299,1967],[205,2034],[-739,2534],[-764,242],[-790,-974],[-623,-1629],[-1174,65],[-1018,960],[-821,-155],[-1655,1887],[-519,169],[-1047,1086],[-2359,772],[-714,-53],[-2864,967],[-2149,3240],[-1004,690],[-792,-378],[-1076,451],[-1307,958],[-1490,1888],[-1672,879],[-1958,2150],[-1065,2539],[-1074,476]],[[450478,544652],[711,1184],[-117,668],[658,2412],[156,1242],[-614,1062],[20,757],[774,1878],[568,848],[-38,1117],[-500,1459],[-330,2776],[330,772],[-111,1451],[280,822],[-125,1353],[443,1841],[-236,2399],[700,3693],[-246,994],[682,1669],[458,3528],[2617,2350],[793,1567],[180,1280],[634,597],[867,-146],[657,-1103],[253,782],[916,513],[230,695],[-38,2470],[-506,1973],[236,1166],[1187,1453],[447,13],[958,981],[430,1749],[317,286],[-283,756],[-1053,743],[-1097,420],[-495,1254],[-640,526],[-713,-720],[-864,963],[-1214,771],[-858,-430],[-872,412],[-447,1747],[-579,1109],[-897,534],[-330,977],[-1035,1105],[-53,1871],[-1038,2261],[-142,1964],[-352,422],[-1120,3108],[55,3210],[-140,595],[-1315,1543],[-1676,3614],[-1040,760],[-125,1404],[-405,1347],[260,518],[-629,1096],[-1456,3839],[-58,1346],[376,1048],[74,1555],[-241,2183],[-545,1464],[-873,888],[-1370,835],[-1525,98],[93,1729],[659,681],[332,1334],[-173,1601],[243,1682],[-1016,-79],[-306,1799],[272,1806],[-408,2428],[52,1131],[944,2023],[1696,1435],[520,1370],[1198,916],[1073,1350],[78,1050],[-345,2113],[-644,759],[-52,793],[630,695],[797,2374],[719,628],[257,5290],[-160,523],[-1879,1445],[-800,962],[-642,1463],[-706,965],[-1000,1957],[-603,1929],[-946,831],[-340,2419],[88,2193],[300,1023],[624,3618],[-175,862],[-926,1030],[-428,1747],[-1570,371],[-867,784],[-291,1007],[325,2236],[-855,1963],[-332,2573],[270,1324],[2200,352],[2633,1144],[697,-380],[546,286],[2099,2232],[490,1165],[18,2988],[-451,1736],[-16,1243],[-650,3608],[59,1482],[1933,3114],[1347,1913],[1063,1072],[1580,282],[1418,1506],[334,1008],[-246,3036],[247,1475],[1279,581],[307,1825],[689,1972],[764,1649],[165,1593],[-266,2472],[140,1394],[329,681],[860,562],[808,2706],[22,2481],[-823,2033],[74,334],[-677,2338],[332,2076],[656,847],[83,1359],[397,1731],[781,243],[543,2209],[370,500],[-186,1373],[130,3150],[485,2790],[978,-1017],[582,-40],[655,-720],[904,-238],[917,-710],[893,1029],[1658,-269],[1346,-1286],[856,-559],[1188,138],[4052,-1374],[1163,299],[1108,2651],[1042,678],[1128,1786],[553,-224],[1583,863],[563,668],[1189,2669],[2172,1732],[658,1281],[371,2507],[-750,2944],[-55,1917],[170,788],[982,785],[1580,114],[2213,-1160],[896,-640],[1849,1088],[763,1096],[1150,-531],[602,417],[168,1052],[1300,1404],[913,32]],[[612969,744548],[-195,-1921],[571,-1760],[63,-1690],[745,-1219],[15,-3209],[845,-2436],[419,-570],[-92,-2727],[890,-1263],[392,-88],[1307,-1735],[1692,153],[540,-381],[533,-1040],[1286,-1774],[538,-2121],[906,-2160],[1311,-1375],[-315,-1614],[14,-1342],[-368,-1366],[640,-2890],[443,-781],[919,-2493],[134,-1002],[-98,-2688],[302,-2189],[-303,-1912],[-805,-1803],[650,-1009],[1636,-418],[1580,625],[725,-571],[1226,-35],[914,541],[617,-674],[208,-1671],[1171,252],[604,-302],[-502,-2388],[177,-900],[1092,-1153],[459,-2827],[1036,-1988],[-712,-2309],[-35,-1454],[372,-1515],[632,-1357],[1216,-1110],[556,-3468],[124,-1640],[-315,-1899],[-354,-883]],[[638375,668999],[-880,150],[-1864,1426],[-585,-340],[-1327,-64],[-704,-1576],[-1002,-2891],[-1143,-2427],[-585,-300],[-1138,-1469],[-288,-2303],[-440,-1054],[364,-1530],[-511,-3229],[114,-1934],[-838,-2541],[-354,-3029],[-387,-1892],[-759,-1716],[-1226,-696],[-743,-1656],[-1716,-2083],[-1040,-819],[-725,-2064],[-209,-2246],[-386,-1848],[47,-1056],[-476,-845],[-753,-566],[-798,-1848],[-843,412],[-540,-226],[-825,-1241],[-318,-1396],[749,-3295],[33,-3905],[-122,-1883],[-614,-730],[-451,-1663],[-749,-1573],[-1474,-2090],[-502,153],[-1027,-1273],[-640,-1410],[-1097,-306],[-1787,-2652],[-1043,-1149],[-1676,166],[-885,-874],[-1522,-315],[-134,-698],[531,-3288],[12,-1841],[425,-1909],[539,-3583],[-173,-2014],[-651,-1932],[-1481,57],[-1371,-425],[-1046,-584],[-680,-1685],[-67,-1405],[-984,-1737],[-827,-1041],[-624,-1312],[-1052,-806],[-1332,-1543],[-1615,-1000],[-336,-947],[813,-997],[140,-905],[1243,-1912],[583,-1298],[-31,-1418],[268,-2395],[-142,-785],[-1083,-1827],[-461,-364],[-645,-1413],[-1108,-3169],[-352,-425],[-677,-468],[-2512,-202],[-1828,276],[-2099,1157],[-363,-1459],[-567,-963],[-569,-1995],[-202,-1669],[-480,-900],[-1290,72],[-915,-210],[-1260,1066],[-1191,320],[-1488,690],[-757,-134],[-553,-588],[-1154,406],[-1003,-289],[-606,1492],[-799,4021],[-454,1322],[-1133,1510],[-967,-155],[-329,539],[236,1981],[-1246,1137],[-491,1371],[-1918,544],[-623,3831],[-280,377],[-1382,-833],[-768,1143],[-2447,511],[-606,335],[-1594,273],[-1106,-813],[-1416,-559],[-1282,1305],[-1228,781],[-299,-380],[-102,-1527],[-316,-751],[482,-679],[-94,-1339],[-1926,-2496],[-207,-703],[-261,-2676],[-667,-1489],[-693,-3449],[-539,-813],[-568,620],[-81,1094],[201,2716],[-1224,-303],[-2088,-911],[-851,573],[-744,-1219],[-863,-571],[-619,483],[-342,888],[-1488,-123],[-1809,-2293],[-918,-220],[-402,-1087],[-1948,-1227],[-483,-18],[-490,-1250],[-1084,-234],[-363,-467],[-1452,-304],[-2264,-1101],[76,-835],[-883,-1394],[-963,140],[-1327,-2765],[-639,-435],[-385,-1356],[-322,-3272],[-341,-1523],[2,-1337],[-609,-2550],[-533,-1668],[-936,-1102],[-477,192],[-966,-1574],[-2476,87],[-862,-678],[-514,-3177],[-24,-1538],[1259,-1236],[337,-1027],[1979,-2119],[501,-1168],[1254,-430],[-72,-1537],[397,-985],[49,-1951],[671,-2932],[-245,-1837],[107,-2870],[-318,-1924],[231,-2199],[-51,-2225],[-707,-2074],[-807,-1392],[-554,-2211]],[[612969,744548],[-688,54],[-1065,699],[-972,181],[-660,634],[-523,414],[-1472,77],[-710,-646],[-1189,-378],[-608,289],[-820,-311],[-626,635],[-720,-447],[-695,125],[-1132,689],[-893,-624],[-2037,-308],[-803,148],[-1106,1136],[-405,1248],[-731,1328],[-703,261],[-1376,1617],[-741,448],[-1021,158],[-792,632],[-664,981],[-314,1783],[-1311,289],[-1382,1145],[-461,874],[-681,175],[-939,1002],[-681,51],[-919,1416],[-751,163],[-1557,-1044],[-1170,12],[-1432,624],[-1357,-3],[-1638,375],[-1186,627],[-2111,2820],[-1413,-589],[-420,347],[-1145,2151],[-1184,806],[-808,1357],[-409,1904],[471,2286],[-214,1982],[60,2053],[-1485,928],[-890,100],[-1595,-504],[-1723,-1401],[-614,-65],[-768,-827],[-956,-123],[-1524,-2197],[-1003,-2904],[-1737,-2649],[-1003,-655],[-1828,1549],[-846,527],[-1478,-263],[71,1023],[1210,2648],[-10,1936],[-721,1039],[-697,121],[-996,946],[-690,-772],[-1021,-1806],[1447,-2723],[-421,15],[-1172,1136],[-234,-1387],[-1777,-1654],[-1146,-1588],[-711,-1587],[-585,-1994],[-310,-1776],[-582,157],[-1995,-2205],[-363,-1095],[-505,-2899],[-1104,644],[-2475,157],[-813,423],[-1224,196],[-908,2086],[-1011,794],[-584,889],[-1746,910],[-406,835],[-917,547],[-667,1568],[-1490,1317],[-702,237],[-570,1067],[-936,-692],[-1999,67],[-1503,-1821],[-971,-61],[-1197,2718],[-809,1059],[-1242,1153],[-1110,-1099],[-1475,607],[-1325,232],[-975,1289],[-1664,1031],[-727,1956],[-643,715],[-898,341],[-1020,764],[-2238,210],[-1412,417],[-1071,788],[-231,574],[-176,2309],[-353,1158],[-607,4164],[-1869,2673],[-17,2230],[179,1786],[-8,2646],[-424,1355],[-946,998],[-910,1321]],[[495013,797803],[361,2021],[47,1626],[1012,1783],[361,2084],[415,755],[2133,606],[771,739],[993,2425],[1419,1737],[875,1434],[990,-1300],[1074,101],[2281,-1298],[1946,541],[836,651],[631,2626],[1018,1244],[329,1064],[-187,1131],[-435,562],[693,1395],[-240,4061],[177,1041],[-782,1546],[545,3978],[100,2680],[-964,1374],[-983,-1642],[-2290,-1568],[-892,542],[-1395,-236],[-754,677],[-1535,2136],[-340,698],[-726,167],[-1813,1703],[126,1500],[1037,3190],[-325,845],[-602,275],[-848,-457],[-310,-1038],[55,-1590],[-1090,-1169],[-891,1002],[-1173,805],[-1957,751],[-1232,149],[-2045,-228],[-1163,561],[-1419,1322],[-761,176],[-810,2167],[-2346,1871],[-478,748],[-1133,787],[-1769,2226],[-1099,595],[318,946],[619,3268],[763,2613],[61,1444],[-532,1466],[158,2403],[1475,2085],[1406,-509],[450,472],[327,1293],[204,2149],[1085,-3261],[507,-623],[804,-214],[1455,-1261],[725,170],[768,929],[1441,-1187],[369,-1369],[832,-1420],[927,-204],[1997,-3140],[862,170],[817,-1967],[696,-413],[486,321],[797,-461],[1014,-28],[2037,-911],[710,85],[1639,1002],[1252,2948],[815,1350],[988,790],[1709,2786],[1340,3855],[785,368],[1872,-823],[876,755],[1058,1711],[1020,-114],[891,642],[580,1228],[-135,1639],[532,2482],[-422,3726],[147,1179],[696,1352],[638,593],[759,85],[2787,949],[406,606],[9,1093],[-367,1329],[-808,1530],[394,2097],[-178,1345],[401,1763],[375,3703],[-732,1857],[-657,575],[-1856,1031],[-199,1456],[-655,6726],[-10,2211],[-505,2372],[240,1439],[-330,4009],[-1959,615],[-357,-1066],[-879,-1077],[-632,-369],[-1211,78],[-1618,726],[-756,7],[-1498,-444],[-690,304],[-1024,1784],[-719,665],[-575,-565],[-202,2285],[372,1672],[165,2570],[-158,2357],[-957,727],[-147,1312],[544,2047],[-271,1245],[-728,1437],[1355,-614],[472,864],[84,1448],[731,448],[647,1682],[968,1294],[871,424],[763,1743],[686,995],[1633,569],[501,1080],[136,1056],[459,760],[-91,2153],[800,1463],[1041,-150],[499,407],[1033,1731],[337,913],[952,1311],[753,2051],[714,656],[239,753],[1445,1630],[265,953],[501,-36],[1449,640],[346,1890],[-327,2434],[-657,2877],[-1085,3364],[-89,1308],[1346,1291],[1149,2868],[864,1822],[808,2229],[134,1763],[-649,1703],[70,1491],[1232,2373],[517,1906],[1931,767],[372,419],[408,3113],[1343,3226],[750,1455],[1483,1300],[1737,-1351],[784,-302],[-124,-1219],[301,-1397],[627,-1654],[1104,-1363],[528,-1541],[756,-1165],[1305,-929],[1419,96],[1628,1458],[1279,2035],[1066,2242],[2373,1097],[1073,1072],[442,-1159],[977,-1212],[117,-1040],[669,-1050],[829,-2091],[1168,-375],[1335,-1644],[2379,-1128],[1533,-25],[268,-1115],[635,-1109],[930,902],[2337,173],[744,-1264],[1166,-134],[466,-1035],[183,-2212],[926,-2380],[68,-1068],[926,-3294],[1238,-1765],[559,-1396],[694,-2926],[882,-835],[240,-2423],[1162,-1598],[754,-3295],[552,772],[1201,3094],[1499,2306],[940,990],[1077,2939],[571,-24],[1403,-1491],[1540,-397],[487,-833],[1166,1074],[853,-566],[1143,1492],[525,131],[759,1321],[905,693],[1589,1595],[1063,1688],[1060,-909],[857,421],[2047,67],[1311,-298],[709,862],[621,-104],[1021,-1338],[373,-1348],[650,-467],[1450,298],[1302,1372],[1218,2025],[1003,216],[2158,-417],[534,1210],[899,214],[1661,-1903],[1242,-112],[916,-371],[1491,-2222],[1390,-764],[1425,571],[1107,-1216],[829,407],[778,2235],[1128,430],[374,1803],[1312,-352],[517,-490],[2446,247],[2132,-1704],[715,-800],[1410,-329],[1881,209],[494,386],[1265,-531],[826,130],[1163,1070],[919,-836],[415,-2620],[603,-158],[1340,-1622],[1091,-674],[1973,311],[42,-2454],[769,-564],[637,-2720],[1245,-1478],[455,-1279],[209,-2431],[743,-1074],[1176,-863],[1845,1265],[1290,-561],[1496,1259],[744,168],[785,-1007],[2022,-1844],[974,224],[1254,-583],[2640,-4355],[890,-957],[901,1024],[2163,588],[1407,-326],[835,-874],[1324,-1923],[1051,-1251],[833,193],[1468,-647],[1857,-32],[2459,-1279],[1286,-2315],[559,1338],[1655,1847],[1214,645],[411,-3141],[430,-1193],[1055,-982],[835,-1676],[1341,-2162],[1276,-2845],[1031,-704],[198,-1053],[1194,-3224],[129,-2512],[-62,-1668],[1867,-2816],[891,-728],[615,-900],[299,-1997],[536,-332],[1477,780],[676,715],[1207,322],[900,-39],[844,429],[734,934],[1819,-142],[1266,-943],[1313,503],[-587,-1270],[-394,-3242],[206,-2185],[-159,-1766],[314,-1035],[704,-622],[140,-679],[-619,-2545],[52,-1061],[500,-1295],[-178,-1384],[510,-2208],[625,-1878],[591,-996],[205,-1304],[-261,-775],[110,-1619],[-226,-1822],[859,-2247],[-485,-912],[-393,-2431],[-431,-694],[-1579,-677],[-524,-2665],[592,-1191],[72,-1276],[643,-2909],[-1815,-2451],[-855,-1714],[-696,-37],[-488,-860],[-1421,282],[-1046,-40],[-985,758],[-627,959],[-862,-850],[-414,-1377],[-162,-1685],[251,-1081],[811,-693],[142,-938],[648,-524],[354,-1121],[-298,-2296],[101,-1186],[-416,-2987],[-1380,-2843],[-133,-1021],[-684,-1335],[-513,-2221],[334,-3532],[-18,-2107],[-435,-2040],[-2485,900],[-3433,1976],[-2319,-1158],[-2027,-1707],[-646,-2599],[-511,-811],[-2049,-1183],[-1479,-265],[-1059,57],[-1126,-926],[-2152,-1253],[-288,29],[-1034,1563],[-873,2124],[-1147,1315],[-1610,1377],[-574,-252],[-1879,-2511],[-1942,42],[-742,411],[-946,22],[-511,-532],[-567,-1689],[-818,-851],[-1840,148],[-1238,1033],[-761,-11],[-634,-534],[-1031,687],[-1597,-127],[-471,1111],[-710,164],[-248,861],[-1155,-655],[-1518,2522],[-986,692],[-669,-642],[-1340,-551],[-813,-1332],[-8,-496],[-816,-3639],[-1696,-3324],[-1343,-1407],[-1936,-1151],[-284,-646],[170,-1576],[-1005,-3597],[-404,-2157],[617,-4020],[617,-1030],[977,-2395],[981,-3833],[592,-450],[1945,-2490],[948,-1385],[1277,-307],[670,542],[361,-350],[800,-1995],[469,-614],[565,121],[259,-869],[-41,-3792],[-979,-2619],[-355,-1771],[-480,-4470],[-1018,-1895],[62,-844],[-811,-1360],[-384,-1169],[-1344,1594],[-534,1145],[-827,751],[-605,1560],[-845,189],[-478,921],[-1471,-261],[-664,1667],[-739,1271],[-1280,258],[-405,773],[-1163,430],[-638,948],[-186,1093],[-1512,856],[-708,1567],[-1163,530],[-726,825],[-1557,334],[-1122,-388],[-614,-740],[-163,-942],[-645,-8],[-202,-1301],[42,-2292],[-705,-2174],[389,-1842],[-498,-2551],[20,-1185],[-525,-2698],[196,-2146],[366,-1131],[-505,-1583],[164,-1951],[-337,-969],[56,-991],[806,-1143],[-1495,-2235],[-627,-120],[-455,-1186],[-1564,-2024],[-2235,-2215],[-1312,-413],[-1180,-115],[-1717,360],[-627,-120],[-872,502],[-280,-340],[667,-1532],[705,-725],[1907,-3066],[439,-403],[115,-1512],[452,-2429],[785,-2604],[647,-1496],[1502,-2777],[666,-638],[1654,-3479],[1262,-858],[727,-935],[77,-1625],[-1780,-1719],[-865,-186],[-1159,175],[-932,495],[-1347,1375],[-756,299],[-897,-115],[-694,499],[-1266,-736],[-1251,-1422]],[[726714,56336],[505,353],[1443,1896],[266,1661],[-147,755],[1723,2576],[678,382],[340,764],[-513,2543],[-842,491],[-990,1710],[-1100,148],[-361,1544],[-782,1255],[-223,1627],[302,940],[-247,1884],[613,952],[-431,1231],[667,908],[936,362],[360,1317],[115,1946],[370,560],[150,1689],[326,557],[-56,1909],[377,1294],[-333,386],[-767,-609],[-201,1601],[330,793],[-1077,337],[-231,1004],[488,1847],[-37,1388],[-977,395],[722,1005],[-513,712],[1097,2050],[-397,1973],[380,498],[-576,1241],[365,820],[633,-206],[41,1805],[962,-420],[295,1748],[664,2703],[-557,409],[-384,1689],[808,1435],[412,3344],[302,369],[-107,1633],[314,854],[-495,1196],[-160,1369],[-617,1475],[-312,66],[-109,1708],[-687,1333],[-431,1586],[328,867],[-156,1207],[-1035,1050],[-310,985],[22,1306],[-700,959],[-581,1490],[162,3191],[-1010,635],[139,1254],[-691,217],[-639,832],[-1,1084],[-450,782],[-258,1241],[-909,242],[-537,2172],[709,1278],[211,985],[601,586],[-159,688],[320,2452],[-872,724],[757,2663],[916,908],[52,1644],[429,694],[441,3866],[839,-92],[621,562],[283,1275],[-7,2625],[411,984],[262,1683],[855,759],[287,1474],[923,2407],[529,396],[731,2645],[68,1181],[-406,500],[281,990],[-320,1385],[-247,507],[265,3738],[-205,1513],[298,1240],[-113,737],[-662,1133],[-26,1594],[-506,1289],[10,1151],[-314,1050],[-602,529],[-59,975],[-730,1277],[475,1075],[-82,1036],[-759,1697],[524,1151],[722,96],[120,4634],[-404,2184],[367,1440],[-339,839],[532,1078],[-11,1150],[322,1117],[498,73],[206,1098],[-392,1872],[169,1188],[-161,1900],[426,1423],[-658,1928],[369,1708],[-99,1239],[407,306],[-18,1093],[-373,1607],[84,1122],[512,1044],[103,800],[-1184,262],[353,1023],[84,1558],[-888,276],[246,2322],[-1150,388],[344,1135],[-69,1151],[-470,1776],[432,1537],[60,1220],[-228,2073],[-778,1538],[-264,2046],[-567,593],[-62,1189],[-498,768],[68,1692],[460,210],[380,1187],[-440,1207],[336,1680],[-99,1224],[-454,2100],[-465,1055],[136,1460],[-594,1373],[78,997],[-493,471],[-483,2607],[369,1880],[145,1809]],[[725128,278341],[809,116],[1643,1537],[749,-173],[538,797],[1088,-93],[1110,-2873],[964,-943],[1011,-2954],[571,-1235],[958,291],[475,1172],[890,-201],[558,-704],[912,2398],[36,1087],[-492,1423],[1340,1319],[641,1368],[465,2123],[383,610]],[[739777,283406],[344,-863],[1051,-3655],[-59,-1942],[1661,-658],[1015,455],[1720,255],[2224,-188],[1321,-455],[2739,1694],[894,927],[791,277],[721,1910],[480,1899],[642,845],[1181,-1284],[690,-187],[934,-1170],[1072,-837],[397,547],[844,-27],[699,970],[1479,-1293],[231,956],[1135,2023],[454,-12],[629,-927],[1266,-419],[522,-2265],[1326,-2492],[662,74],[942,-1547],[463,-2815],[-65,-964],[566,-145],[1762,1234],[541,643],[888,-166],[407,-850],[30,-1265],[885,-2347],[583,-2285],[736,-530],[582,-2570],[1412,-1381],[716,-48],[15,1109],[891,2998],[69,1335],[2555,-322],[238,373],[240,2292],[490,412],[751,812],[992,-520],[917,-1195],[628,-1572],[420,-1995],[725,-1729],[1116,-636],[784,-1379],[1075,58],[984,1858],[609,655],[494,1396],[1124,544],[1338,-1322],[544,1060],[926,-77],[876,-1311],[1033,4],[423,-1107],[-309,-1679],[363,-1730],[385,-512],[762,537],[559,-194],[1190,-2741],[265,-1101],[-144,-1237],[741,-283],[1021,1854],[651,282],[902,-348],[914,954],[1124,-1144],[1623,-348],[555,-1162],[1325,-1467],[808,-405],[1512,193],[2144,2036],[682,1053],[823,2450],[974,-383],[936,-2280],[806,158],[1542,2167],[320,-136],[873,-1978],[1396,-712],[1027,366],[1338,2246],[1154,-1433],[204,-613],[1173,-262],[764,567],[1077,-589],[675,-780],[814,1079],[892,-1257],[994,-916],[967,-1488],[817,-113],[796,-686],[1011,-1559],[1302,-241],[832,396],[1100,-288],[1248,-1499],[1019,-589],[1180,-285],[135,-900],[1262,-1996],[1458,-1030],[743,-1038],[897,-197],[630,413],[624,-309],[599,548],[841,185],[1196,-869],[1357,-29],[374,613],[1802,-844],[750,-1049],[1410,-698],[525,-897],[141,-1399],[388,-1448],[1833,-2181],[659,-1236],[469,-1479],[816,89],[1422,2749],[1221,549],[577,-309]],[[866803,235407],[-174,-2386],[440,-733],[-58,-1206],[-340,-909],[382,-893],[-477,-1082],[69,-1160],[-266,-735],[590,-578],[-616,-805],[-783,-4837],[457,-1302],[-433,-2167],[-1052,-430],[-901,-1363],[-1429,-1259],[-496,-1179],[-1135,-1466],[-1172,-2783],[-688,-1265],[-1790,-444],[-1372,-2282],[-361,-1428],[175,-851],[-417,-1543],[160,-840],[699,-436],[182,-740],[-467,-972],[-887,419],[-578,-716],[182,-852],[757,-1093],[-483,-884],[-637,40],[-586,701],[-381,-832],[420,-2099],[-1294,-788],[-821,333],[138,-1437],[-674,-1861],[-1190,-984],[239,-774],[-372,-994],[-734,1008],[-746,-597],[-778,409],[-449,-1357],[-458,-3158],[552,-4159],[288,-598],[-297,-1168],[407,-906],[377,-2052],[1435,-2362],[-257,-1588],[371,-857],[494,365],[252,-1160],[-114,-2168],[-584,-1313],[103,-2771],[-72,-2663],[2134,-946],[806,264],[296,1292],[1430,-573],[441,-1340],[-230,-792],[268,-1359],[110,-1962],[-472,-550],[-150,-1202],[245,-628],[-174,-1471],[-656,-1254],[140,-1620],[-607,-1267],[-320,-1699],[78,-834],[892,-1367],[1093,-111],[-138,-1323],[-1078,-1385],[-709,-281],[-286,-1477],[260,-785],[-280,-1060],[583,-1961],[-87,-1221],[-548,320],[-546,-840],[-458,-384],[275,-1450],[486,419],[560,-1565],[-264,-2695],[724,-2263],[649,627],[1142,-1883],[20,-1839],[-154,-2224],[-686,-1711],[-210,-1536],[392,-349],[336,-1680],[-336,-1587],[707,-2788],[654,322],[434,-669],[648,65],[622,-789],[-462,-1075],[822,-155],[302,-1536],[759,-1055],[716,-81],[-193,-2472],[487,-1551],[-209,-1192],[588,-1916],[-130,-2201],[578,-1891],[173,-1930]],[[860620,89951],[-1240,72],[-10360,873],[-21139,1973],[-3314,156],[-9263,808],[-4607,352],[-6427,565],[-8910,931],[-4795,373],[-5998,459],[380,-855],[658,-356],[-20,-1573],[-593,-466],[-371,-983],[-117,-1600],[683,306],[1153,-1045],[571,-96],[-83,-1706],[831,-786],[477,89],[554,993],[520,-637],[-941,-1721],[42,-2366],[660,-1767],[-526,-2024],[-543,-3307],[-1108,-1726],[-1284,242],[-543,-1219],[-1262,-767],[-781,-866],[826,-1994],[-721,-2032],[386,-1219],[1627,-2639],[532,-322],[-58,-1251],[542,-2042],[513,-396],[351,-1018],[1485,-724],[520,-1148],[1286,-541],[597,-2408],[687,-93],[72,-1504],[-845,-123],[-350,-999],[182,-1096],[-353,-2430],[-435,-860],[-257,-1353],[-1084,-1649],[-118,-585],[-809,-424],[-501,-1460],[-1146,-42],[-1193,-2295],[-1184,-727],[-318,-983],[79,-1858],[215,-774],[863,-1351],[-540,-1872],[599,-2746],[-952,-2278],[-706,-1012],[-842,-656],[-2029,-183],[-665,-1914],[-145,-2124],[429,-1185],[163,-2123],[-329,-1118],[-429,607],[-738,183],[-358,-1293],[-859,-591],[-507,334],[-316,-955],[-1969,-2743],[491,-1254],[74,-2579],[-1322,254],[-1480,-1279],[536,-1292],[-519,-658],[-754,103],[-740,-865],[-692,19],[-736,-2489],[-713,-102],[-958,-1095],[-867,578],[-1093,-640],[-815,1031],[-780,-142],[-565,696],[-274,1087],[-950,-205],[-1173,589],[138,-966],[-689,-787],[-364,-1214],[241,-1058],[-1350,488],[-1557,1013],[-948,-1384],[-1068,1579],[-574,467],[-1739,-758],[-122,992],[-549,780],[-54,177],[-6662,10583],[-2414,8388],[2239,11542],[2,205],[-5099,6886],[-5716,7954],[-4097,3023],[-619,376],[-2141,2600],[-936,1425]]]}