{"type":"Topology","objects":{"districts":{"geometries":[{"properties":{"DISTRICT":"ACHHAM","STATE_CODE":7,"PR_NAME":"Sudurpashchim Province"},"type":"Polygon","arcs":[[-17,-5,0]],"id":0},{"properties":{"DISTRICT":"BAITADI","STATE_CODE":7,"PR_NAME":"Sudurpashchim Province"},"type":"Polygon","arcs":[[1,-12,-3,-14,-9]],"id":3},{"properties":{"DISTRICT":"BAJHANG","STATE_CODE":7,"PR_NAME":"Sudurpashchim Province"},"type":"Polygon","arcs":[[2,-11,3,-6,-15]],"id":4},{"properties":{"DISTRICT":"BAJURA","STATE_CODE":7,"PR_NAME":"Sudurpashchim Province"},"type":"Polygon","arcs":[[4,-16,5,6]],"id":5},{"properties":{"DISTRICT":"DADELDHURA","STATE_CODE":7,"PR_NAME":"Sudurpashchim Province"},"type":"Polygon","arcs":[[-19,-23,7,8,-13]],"id":12},{"properties":{"DISTRICT":"DARCHULA","STATE_CODE":7,"PR_NAME":"Sudurpashchim Province"},"type":"Polygon","arcs":[[9,10,11]],"id":15},{"properties":{"DISTRICT":"DOTI","STATE_CODE":7,"PR_NAME":"Sudurpashchim Province"},"type":"Polygon","arcs":[[12,13,14,15,16,17,-20]],"id":21},{"properties":{"DISTRICT":"KAILALI","STATE_CODE":7,"PR_NAME":"Sudurpashchim Province"},"type":"Polygon","arcs":[[-24,18,19,20]],"id":30},{"properties":{"DISTRICT":"KANCHANPUR","STATE_CODE":7,"PR_NAME":"Sudurpashchim Province"},"type":"Polygon","arcs":[[21,22,23]],"id":32}],"type":"GeometryCollection"}},"bbox":[80.06014782700004,28.39437552000004,81.81003357700007,30.473110975000054],"transform":{"scale":[1.7498874998875326e-06,2.078737533737548e-06],"translate":[80.06014782700004,28.39437552000004]},"arcs":[[[805584,422117],[3263,-2300],[1023,-203],[1341,-1293],[999,251],[1528,-228],[1088,-475],[1615,157],[2371,-820],[1018,-1413],[1009,-764],[74,-1224],[-937,-1132],[568,-1064],[558,-2503],[881,-1124],[842,-515],[1,-1249],[-1947,-1217],[-623,-920],[-827,-462],[-726,-1207],[-1964,-1448],[-582,-1180],[-409,-3326],[220,-1599],[-311,-2128],[-1077,-3082],[-878,-1508],[104,-1066],[820,-797],[466,-2232],[1278,-1458],[1765,-1496],[422,-767],[-438,-1088],[116,-697],[-1948,-2602],[301,-1396],[697,-789],[2133,-1004],[1705,-200],[-293,-1619],[358,-2661],[550,-735],[353,-1737],[1226,-1484],[4788,-109],[685,173],[2046,-247],[897,866],[967,-184],[1613,401],[1497,-411],[2126,-8],[1312,-591],[3637,-2378],[-170,-2711],[804,-1561],[1844,-641],[1244,-997],[2807,-888],[3163,-1489],[1216,-374],[5466,-527],[2044,-637],[-2607,-575],[-850,-515],[-3392,-1315],[-2427,-1503],[-877,-1240],[-2603,-1637],[-1220,-997],[-3020,-1710],[-2542,-91],[-1669,-496],[-2147,-193],[-1423,-922],[-602,-1501],[-1155,-581],[-1040,-1215],[-1448,-279],[-1913,-1840],[-872,-431],[-2423,-126],[-1500,364],[-2022,-219],[-1253,-833],[-2288,-351],[-3721,-1356],[-2103,-1131],[-2749,-870],[-3705,-847],[-1724,-982],[-98,-1233],[-718,-1161],[251,-1823],[-577,-808],[-1237,-673],[-3056,-476],[-2159,-1283],[-1260,-1088],[-3483,-1696],[-1764,-1179],[-681,-1407],[13,-1882],[-2429,-3651],[-2851,-686],[-724,-363],[-1397,-3706],[-1416,-1731],[-1148,-1389],[-3731,-237],[-2070,-2574],[-269,-1595],[696,-2183],[1497,-1505],[161,-896],[-987,-1771],[-2247,-1160],[-1483,-94],[26,-976],[2135,-488],[914,-1669],[1422,-847],[1081,-1180],[569,-1818],[1825,-1323],[607,-935],[-270,-1105],[-1550,-2520],[-23,-1049],[1222,-1612],[1041,-68],[1086,-673],[22,-746],[1438,-2006],[662,-530],[1267,-323],[1596,-19],[997,448],[1545,1140],[830,-96],[1015,-1899],[202,-2345],[-116,-1583],[-620,-2854],[503,-678],[3122,-332],[611,-319],[2127,-1975],[505,-1818],[1931,-153],[1419,-764],[2723,-140],[1616,-2132],[898,-876],[1497,-2749],[2537,-2393],[1574,-1406],[1207,-2698],[1928,-2084],[3104,-2354],[3479,-1853],[3005,-531],[3071,440],[524,-544],[480,-2477],[1441,-1797],[1243,-2455],[991,-986],[2005,-695],[1040,-643],[478,-848],[578,-1150],[1082,-798],[518,-1225],[864,-1218],[2096,-1414],[1264,-2583],[872,-1116],[555,-1833],[807,-1053],[-213,-1812],[338,-1358],[3228,-2848],[160,-924],[1401,-1972],[1527,-2687],[1468,-1172],[710,-2355],[-401,-809],[985,-1163],[1674,-3366],[12,-1250],[2010,-1216],[922,-845],[2383,-932],[4891,-3832],[2609,-1265],[510,-831],[823,-2096],[-575,-1325],[792,-3277],[-412,-2827],[-1741,-1781],[-1437,-169],[-1935,165],[-4267,-801],[-1570,-599],[-4680,-1198],[-4263,-497],[-3097,-322],[-6268,317],[-4439,-388],[-1501,899],[748,772],[4382,1667],[1686,978],[1946,1857],[-414,1371],[-1725,1747],[-1591,2982],[-753,609],[-1225,386],[-3070,262],[-1533,692],[-879,1258],[284,2714],[-42,955],[1570,3849],[2121,951],[497,814],[-592,1838],[-1126,988],[-1298,680],[-3058,557],[-1429,547],[-1157,849],[-2136,2477],[-1875,1487],[-1608,937],[-1435,2418],[-357,1725],[-656,1611],[-1792,1854],[74,1617],[-1689,945],[-3275,153],[-1159,536],[-1442,1300],[-1558,1014],[-1441,618],[-3859,830],[-1291,452],[-371,645],[479,1164],[1697,1567],[381,1462],[-712,1488],[-81,1802],[-2094,2721],[-43,1879],[419,1071],[1249,930],[1074,2015],[-206,1767],[-942,1245],[-908,472],[-3326,316],[-960,628],[-1759,199],[-6192,1382],[-982,361],[-2697,1941],[-452,1470],[-1427,1297],[-794,170],[-2639,-775],[-3757,654],[-1194,461],[-1240,1178],[-1037,21],[-2785,-1168],[-1371,-746],[-1721,-489],[-1334,175],[-2909,-231],[-1289,-440],[-1019,-1250],[-1590,-995],[-429,-1080],[-746,-693],[-1970,-470],[-2285,-1060],[-1960,-1307],[-3771,-1067],[-4784,-336],[-2063,-451],[-2911,1],[-2746,161],[-3027,1203],[-1948,1450],[-1098,2392],[74,2236],[-422,864],[-1240,576],[-1945,246],[-1430,-456],[-2361,101],[-1521,1860],[-197,1063],[-3130,3010],[-2183,-299],[-1499,269],[-3475,2414],[-652,178],[-2174,-217],[-570,-308],[-3173,-939],[-1133,-183],[-1798,274],[-1746,-610],[-1029,-1379],[-3389,-1202],[-1000,-1488],[-489,-1835],[-773,-1270],[-2489,-1679],[-2618,-420],[-1400,575],[-2637,2241],[-861,1251],[-1485,1402],[-1870,547],[-2579,148],[-1113,-240],[-974,-802],[-698,-2142],[-655,-957],[-734,-277],[-2224,-59],[-8386,192],[-4695,825],[-1442,-141],[-1786,201],[-1764,799],[-1495,1790],[-2462,1353],[-3924,-328],[-968,-347],[-1116,102],[-4052,1669],[-2175,390],[-2290,994],[-2642,2132],[-2120,1130],[-1602,1635],[-1275,994],[-2696,938],[-2210,1248],[-1235,1328],[-1153,1953],[-553,333],[-3989,681],[-1890,1298],[-1034,1210],[-1293,2052],[-1748,1560],[-2024,1317],[-2196,934],[-2496,588],[-3515,143],[-1454,-200]],[[147750,442082],[-342,1094],[-1747,1117],[-2132,1989],[-1679,532],[-1927,-27],[-1918,391],[-1473,-127],[-669,256],[-3036,3100],[-172,938],[395,1033],[-880,1297],[-2200,1012],[-1446,1090],[-1844,2129],[-559,2004],[350,1823],[-130,2062],[-473,760],[-3817,1377],[-523,759],[442,2864],[-132,312],[-209,1228],[1716,1389],[2385,738],[-212,1135],[-1722,1162],[-1234,1600],[-8,808],[1514,1746],[-1006,1150],[-1169,628],[-1478,165],[-2892,801],[-1947,1216],[-1772,568],[-1544,1204],[-1079,528],[-2893,883],[-1659,878],[-1057,1124],[-891,522],[763,909],[1165,518],[538,739],[-1066,2030],[-61,1516],[1514,3047],[419,1251],[-33,2143],[-1184,1318],[-1269,738],[-36,1273],[469,822],[1278,602],[3088,131],[2410,503],[1055,1723],[1037,30],[1505,-819],[3000,-661],[1793,988],[1996,-579],[673,743],[-1082,1060],[-1806,291],[-431,586],[1199,883],[2390,743],[2084,44],[851,-837],[-918,-1369],[545,-1295],[877,-143],[2613,349],[816,-698],[1284,260],[2334,1421],[1443,-250],[547,-1154],[1222,147],[1758,965],[185,657],[-941,1278],[-2661,1588],[-1019,1476],[-1553,1461],[-932,1702],[-1357,948],[-803,1448],[205,1134],[950,390],[1972,9],[544,313],[1972,2541],[-284,1778],[1299,1150],[1475,157],[1326,-1735],[1648,-657],[1832,-66],[2180,-457],[640,950],[265,1621],[-125,1320],[-845,1702],[31,694],[1216,1164],[3964,1455],[3797,1110],[1203,1344],[704,2223],[1925,-43],[1881,-1054],[1470,-246],[2325,1783],[836,1040],[1624,1482],[130,471],[-868,1753],[496,675],[3359,1225],[1438,1630],[214,797],[-833,980],[-1401,364],[-1404,732],[-1499,1625],[-1453,369],[-1272,-471],[-1373,150],[-269,646],[2420,3220],[-304,693],[-1344,958],[-13,543],[3782,1168],[4530,-136],[1440,446],[2442,301],[-7,958],[-876,780],[-71,1210],[892,664],[1650,-576],[2929,-8],[2283,-790],[1733,97],[133,1276],[-242,1049],[-4,1943],[474,678],[2153,-240],[2619,243],[1305,1370],[358,2740],[342,631],[2885,1467],[900,1099],[2938,1263],[2844,3057],[496,3543],[-108,824]],[[485637,503696],[-3143,758],[-597,431],[-2398,118],[-4899,-822],[-2058,-212],[-1277,621],[488,1662],[-2508,3069],[-503,1263],[-1047,1500],[-419,1890],[-698,854],[-1030,35],[-1145,878],[-1544,125],[-2933,-582],[-2175,833],[-1756,872],[-860,1782],[-42,1177],[-1406,978],[184,1103],[-1418,931],[-1465,1450],[-671,1469],[-889,884],[-2327,763],[-3532,1473],[-3153,1708],[-1863,1166],[-1864,390],[-30,1274],[793,2648],[-711,981],[-2523,1132],[-1149,1241],[-1186,-783],[-2374,-448],[-1813,258],[-1252,628],[-2039,-1138],[-1156,-330],[-236,-556],[-1915,-1588],[-1541,-554],[-2459,104],[-1168,459],[-805,2810],[-1760,2013],[-390,1113],[330,725],[-603,807],[-2699,582],[-1384,-178],[-1536,213],[-1318,788],[-2717,150],[-1795,800],[-1947,-40],[-2058,815],[-2241,64],[-780,367],[-459,876],[-376,3266],[-452,1348],[365,570],[91,2288],[264,1648],[566,880],[1428,219],[2316,1196],[770,155],[2461,-443],[779,60],[3171,-903],[1276,-79],[933,-884],[842,886],[922,1484],[147,790],[1299,1131],[-207,887],[-551,1774],[726,1108],[1452,646],[315,1019],[-1644,1421],[-58,1454],[933,742],[-728,1664],[255,1822],[559,1136],[1373,470],[2264,3465],[858,2547],[-344,810],[-59,1725],[1056,2584],[-1647,1880],[-799,3032],[218,1008],[-971,1207],[-28,1169],[-707,1144],[350,630],[1224,219],[4137,3213],[-708,844],[-2089,519],[-935,603],[-3206,-667],[-1650,-883],[-2455,37],[-1704,1204],[-1071,93],[-2699,1186],[1287,1771],[-344,2538],[473,1238],[-810,1421],[1400,788],[2675,2259],[569,233],[2281,-37],[1039,-504],[986,-969],[433,1038],[-345,1134],[414,689],[25,2077],[412,929],[1455,1160],[1273,-262],[1393,-850],[1024,515],[1625,-483],[-343,1317],[385,631],[1570,719],[-15,1610],[592,681]],[[590031,798497],[1930,-743],[2277,-1649],[547,-749],[2479,-1043],[1698,-499],[716,-1389],[193,-1274],[1511,-1587],[1926,-614],[2046,31],[1166,-1653],[1251,-1032],[1108,-4119],[3171,-990],[2241,-1057],[2583,280],[2674,9],[1338,-386],[1837,-1772],[623,-264],[3172,118],[830,281],[1469,-550],[2468,-388],[956,122],[1597,680],[1943,1093],[2060,-43],[1667,365],[1701,-541],[1248,-1150],[792,-381],[1007,487],[940,1246],[1761,1429],[734,1179],[1732,1474],[2089,-535],[1944,-112],[1135,238],[2205,-763],[1701,-2325],[2007,-761],[1861,-3233],[4936,356],[954,-273],[2192,99],[2665,1599],[2004,726],[1189,47],[2025,-677],[1318,1009],[1255,1390],[2143,1683],[-222,1896],[-2865,1583],[-3141,1008],[-3036,1224],[3006,1027],[745,670],[2675,1043],[760,648],[6148,500],[1277,359],[560,1421],[4560,923],[1239,-487],[1585,4],[2718,-462],[484,-1449],[1232,-1321],[2107,-464],[1540,-768],[1727,-83],[2339,-610],[1209,-102],[1530,-616],[1875,-444],[1106,185],[998,654],[2252,13],[703,-274],[1338,-1894],[588,-1290],[785,-194],[1818,146],[1112,-461],[3897,-253],[1368,-670],[1937,-398],[1833,-744],[3255,-759],[1869,-989],[4183,-2971],[3143,-472],[1328,120],[1846,539],[1408,-590],[1837,199],[1049,-445],[572,-1318],[3049,361],[449,425],[109,1116],[571,1526],[3605,1584],[2306,115],[3020,472],[1021,2272],[419,-779],[1574,-744],[4467,-497],[201,-405],[3269,-2263],[1513,-696],[1964,-463],[653,-493],[2467,-992],[1939,315],[3786,-624],[1189,-1228],[1248,-664],[1892,-288],[1342,119],[2469,-111],[1200,-502],[1806,-1480],[1932,-1325],[-35,-642],[-1376,-3531],[19,-575],[1628,-1898],[957,-400],[1701,-1937],[1049,-853],[79,-941],[-1083,-932],[-92,-1642],[317,-1976],[-1007,-1421],[-1622,-1354],[-1786,-109],[-2906,-1855],[-1783,-1289],[65,-1026],[2135,-1632],[1140,-1447],[-282,-847],[-1374,-1832],[-528,-1112],[2316,-1261],[793,-1186],[-86,-1916],[248,-997],[1238,-1383],[-1128,-826],[-365,-686],[919,-2059],[-500,-1102],[-1602,-1604],[-969,-2237],[281,-1202],[1782,-1525],[2625,-1923],[3539,-1706],[3016,322],[1651,689],[2332,-168],[780,-552],[2580,-1131],[2241,-442],[1204,1149],[1487,583],[1345,156],[2299,811],[1017,784]],[[805584,422117],[-1018,9],[-1101,1350],[-3171,2010],[-567,503],[-1252,85],[-2141,966],[-2082,1446],[-2994,1105],[-3837,-433],[-2060,282],[-1818,-266],[-1746,-596],[-3348,-1499],[-1850,-1800],[-313,-780],[-1438,811],[-219,448],[-1893,685],[-3089,1588],[-2203,312],[-2593,-155],[-699,610],[-495,1910],[-995,1568],[-1894,1757],[-1045,1622],[-889,594],[-2412,704],[-106,-1078],[512,-1818],[-1564,-653],[-1560,-1236],[-2260,-339],[-892,-644],[-1603,-2117],[-1387,-850],[-994,-197],[-3692,-9],[-497,637],[-1215,-691],[-1244,1060],[-1425,179],[-1160,1270],[-104,781],[-2777,419],[-1017,2032],[-1111,1498],[338,1323],[-2045,-88],[-1697,688],[-972,927],[-6,1347],[-1359,2283],[108,749],[-1982,408],[-2403,-446],[-912,865],[-388,1181],[-1449,319],[-164,829],[442,586],[-592,598],[-2436,562],[-2246,264],[-193,-781],[-1228,-875],[-1298,-524],[-594,1088],[-640,-541],[-223,-1155],[-1356,-384],[157,-1123],[-337,-515],[-1515,14],[-671,-505],[52,-1659],[-1836,-341],[-3001,-204],[-1865,-302],[-2330,-109],[-1255,-772],[-1125,-1035],[-2215,-479],[-1066,-912],[-738,42],[649,861],[-859,1298],[-1910,641],[5,1494],[-472,516],[-1930,913],[-276,1674],[-1029,1893],[-1803,2119],[-576,92],[-305,1138],[1275,-93],[1608,1294],[168,3121],[-1223,1735],[-2771,1818],[-898,2428],[-554,592],[-1663,994],[-1493,127],[-989,570],[-1431,-635],[-1355,100],[-836,1793],[-3686,668],[-1248,1157],[-819,-35],[-1440,779],[-1754,133],[-1644,408],[-2604,-550],[-1330,198],[-847,903],[-861,333],[-3227,-76],[-1243,698],[-23,589],[-1357,824],[-2679,1127],[-1711,1144],[-1682,346],[-361,857],[-3663,2003],[-824,1759],[-812,479],[-2292,199],[-1281,388]],[[644822,482717],[784,-48],[1579,869],[1249,1083],[1440,-347],[1011,-816],[1342,-387],[1306,-1371],[1520,813],[2881,2137],[1462,1308],[2418,289],[1432,461],[495,1325],[4124,1321],[1508,-479],[1874,249],[2980,1495],[3695,-356],[915,-265],[3166,163],[1645,1689],[-636,775],[-761,199],[-1025,1428],[1649,862],[2850,3165],[2167,1756],[1876,634],[3584,904],[3153,102],[998,367],[385,1708],[2351,1087],[2739,360],[240,758],[1621,891],[1686,363],[807,515],[2569,802],[1257,-51],[217,1253],[-338,426],[2918,2425],[-2681,1822],[-382,1098],[443,738],[-3672,772],[-1673,11],[-1644,2121],[-7,617],[699,476],[2774,659],[1388,-191],[761,356],[1389,-347],[3077,1366],[1543,-37],[1340,1621],[771,-267],[1408,686],[-1093,2357],[-438,1361],[1470,361],[1053,924],[1073,336],[3087,-9],[1092,999],[2344,1465],[1328,594],[466,714],[1780,1108],[594,2152],[1264,1622],[1019,907],[3037,3454],[784,1306],[-432,715],[841,1848],[899,749],[1293,-76],[675,804],[4181,3013],[1102,1828],[597,487],[1466,1689],[1423,1131],[2230,599],[2564,233],[1771,764],[2016,197],[1137,1023],[3983,264],[1894,399],[674,566],[-45,916],[1191,1901],[279,1117],[-445,532],[-1342,499],[-978,1156],[183,1905],[1669,2779],[705,1830],[2708,1440],[2023,1331],[1622,656],[1185,748],[1526,1351],[628,1280],[25,2399],[207,1648],[467,1208],[-861,2127],[791,1390],[-313,2217],[-878,1120],[881,1883],[1323,692],[15,514],[-888,1669],[951,1097],[987,583],[1804,2009],[304,1171],[1717,550],[2209,-103],[1000,713],[1446,380],[1401,1150],[1704,-481],[1342,-645],[2722,1237],[1663,1351],[1449,820],[6104,2400],[1494,-243],[2119,232],[700,456],[3255,723],[1274,563],[902,913],[1922,673],[1695,158],[3020,1053],[673,-56],[628,793],[841,208],[1996,1134],[2118,554],[574,862],[4545,1660],[192,1857],[-681,2136],[360,559],[1647,1309],[-314,820],[-1342,1540],[-710,1538],[715,1387],[1877,931],[1441,419],[969,732],[-147,488],[901,1091],[-1275,1311],[-796,1768],[-959,720],[-1071,1907],[-138,1067],[-1551,1109],[-1484,1918],[-321,828],[-34,1517],[-1587,1560],[-192,1426],[767,1606],[717,2408],[991,1274],[756,414],[926,-394],[1701,-134],[2056,146],[1543,-145],[6560,-1752],[1089,-627],[1092,-183],[2446,866],[1519,1058],[2305,634],[949,893],[-9,989],[1073,3348],[1292,564],[2305,2964],[-1479,1415],[-1094,447],[-210,863],[-1394,1902],[-706,582],[-141,1651],[-721,839],[-1121,3149],[-1098,709],[771,1827],[-129,990],[426,582],[1546,622],[1528,1573],[2554,1676],[491,2856],[378,1328],[-395,2031],[528,1308],[380,2244],[509,1152],[-399,1049],[604,1941],[374,2678],[636,1210],[493,2467],[-1983,436],[-2332,1780],[-588,2098],[-1756,1251],[-775,1388],[-1317,977],[-1239,1746],[-1569,1184],[-1802,1787],[-1403,452],[-2575,1838],[-2190,579],[-1686,770],[-1665,334],[-2401,202],[-3106,-218],[-959,227],[-1658,985],[-1801,2114],[-962,533]],[[827042,721608],[1269,1433],[2276,1700],[2815,1470],[100,932],[-1054,717],[-5,838],[-836,1201],[-852,2420],[2520,2771],[3817,386],[1325,353],[1611,64],[1158,664],[2613,1012],[991,-362],[3196,127],[3172,-1674],[1412,-34],[1002,707],[2116,1025],[2207,-492],[754,401],[1382,1448],[1206,646],[1083,98],[1655,941],[2156,498],[2089,-280],[1755,1077],[2392,336],[1101,-429],[911,-1147],[1629,-1434],[2965,358],[3527,-570],[1448,1122],[475,2284],[1737,1288],[1343,670],[863,926],[2601,-2012],[1068,-305],[1221,505],[2954,-528],[2176,751],[2296,431],[1007,894],[431,1001],[3136,1325],[2197,219],[1119,-561],[1956,-1525],[1507,-437],[1733,323],[2493,-973],[2092,-520],[1183,331],[1876,-146],[2688,1462],[2396,731],[3269,1650],[1161,291],[2910,-1834],[2510,-1346],[624,-570],[609,-1347],[-856,-2258],[-12,-1200],[899,-402],[4257,-1315],[1347,-225],[586,-535],[-187,-1465],[185,-1678],[423,-1080],[92,-1568],[3102,-2377],[355,322],[2720,750],[3047,331],[2520,-710],[630,-1112],[864,-353],[2466,278],[2486,-497],[1251,552],[1938,-183],[1601,475],[1724,-316],[1638,539],[847,749],[1966,627],[974,-641],[3354,-735],[1961,127],[1453,677],[2647,-64],[539,-914],[983,-290],[1681,865],[1773,-353],[1385,-1369],[1622,-596],[3018,-1856],[-390,-2485],[-1602,210],[-1103,-382],[1451,-2755],[-233,-486],[455,-1557],[-408,-1863],[683,-1693],[-374,-771],[82,-2294],[-221,-1512],[230,-1169],[-393,-334],[-819,-1845],[381,-926],[-1283,-1212],[-56,-1041],[-766,-1157],[1304,-1359],[199,-791],[-1179,-1120],[-1372,-976],[-322,-567],[-2755,-1016],[-2048,-923],[1031,-624],[336,-742],[123,-2849],[-650,-3058],[305,-922],[-2051,-3782],[853,-1852],[-188,-1671],[-1037,-769],[-655,-1593],[-2139,-1925],[-1341,171],[-1046,727],[-1363,205],[-1471,664],[-1375,-996],[-2226,-1123],[-1636,-287],[-944,834],[-1368,-256],[-1785,-942],[-840,-692],[-1357,-207],[-1726,-727],[-876,-89],[254,-1528],[-1720,-2246],[-305,-1818],[216,-587],[-907,-2032],[-1442,-1696],[-926,-389],[-664,-906],[117,-1241],[548,-1991],[792,-1716],[-526,-461],[-273,-1354],[-1900,-2114],[-694,-1351],[-179,-1893],[1042,-1169],[-681,-824],[-577,-1586],[736,-514],[-513,-1129],[-942,-1041],[-998,-648],[-1823,-220],[-1048,-1290],[-1758,-1232],[-720,-1064],[-67,-902],[-570,-879],[-30,-1871],[-515,-1293],[-924,-757],[438,-699],[-600,-965],[-233,-1261],[-448,-444],[64,-1263],[-1468,-2050],[-1166,-1279],[111,-914],[-1008,-1965],[-2313,-2242],[-646,-1107],[-1,-1981],[685,-1265],[327,-1579],[-31,-2078],[387,-2341],[1263,-2182],[110,-1872],[-367,-575],[124,-1045],[-786,-918],[1868,-1345],[-2027,-707],[1470,-602],[499,-621],[-370,-1674],[2116,-892],[1690,-1443],[530,-2897],[1343,-419],[1720,-2206],[679,-233],[1172,453],[796,-374],[-60,-1817],[1563,-704],[2794,-154],[571,-732],[1164,-473],[1324,-920],[964,-1354],[2035,-738],[2810,-68],[4008,-560],[2891,517],[2821,-373],[1161,447],[2398,-58],[2040,224],[2003,-322],[1107,-1988],[1266,-928],[3417,-1189],[2293,36],[1016,-333],[720,-1378],[-736,-1464],[123,-516],[2596,-2699],[800,-1816],[885,-753],[709,-1301],[-426,-1262],[351,-1127],[-177,-779],[269,-1782],[215,-3140],[-827,-3401],[-388,-543],[-1892,-1537],[-1825,-3505],[-140,-1358],[1017,-1332],[619,-1784],[-314,-701],[-872,-324],[-1995,-52],[-979,-292],[-1903,-1755],[-751,-2073],[-1834,-1084],[-361,-1200],[1847,-2118],[237,-736],[-683,-480],[-2739,-346],[-2285,636],[-975,5],[-3833,-1932],[2873,-960],[2326,135],[3232,-598],[1611,-592],[1643,564],[1732,-404],[1190,-706],[-163,-1207],[925,-1269],[2496,-2653],[953,-605],[1529,-2025],[610,-1301],[2551,-2681],[1049,-3247],[857,-1140],[-54,-1627],[641,-2084],[135,-1182],[-227,-1155],[-1455,-627],[-1208,-2532],[253,-2468],[1044,-1391],[-728,-921],[-1347,-2993],[-1583,-991],[285,-913],[-426,-3029],[-938,-1694],[-228,-1372],[525,-1027],[-696,-1933],[792,-504],[-1607,-2379],[-296,-1457],[-1106,-495],[-1208,-1133],[-583,-1169],[-52,-2202],[-970,-181],[-1892,275],[-2235,765],[-2072,276],[-2854,-196],[-1698,606],[-1102,-865],[182,-1777],[-401,-483],[-2633,520],[-893,-511],[-366,-1192],[-879,-459],[-465,-1414],[106,-659],[-578,-1127],[-810,-371],[-977,-1151],[-819,-1527],[-1314,-1337],[-294,-2076],[508,-1236],[14,-891],[544,-799],[-361,-1248],[1224,-568],[-1244,-1791],[-1723,-965],[-546,-2156],[-516,-1576],[-3335,-2374],[-1198,32],[-4360,570],[-2017,-464],[-2265,-869],[-1688,-59],[-1990,-477],[-2449,-313],[-4875,-40],[-1961,-557],[-3329,-1921],[-832,-1585],[-892,-759],[-4883,-279],[-2328,709],[-2477,-913],[-936,-722],[-1307,-566],[-868,77],[-2380,1098],[-900,159],[-3745,8],[-1128,797],[-3367,-74],[-1106,1132],[392,733],[-320,1444],[-2331,1802],[-225,937],[46,1483],[1042,3164],[-13,3201],[-353,749],[423,1306],[-572,893],[-1562,-388],[-932,451],[-262,2500],[-1719,955],[-302,432],[-1710,238],[-2391,596],[-625,1117],[-2198,198],[-2921,851],[-2192,67],[-1241,-277],[-1287,-1308],[-3127,-240],[-2216,-654],[-3981,222],[-1631,-434],[-1097,189],[-2784,-236],[-1169,-276],[-916,-965],[-1217,304],[-2481,-1145],[356,-994],[-288,-1713],[-1612,-2603],[-1911,-841],[-386,563],[-1576,419],[-1626,823],[-931,1243],[-439,1726],[-1918,-1515],[-2693,-2508],[119,-1827],[-1378,-3090],[-2467,-2107],[-1949,-1278],[-2603,-551],[-2381,-1797],[-1615,-630],[-1312,-2718],[-1130,-1381],[-431,-1181],[-1508,239],[-1803,-315],[-1029,-1229],[-838,-148],[-1318,530],[-822,-227],[-1780,903],[-1237,-2490],[-586,-744],[71,-747],[-617,-1495],[-2184,-2845],[-2399,-1798],[-2878,-1421],[-1758,-1842],[-2187,-3458],[-2867,-890],[-1569,-1005],[-1859,-385],[-2735,-1431]],[[71949,357372],[1230,-313],[1711,-1131],[2709,-1252],[1346,-445],[2420,-204],[1479,-474],[1356,-2078],[2232,-1528],[4055,-253],[1832,-396],[2112,-141],[1637,-442],[1537,-58],[1398,-333],[1985,291],[1738,1105],[1295,1403],[2192,1350],[1142,-26],[1423,929],[881,1032],[573,1642],[871,1147],[1857,1062],[2276,425],[1512,-12],[3617,278],[1471,735],[650,686],[-546,1528],[-3187,2867],[-1772,2699],[-2092,2379],[-660,1239],[24,2254],[1243,1567],[-72,1435],[-1084,3042],[-355,2078],[-2426,1872],[-1645,1803],[-2923,1712],[-2169,890],[-624,993],[137,833],[1759,2581],[197,1385],[1326,1147],[283,678],[-157,1470],[1192,993],[2063,51],[1206,-419],[1246,-1297],[333,-2808],[452,-1294],[1899,-1441],[1380,-124],[3339,399],[2889,62],[1574,-898],[1911,-1686],[1427,-1916],[1032,-753],[1494,-539],[1333,177],[1570,830],[1102,1454],[1358,2597],[-104,570],[-1769,1914],[-42,1076],[356,1515],[819,1821],[-28,734],[-1229,1925],[-1526,1794],[-276,1327],[1469,1211],[1246,1489],[2075,1231],[698,988],[-2,1622],[-962,1689],[60,1482],[819,1407],[-595,1948],[114,1534],[1300,1102],[613,2122],[740,1871],[309,2287],[-268,2033],[125,1673],[1043,1780],[1092,506],[1017,5],[666,505],[1871,2303],[1142,2049],[977,720],[165,1459],[-1181,1250],[-158,779],[631,2150]],[[147750,442082],[2378,-1608],[2396,-766],[613,45],[4386,1782],[835,1251],[-1323,1664],[375,736],[1336,422],[2236,1278],[1287,256],[763,1547],[1952,-137],[1967,509],[-113,1342],[260,810],[1530,909],[577,-1569],[1599,-567],[1955,-1245],[1440,257],[-759,1553],[352,839],[1017,427],[1239,-447],[272,1124],[1873,418],[986,1033],[-328,398],[-1819,118],[-1432,659],[986,2304],[20,1789],[488,525],[993,-369],[772,-844],[1122,246],[55,942],[594,199],[1227,-646],[695,84],[848,2249],[1567,-63],[1259,-2255],[1100,43],[369,1067],[-1159,1570],[849,596],[2832,627],[907,552],[2707,-369],[1055,219],[234,910],[1142,352],[853,-990],[-1125,-551],[618,-715],[1941,307],[1697,813],[786,704],[1137,-228],[441,-1236],[813,-348],[1963,2678],[52,1231],[-405,1337],[1067,628],[-290,568],[-1155,487],[-473,1589],[1516,172],[-244,1019],[825,1081],[1603,-153],[1351,803],[477,2575],[2082,973],[-37,740],[975,597],[239,1232],[1617,218],[1285,523],[968,-358],[1267,-2626],[1094,-288],[126,777],[1786,16],[-282,1626],[480,502],[1576,608],[1164,-789],[944,-233],[1528,407],[1706,1325],[2171,-917],[1421,-956],[1936,-595],[919,277],[4569,-1778],[1546,-1011],[1482,545],[2167,1915],[575,785],[1499,923],[3294,1189],[2185,282],[1788,686],[2892,-2158],[1488,123],[3481,-1094],[3520,202],[412,-224],[3291,-250],[1785,102],[2917,637],[3220,2529],[2936,66],[-324,1649],[52,1432],[366,1912],[-167,1100],[629,1769],[791,1504],[1200,160],[716,-518],[1564,-86],[3154,-1081],[1742,365],[3890,-678],[2598,-1223],[148,-1319],[1221,-1435],[1053,-2381],[602,-900],[-63,-1247],[5898,-299],[1667,430],[1599,80],[1902,-210],[3011,59],[2985,-583],[2445,455],[3192,-1158],[853,-586],[301,-1491],[1868,-767],[2757,-293],[767,-517],[1602,-455],[1534,649],[3970,-257],[1265,-904],[1834,-961],[2039,1227],[1430,2138],[592,1258],[2279,142],[600,293],[566,1055],[1124,704],[3041,1179],[2054,187],[1118,-223],[1263,1228],[109,1617],[-615,1141],[118,1139],[-1172,1704],[-1875,658],[-232,634],[-1565,730],[-358,701],[1147,494],[1680,271],[1997,1524],[2702,682],[3467,-1022],[671,-351],[1529,-124],[2460,-1037],[3594,-121],[1663,-1054],[466,-1315],[3258,-167],[897,317],[2857,1759],[553,-1132],[226,-2063],[1199,-1444],[2906,-892],[793,-553],[2197,-733],[3564,-768],[1601,-556],[2236,-312],[670,-287],[3660,-129],[2649,-349],[2509,139],[1422,297],[1783,-403],[-1214,-2403],[-1094,-635],[-546,-824],[360,-1493],[-383,-1384],[3316,-1415],[5854,-1526],[712,-633],[418,-1042],[1618,-430],[928,-1036],[463,-1088],[-7,-2039]],[[200254,582385],[-559,1236],[54,1066],[-1170,1083],[340,925],[844,415],[23,2499],[1497,2397],[1831,559],[1890,-19],[995,394],[1265,1560],[-178,924],[-712,518],[304,2952],[-2399,1108],[-1098,1458],[252,1580],[1163,1218],[-305,964],[-1235,830],[-1545,-350],[-998,521],[-100,937],[-1163,1258],[-1288,437],[-2190,-734],[-1661,167],[-229,447],[922,1039],[-895,533],[-3455,360],[-687,329],[-676,1411],[419,1279],[-295,741],[-2386,886],[-649,741],[-504,1664],[466,1505],[614,1685],[-2573,1418],[-341,804],[21,2170],[-559,3561],[-1180,405],[-1454,3060],[-13,1721],[-1457,1401],[178,460],[1735,924],[-323,1330],[-966,338],[-2306,-53],[-818,327],[-712,856],[-253,2427],[499,1071],[1513,1069],[-412,1009],[-1913,1325],[-734,866],[587,1169],[-112,1133],[475,1368],[1286,1382],[1048,9],[784,-639],[963,-77],[3258,273],[1465,437],[2625,-112],[347,464],[-878,2316],[176,1126],[603,370],[2740,507],[1414,-840],[1438,-151],[902,971],[-750,1386],[51,915],[1242,1496],[907,2873],[2134,1369],[432,1092],[-546,836],[505,814],[1327,441],[168,707],[-520,2091],[737,858],[-377,1193],[597,395],[1661,-1276],[1319,-21],[628,1093],[993,763],[1157,205],[2269,-36],[3174,709],[1487,705],[291,855],[1270,1060],[894,1399],[1176,-5],[771,-537],[1132,-1471],[1075,-755],[1417,-483],[1551,-126],[1709,321],[1994,1280],[1259,179],[3025,-225],[2228,42],[1369,-352],[2579,-1013],[1403,-274],[2031,-718],[1086,-764],[1881,338],[5439,-497],[1137,701],[-61,1196],[-921,1043],[1311,345],[184,1022],[1652,1007],[1187,1323],[-1328,387],[-290,775],[1442,1338],[1008,1689],[1748,558],[1445,1957],[1497,561],[3000,519],[1215,-102],[2570,920],[1237,1030],[-69,1396],[1796,404],[1831,1626],[1020,1144],[1718,-240],[509,232],[463,1867],[723,1479],[1014,839],[2666,-424],[2821,1826],[1151,-214],[1216,859],[18,825],[-1116,903],[-44,524],[1704,1575],[222,1187],[2530,1278],[1311,675],[-564,673],[-1031,177],[-1136,828],[92,493],[2041,2023],[1170,491],[1358,1021],[879,1093],[796,1825],[181,978],[1212,2577],[1374,2153],[-688,1750],[-17,714],[-160,2169],[-828,1675],[975,3519],[961,1273],[667,2164],[2266,2276],[340,1822],[720,715],[742,1368],[3966,3860],[1215,1967],[2462,1764],[291,403],[5174,2925],[2229,-224],[1783,336],[770,492],[2056,415],[1631,935],[1926,564],[1532,-240],[1077,467],[1822,216],[1651,-212],[3458,-1263],[861,-1146],[878,-212],[2482,-1316],[1159,-301],[4683,-345],[1156,451],[1453,-75],[1124,339],[4579,332],[1039,-236],[2725,967],[687,792],[2039,1247],[286,1438],[2417,1981],[158,568],[1658,1562],[3011,1584],[670,741],[1975,235],[1313,1783],[999,973],[1786,519],[955,1133],[1704,493],[1505,1706],[660,1292],[1976,1878],[1318,113],[2092,-342],[942,287],[4409,-487],[2103,124],[1247,790],[660,805],[1304,313],[1981,1406],[1122,1273],[1089,1627],[1514,3759],[1773,1415],[485,2243],[-1409,1387],[216,1611],[-196,1845],[138,957],[1953,1664],[-344,955],[1132,892],[138,845],[2626,1364],[3172,586],[822,420],[1365,24],[1425,436],[1142,796],[1482,1751],[1083,619],[1289,2223],[1773,1759],[-162,802],[470,757],[1064,237],[1893,2039],[1153,840],[1404,627],[1240,2273],[2617,2106],[1968,407],[1745,994],[703,31],[209,1096],[1625,884],[995,-102],[881,1052],[733,361],[1577,-108],[1004,222],[1218,-1220],[955,-168],[2269,304],[1166,-263],[2660,1046],[1033,817],[1556,583],[370,1140],[-63,1096],[-683,286],[-1570,1373],[710,1684],[692,773],[1285,641],[4389,952],[350,648],[2330,532],[2060,-175],[1325,736],[1797,1391],[1697,377],[1749,45],[1626,766],[622,677],[420,1559],[-917,1558],[-595,1499],[19,1081],[-1430,1513],[-254,1801],[-1260,2544],[341,559],[118,1823],[-163,1191],[-1731,1602],[-826,1249],[-1518,124],[-816,998],[-2175,1472],[-270,544],[-2343,2139],[-327,1938],[-2050,1149],[-252,468],[-3161,2404],[-2097,1121],[-720,695],[-1237,2897],[-2036,1408],[-442,1180],[-1302,849],[-792,35],[-1160,743],[-21,844],[-1276,1880],[-1652,1356],[153,799],[-1327,1704],[-1221,1192],[-1240,260],[-1515,-300],[-560,530],[-410,1372],[-1799,342],[-2836,1512],[-268,471],[-1321,584],[-1130,1144],[-1545,710],[-1117,1630],[-1213,798],[-1335,1351],[-623,1099],[-842,716],[-540,1740],[-681,843],[-1142,2220],[-1071,1070],[-2326,1633],[261,704],[-2240,1753],[-1432,1794],[-2349,1787],[-2377,131],[-527,491],[46,1738],[-517,358],[-595,2312],[731,2812],[-969,1326],[346,555],[-555,1716],[-1252,1751],[-2214,1228],[-2855,-190],[-899,-414],[-1816,-230],[-3174,747],[-2050,1715],[-141,1405],[427,843],[-1740,1167],[-1211,301],[-1496,943],[-1684,449],[-1668,1163],[-1225,254],[-1188,1547],[-1099,618],[-2761,515],[-982,-38],[-1219,564],[-736,819],[-1548,19],[-660,385],[-4435,-177],[-1717,-426],[-1341,212],[-2880,772],[-1750,1853],[-3208,271],[-599,666],[-2288,615],[-1601,1204],[-347,1246],[-599,882],[-934,649],[-1109,215],[169,1036],[-1430,775],[1148,855],[-500,1088],[184,1013],[-990,1776],[-358,2090],[-1221,4360],[-1101,1548],[-2522,1002],[-1350,1593],[-2002,815],[-711,30],[-2082,1068],[-333,1156],[-993,835],[-334,1712],[-1011,214],[260,2097],[-1050,1216],[-2625,1612],[-805,1407],[-212,1266],[497,805],[729,13],[446,872],[-1094,423],[-1238,1066],[-1212,1844],[-373,1647],[232,974],[-219,1266],[-606,979],[-2155,1342],[-1122,961],[-2123,2761],[-2482,510],[-1595,1024],[-1238,278],[-2706,-231],[-4203,-1504],[-4359,-67],[-5361,-1521],[-2800,-1709],[-1622,-732],[-2759,-2803],[-2306,-1704],[-4317,-2227],[-1064,-1260],[-1553,-1228],[-3068,-1402],[-841,32],[-1554,1095],[-1930,1992],[-2463,904],[-1095,772],[1234,1319],[599,1003],[166,2089],[-421,854],[1613,1226],[2971,1161],[1429,2184],[1109,1278],[2990,98],[1958,329],[2239,1005],[124,494],[1340,168],[2099,675],[163,764],[3029,1915],[-60,2079],[1273,1708],[634,-1524],[3845,129],[1406,-130],[493,656],[1908,1064],[1405,282],[3981,-144],[1705,87],[1702,-209],[715,2106],[370,340],[4170,15],[639,-1796],[1007,-1953],[1229,-1224],[1368,-838],[1058,20],[2110,856],[2380,732],[840,-1186],[1700,-1489],[1395,-353],[3426,-2477],[2661,135],[2309,-913],[880,-1032],[858,-370],[3030,-560],[1165,-707],[1691,-195],[871,-1210],[3023,-1270],[1157,-934],[324,-803],[1956,-1107],[2793,-771],[1188,-994],[-479,-1655],[943,-1211],[2501,-197],[1342,-392],[860,-885],[436,-1872],[4637,-919],[2147,-5],[553,304],[1112,1928],[1985,108],[1046,-278],[2045,-1324],[1449,-374],[1671,-828],[507,-959],[2814,-1630],[1509,-1330],[2138,-1177],[2619,-151],[1056,-1441],[1779,-1095],[1093,-1367],[2569,-1954],[2249,-580],[881,-1764],[196,-1842],[998,-281],[3367,-1589],[2095,-2093],[1728,315],[380,-918],[1035,-1220],[1500,-682],[1059,-192],[1923,-1653],[1397,-2631],[908,-706],[2706,-235],[1280,-367],[-654,-818],[-647,-2575],[964,-1839],[2755,-2139],[2628,-848],[2593,-1488],[1511,-512],[-956,-2742],[727,-1452],[3242,-342],[6241,-66],[837,-454],[358,-1609],[1493,-1279],[1367,-752],[1698,43],[3096,-763],[4137,831],[2408,898],[1598,-187],[4215,-949],[2052,-302],[1699,-10],[2850,-2701],[2542,-1047],[844,-1245],[380,-1492],[2817,117],[1099,-372],[1501,30],[1070,-501],[1518,232],[2118,699],[3195,-223],[3108,-655],[384,-495],[1774,-624],[901,-1015],[1951,-1689],[1256,-1379],[1174,-670],[1648,-373],[1038,-539],[2838,-872],[2937,-2527],[152,-1291],[-1050,-699],[-1351,-308],[-427,-1029],[461,-1516],[1693,-937],[2215,-1524],[1182,-505],[251,643],[2274,1517],[2502,479],[1433,607],[3005,625],[4313,-421],[2025,157],[2389,-331],[5080,405],[729,-1359],[1396,-533],[2817,-340],[1031,386],[603,708],[830,193],[2213,-496],[1169,-708],[3546,-588],[2150,-854],[1785,-1213],[239,-1323],[-453,-1433],[6914,-1452],[848,-1209],[608,-224],[3786,-369],[1509,-395],[-30,-1167],[-1631,-1861],[169,-1371],[685,-865],[-968,-2645],[-1442,-1824],[-285,-1137],[1881,-331],[434,-911],[-585,-1933],[1024,-539],[1574,-172],[1649,-1156],[2127,-409],[1484,-1766],[971,-189],[454,-640],[185,-1543],[-1183,-1029],[-2737,-983],[-2138,-342],[-409,-732],[571,-748],[-836,-950],[1326,-324],[1807,-904],[1905,-364],[55,-1602],[419,-744],[228,-1616],[-476,-1152],[825,-1406],[730,-248],[3163,-9],[1363,-1985],[770,-313],[901,-970],[139,-1149],[1196,-863],[1583,-353],[502,-844],[268,-2048],[664,-1412],[1196,-688],[2203,-207],[548,-348],[3358,-545],[767,-557],[321,-957],[2518,-1888],[-544,-628],[207,-1420],[-436,-1204],[19,-1431],[576,-1242],[-644,-787],[-181,-1077],[-1544,-2308],[-202,-1319],[535,-581],[1483,-687],[1498,-2239],[-104,-5137],[-503,-508],[-1262,-2304],[1591,-610],[2656,-110],[3091,813],[2431,-340],[2088,-1388],[240,-1037],[1282,-1815],[1753,-1157],[587,-1271],[-222,-977],[-1073,-1780],[-477,-1445],[-2552,-1062],[-174,-1300],[-1150,-3824],[-1827,-1368],[-724,-1063],[-125,-825],[-1865,-1719]],[[590031,798497],[-1601,24],[-2161,-846],[-1627,-1658],[-1060,-339],[-558,-895],[-2073,-516],[-2110,15],[-1550,-934],[-2118,-2464],[-203,-674],[-1273,-1206],[-759,-210],[-2793,-2457],[-997,-1197],[-473,-1133],[-1057,-465],[-2550,-598],[-1496,-1571],[-1590,-429],[-955,-1019],[-1167,-252],[336,-1161],[-218,-2047],[-1838,-2144],[-1310,-2451],[-2816,-3080],[-1115,-2384],[-2626,-2007],[-1809,-295],[-1830,-970],[281,-915],[785,-815],[2017,-1382],[-195,-1036],[-1361,-2081],[-28,-794],[1025,-2463],[1256,-1132],[-1655,-924],[-1032,-1218],[-915,-2184],[-738,-1031],[-1928,-934],[-878,-1743],[-1966,-976],[-1923,-1811],[153,-1791],[-1079,-2217],[1053,-1386],[279,-804],[1710,-541],[1965,-1197],[1265,-433],[691,-1009],[1323,-1138],[3083,-1189],[3033,-1768],[1052,-840],[1058,-1334],[-207,-802],[654,-3137],[4114,-4985],[1860,-1623],[-1161,-1525],[-503,-1467],[-258,-2079],[209,-829],[-626,-2323],[1063,-1689],[1106,-504],[-814,-1596],[-311,-1363],[-26,-2494],[-190,-1098],[458,-1707],[629,-1069],[914,-545],[1682,-361],[2746,-1912],[1340,-373],[1388,-831],[729,-1203],[2655,-633],[1970,-704],[2316,161],[1294,500],[582,-1897],[-437,-1238],[518,-2134],[-971,-1264],[561,-2057],[-602,-1364],[58,-2169],[-664,-1525],[-200,-1969],[-3115,-1025],[371,-3371],[616,-1213],[-242,-4207],[-1961,-1659],[1346,-1708],[-1330,-3012],[-946,-628],[-1069,-1556],[-800,-518],[-1489,-153],[-2741,-1146],[-2052,-301],[-1762,-491],[-1769,173],[-436,-1440],[-1391,-1099],[-1260,-1844],[-862,-594],[-1073,434],[-2756,180],[-2543,2167],[-1153,-1226],[-1484,276],[-3260,-92],[-1245,-720],[-1379,-1503],[-1205,-346],[-2758,979],[-842,-338],[-4956,-379],[-1058,-1032],[-1294,-2424],[-668,-322],[-1232,-1658],[-2526,-1886],[-731,-967],[126,-967],[-1692,124],[-4781,1225],[-1734,322],[-1608,552],[-2214,2009],[-1420,107],[-1504,752],[-1755,1456],[-3487,-31],[-1004,-332],[-2440,-1266],[-1419,-1136],[-2529,-552],[-4447,-1910],[-3090,261],[-3895,-246],[-2016,-979],[-2260,-889],[-1579,-227],[-1311,-1886],[-1785,-439],[-632,-772],[-4754,-261],[-1116,-615],[-939,63],[-4219,-2309],[-3545,-506],[-736,-1369],[-504,-1643],[-1033,-1041],[-1372,-929],[-3689,-94],[-3633,-1150],[-1269,-1002],[-1639,-1881],[-995,-71],[-1319,855],[-2609,374],[-762,692],[-1230,-392],[-695,-1218],[-1931,-766],[-1851,605],[-2614,-328],[-1968,-1204],[-688,-131],[-2706,742],[-1440,632],[-1976,82],[-2594,561]],[[421484,622463],[-1244,127],[-2314,1862],[-1083,1586],[-1146,142],[-1306,1612],[-1652,1159],[-1279,143],[-1868,-339],[-1978,517],[-3456,-367],[-1845,668],[-333,493],[-1861,85],[-2136,1718],[-1496,-114],[-3267,-1344],[-2240,-205],[-2830,357],[-1284,321],[-2826,-959],[-1196,63],[-2977,-379],[-1707,8],[-2515,-369],[-2663,-1172],[-1407,-351],[-798,184],[-1734,1092],[-226,653],[-1634,725],[-3041,639],[-1158,-20],[-2601,-409],[-1978,-582],[-1115,-1676],[-597,-397],[-1872,-2404],[-1685,-1154],[-1180,-2431],[-2076,23],[-1798,-776],[-1280,-3],[-3102,-1604],[-1978,-66],[-2834,-499],[-2118,321],[-638,404],[-578,1132],[-1285,359],[-601,707],[-1974,1177],[-3477,429],[-2921,-1236],[-2127,-571],[-2621,602],[-4423,-50],[-1701,-608],[-1195,-30],[-1129,649],[-482,1057],[-1382,757],[-2164,-542],[-2421,107],[-1665,-175],[-2535,-1051],[-1691,-148],[-3168,55],[-1238,-694],[-1378,215],[-614,-1123],[-997,-789],[-416,-1871],[-5427,-3065],[-554,-1010],[-857,-98],[-1324,471],[-893,-172],[-1298,-1520],[-1496,-19],[-1359,-786],[-1819,-25],[-1631,-1242],[-1460,60],[-2732,-1449],[-2803,-1982],[-3045,-1398],[-1867,-48],[-810,-380],[-1709,-1111],[-1589,-562],[-937,-1076],[-2366,-1184],[-416,-624],[-239,-2215],[-76,-350],[-2095,-1860],[-1587,-986],[-692,-1533],[-36,-1681],[-1283,-659],[-3284,-257],[-1397,49],[-4243,-278],[-1892,-756],[-2344,93],[-2890,-640],[-1300,851],[-700,111],[-1925,926],[-987,886],[-1386,-555],[-3556,128],[-2797,-3465],[-1689,-753],[-1389,391],[-806,1096],[-739,287],[-2211,-804],[-2149,-160],[-434,-658],[76,-1324],[-530,-833],[-944,-148],[-2897,1120],[-1543,-72],[-672,-662],[442,-2895],[-1917,-648],[-2140,-11],[-1052,-233]],[[287252,324099],[496,2338],[-1255,600],[-469,886],[-1801,605],[-2520,528],[-2192,902],[-1974,569],[-1843,896],[-2227,1349],[-1877,1351],[-1295,317],[85,908],[-848,1314],[72,514],[-947,1341],[-507,1549],[-749,550],[179,1670],[1303,-206],[2062,566],[3814,438],[3122,1758],[2017,402],[957,771],[4146,1519],[1150,-233],[2255,1190],[1598,-156],[564,344],[1052,1873],[590,1577],[1355,1828],[-691,1245],[-1032,787],[-1464,121],[-1038,384],[912,1289],[-501,1492],[252,1127],[866,610],[1541,17],[2728,532],[532,741],[3453,-117],[3879,37],[1712,594],[458,1585],[798,1042],[-1534,1444],[400,990],[151,1872],[1330,789],[677,1310],[1786,1457],[947,132],[1886,-290],[947,112],[1779,1827],[1199,367],[3091,2239],[2087,739],[2172,-1665],[3352,-596],[2842,657],[2494,73],[2300,486],[1758,-369],[3255,1159],[2128,343],[4040,932],[3125,104],[1568,-251],[852,816],[814,247],[683,1847],[1125,820],[2593,567],[2706,-480],[1269,-43],[791,-481],[2327,-842],[1454,-14],[1014,369],[1109,2744],[681,163],[698,-804],[1357,-153],[444,2481],[384,777],[274,2211],[-148,670],[299,2792],[-696,1337],[-2074,1287],[609,1359],[741,899],[2015,1805],[-548,1476],[-15,1482],[2069,1392],[2999,746],[2080,186],[1099,-440],[1299,371],[3210,2069],[1080,102],[1692,1412],[855,200],[1978,1452],[-1527,-114],[-329,374],[1577,878],[1390,76],[203,817],[1773,502],[1440,1239],[785,-118],[518,1275],[1747,2220],[855,748],[609,1659],[1209,741],[-643,865],[-1087,398],[-1821,1370],[-1030,333],[-2889,146],[-181,1384],[1368,1956],[-120,1431],[-1153,1505],[-1872,12],[-934,1429],[-1440,-403],[-2061,965],[31,1058],[1108,745],[570,883],[-626,623],[1626,387],[165,1187],[2240,-281],[549,322],[2075,-120],[1282,476],[2263,2418],[2264,401],[974,-236],[1754,-1005],[2185,-992],[455,-1029],[1454,363],[2174,-653],[316,2345],[-513,600],[-43,1850],[981,1142],[1516,335],[51,636],[-2674,1177],[-47,1026],[-1142,1257],[-1602,607],[-1218,196],[-1154,714],[-1183,1184],[-602,1932],[1543,943],[469,595],[-813,2415],[-2126,1848],[-189,774],[670,1441],[1066,-225],[688,317],[524,1502],[-762,2903],[514,1873],[1079,408],[934,-755],[-129,-1110],[686,-737],[1055,-355],[1502,525],[108,1562],[1339,599],[628,1042],[2141,-181],[2661,688],[1568,163]],[[415641,467597],[3100,-567],[2548,284],[3239,-449],[2958,686],[999,82],[1890,-686],[1768,-111],[1413,639],[1392,1438],[682,333],[2969,527],[2230,2027],[1929,2278],[1469,634],[984,-381],[558,-727],[1531,-1001],[2466,-666],[1795,183],[1184,413],[1395,948],[3019,4301],[393,973],[257,2294],[331,1012],[-238,920],[-1392,1420],[-2039,1221],[-990,985],[253,986],[2674,466],[2519,992],[161,1608],[940,-114],[2522,-1222],[3136,38],[1822,892],[1191,1608],[1021,829],[1395,660],[1896,1422],[1820,255],[1345,548],[755,726],[2236,2918],[1328,280],[815,726],[264,958],[628,434],[2938,700],[497,1379]],[[485637,503696],[31,1255],[1333,401],[631,396],[590,-574],[-169,-1642],[1733,-3129],[254,-1318],[799,-691],[3622,-1341],[1648,-1046],[127,-1234],[691,-889],[1254,-362],[1137,-1357],[-24,-1196],[-644,-943],[464,-1425],[885,-962],[633,-2036],[715,-1434],[2055,-1461],[1164,522],[3178,743],[1545,-250],[2510,684],[1260,-512],[1944,-75],[991,-388],[5741,538],[1642,753],[1719,338],[1440,662],[2467,81],[1561,432],[1950,1373],[2638,708],[900,695],[2222,932],[1619,1575],[3017,1775],[3194,747],[1246,-175],[3436,398],[973,-195],[448,-842],[579,-1266],[2411,-1767],[2808,-891],[2574,-103],[2895,114],[1617,886],[2343,-1323],[1205,-846],[2098,-710],[1070,-65],[1366,-817],[1480,-44],[2462,921],[2674,11],[2101,-540],[1200,570],[1438,1262],[1397,-1117],[1249,-338],[2224,55],[3352,301],[1310,-274],[1778,-839],[2768,-566],[897,-1762],[478,-382],[1982,-305],[2685,-842],[1567,-850],[1846,389],[1232,895],[138,1724],[2192,1298],[1688,-168],[2240,-1094],[1624,-1171],[-66,-1280],[588,-1267],[2661,-1638],[1391,1566],[2298,-100],[3015,918],[2239,-202],[966,-632],[1365,286],[1308,1518],[575,1208],[1616,2575],[477,2816],[2094,-232],[2545,-1014],[1251,-250],[1767,-783],[1128,-952],[-258,-1660],[-835,-871],[1522,-862]],[[644822,482717],[-1655,-834],[-707,-33],[-2787,-1504],[-1116,-52],[-541,-784],[-2112,-966],[-674,-1210]],[[635230,477334],[-1528,-631],[-1679,74],[-921,-221],[-1534,235],[-2735,-1107],[-1172,-788],[679,-924],[100,-992],[-924,-1291],[465,-428],[258,-1239],[-649,-1073],[254,-384],[-412,-1870],[773,-986],[-2044,-581],[-1385,-805],[-168,-986],[-1263,-2008],[-535,-502],[-553,-1421],[-443,-2026],[-420,-639],[-509,-1815],[64,-1378],[-524,-1007],[-311,-2439],[-975,-1397],[-526,-1531],[-676,-844],[162,-1413],[-384,-683],[120,-1240],[-657,-2863],[433,-2145],[-4021,-1647],[-2621,-200],[-1926,-806],[-931,-1322],[35,-1328],[-558,-937],[-1312,-1103],[-951,-1267],[-1495,-1462],[400,-1539],[-209,-550],[-3054,-3088],[-1408,-1680],[-2272,-3900],[-246,-1126],[250,-1584],[-1149,-956],[38,-770],[-531,-1840],[363,-608],[1917,-522],[1109,-570],[1746,-327],[1866,-615],[1221,-1285],[715,-336],[1103,-1577],[157,-991],[-866,-1943],[41,-1210],[-2140,-2351],[-1583,-1252],[-1625,-847],[-1173,-1311],[-1484,-490],[-5183,37],[-1002,-1450],[-1360,-1382],[-1092,-100],[-1286,-568],[-1529,-126],[-2796,-844],[-46,-634],[-1395,-1176],[-4808,-1704],[-1362,488],[-2640,-312],[-2447,173],[-2905,-670],[-751,576],[-748,-179],[-1336,589],[-2958,-100],[-1046,-203],[-2449,-1176],[-566,-567],[-1315,57],[-601,-336],[809,-861],[-927,-654],[121,-1279],[2008,-1384],[1478,63],[721,1042],[751,444],[1264,-202],[1404,-902],[625,-758],[1652,-103],[908,-981],[-942,-774],[-13,-2022],[-447,-953],[698,-813],[1077,-366],[1217,-826],[557,-951],[-567,-1457],[-23,-882],[546,-922],[963,-429],[1181,212],[2452,-365],[618,-1209],[216,-2536],[-2034,-951],[270,-1205],[775,-501],[1241,-18],[1406,-690],[2080,-435],[639,-609],[434,-1105],[-136,-1063],[-1186,-1617],[228,-626],[991,-245],[2036,6],[934,-850],[-533,-1006],[1063,-1457],[1044,-906],[2375,-860],[1310,-1552],[2291,-1291],[3970,-4250],[2431,-1014],[1112,-933],[560,-1004],[1298,-1198],[2175,-673],[1638,-569],[598,-699],[-262,-1246],[-78,-3526],[219,-695],[1157,-547],[1196,476],[1005,-52],[1267,-530],[5457,-528],[844,-791],[-319,-1400],[-1895,-1972],[-1188,158],[-991,-378],[-775,-737],[588,-922],[457,-2407],[841,-1178],[4722,-1525],[294,-414],[-230,-1781],[293,-1346],[2149,-1659],[556,-2260],[-77,-777],[1594,-1823],[1899,-657],[1267,-993],[252,-766],[-1,-2570],[-255,-2399],[-321,-1083],[111,-1138],[720,-2195],[800,-1189],[228,-1122],[954,-647],[651,-988],[-1250,-1346],[-555,-1076],[118,-1409],[-1094,-2251],[-1164,-1451],[-917,-425],[-1736,97],[-1233,-200],[-775,-664],[-394,-1029],[-1472,-2371],[-1430,-196],[-2754,-1089],[-2951,-1838],[-1222,-150],[-5044,1751],[-1303,172],[-571,-539],[355,-1653],[-1843,-1200],[-286,-556],[1043,-2031]],[[597404,274789],[-1566,-865],[-2564,237],[-4336,1670],[-4660,-72],[-2461,504],[-1981,611],[-2121,240],[-2859,-35],[-4224,1374],[-1695,1067],[-987,928],[-1732,439],[-629,-155],[-1015,-1744],[-2214,-1832],[-2782,-1377],[-4789,-1865],[-549,-403],[-311,-1081],[-1885,-2211],[-2074,-1577],[-1096,-324],[-1795,569],[-1384,1014],[-1612,655],[-1679,321],[-1881,-74],[-1849,-471],[-1395,-708],[-2141,-1824],[-1348,-1527],[-3126,-1951],[-1727,-507],[-967,-664],[-740,-1298]],[[244134,290461],[604,-854],[877,-515],[3314,-515],[1201,341],[2031,-807],[964,1],[1034,1068],[851,422],[2484,120],[1483,-102],[2556,652],[1641,699],[-252,2108],[1282,521],[729,765],[2285,1414],[2124,662],[1085,828],[2170,782],[366,1515],[-1374,1556],[137,974],[-444,961],[662,583],[-72,1988],[1187,1094],[3478,2281],[626,-290],[1946,1198],[-172,2807],[-922,1267],[-171,1097],[2485,808],[1063,837],[594,906],[1879,831],[1163,874],[1174,1738],[1050,3023]],[[287252,324099],[1993,-1681],[603,-1071],[594,-52],[1417,1025],[1735,30],[639,-383],[313,-1298],[2032,-18],[71,-985],[859,-585],[1400,31],[819,783],[716,-182],[1054,-1498],[965,-156],[-198,-770],[1144,-534],[797,204],[706,773],[779,-181],[535,-1189],[1045,-1037],[355,-830],[2384,-177],[1062,542],[1999,-284],[1290,869],[799,1003],[-96,1488],[1286,1245],[2042,587],[980,-375],[516,-831],[1776,-1585],[798,-328],[479,-1401],[1579,-1085],[673,-981],[2143,-1466],[1696,-3087],[3656,-2408],[1541,-1141],[1768,-560],[1390,-967],[2836,-745],[1274,-710],[1647,21],[1618,-478],[1276,-829],[1078,91],[1682,-299],[1015,-565],[766,284],[1016,967],[1778,-843],[-210,-943],[1019,-776],[2008,119],[887,-758],[1448,13],[3524,343],[583,-133],[1624,-1351],[2789,-391],[1640,-641],[4158,262],[3083,77],[1535,-594],[994,-893],[813,440],[298,895],[1646,475],[2239,-229],[4160,120],[1816,-159],[2471,-852],[2474,-1221],[1009,-967],[1462,-695],[4058,331],[1837,-865],[194,-810],[-1576,-1701],[384,-1764],[-442,-1522],[940,-665],[4412,-1400],[1589,-80],[1627,244],[1398,-287],[2538,69],[1330,-822],[1252,-1461],[3091,-448],[3628,-1242],[570,-718],[1861,-1441],[1900,-2433],[-791,-2329],[-735,-1019],[153,-513],[2043,-707],[963,-637],[250,-1094],[-1376,-3433],[-1048,-833],[247,-661],[2533,-550],[146,-2020],[2574,374],[517,-275],[612,-1205],[-452,-1559],[222,-688],[2541,-456],[2730,498],[1823,978],[306,1149],[1037,68],[488,562],[-309,1397],[2608,2990],[542,78],[1128,1079],[246,1111],[-1591,1899],[109,408],[2428,1511],[1013,1263],[327,1407],[1667,1736],[1109,1771],[1174,1267],[1787,1102],[1105,314],[1829,-255],[2046,-812],[692,-706],[1062,-2152],[878,-362],[3621,429],[3414,-612],[1503,-601],[1468,-1672],[526,-1741],[-37,-1054],[-533,-534],[-160,-2274],[-553,-1310],[-1211,-1656],[2,-609],[754,-1485],[518,-455],[2790,-106],[1788,-727],[992,-1594],[829,-506],[1830,133],[510,1059],[-1077,2110],[907,464],[487,-686],[223,-1650],[1398,-407],[590,211],[339,1482],[1620,177],[721,-628],[552,-1406],[909,-1264],[299,-1187],[1596,140],[830,602],[1061,1342],[976,1821],[1611,1146],[1550,580],[3264,389],[1415,-75],[3065,-630],[4802,-1883],[4117,-1162],[1856,188],[2151,766],[3226,1415],[1740,297],[3029,-879],[2546,-222],[1310,-152]],[[527230,261853],[1864,-1026],[1135,-958],[2348,-834],[3892,-1789],[2440,-526],[2710,-87],[1535,-608],[2522,-1637],[3439,-1156],[1288,-675],[953,-1150],[1528,-2633],[1901,-1054],[644,-619],[639,-2120],[1427,-2496],[3738,-4716],[2358,-855],[1590,-1417],[2325,-3411],[2548,-1309],[949,-278],[2085,165],[3114,1599],[2333,185],[1777,-1207],[-393,-1711],[-637,-1029],[-78,-1422],[515,-776],[1036,-537],[2612,5],[5656,-434],[629,-601],[1369,-2686],[2914,-2609],[2302,-2581],[1108,17],[1668,1323],[3260,836],[3485,451],[2261,42],[1779,269],[710,640],[457,2435],[-327,1951],[1193,1647],[3531,2873],[972,503],[2085,470],[1297,-13],[893,-364],[327,-717],[-100,-2874],[146,-1215],[2349,-4688],[1497,-1752],[1475,-610],[1615,-1135],[278,-745],[-2620,-4961],[-260,-1243],[586,-567],[1560,-580],[3899,2501],[1735,643],[1442,119],[3045,-192],[891,-711],[255,-880],[1126,-1721],[2109,-1466],[2979,-947],[4925,-881],[1534,-720],[1586,-1125],[1333,-327],[945,374],[1133,1395],[313,922],[-518,1398],[-882,925],[-1819,1013],[-3230,1313],[-633,502],[737,2539],[1074,1907],[544,1914],[-81,1137],[473,1398],[-768,2870],[54,1323],[845,1162],[1217,494],[1296,-157],[1832,-1415],[255,-1531],[-1314,-943],[-413,-1132],[339,-990],[1538,-1774],[1263,-1070],[1707,-958],[2852,-577],[3193,-1391],[794,-732],[377,-1036],[2325,-871],[1891,-1889],[-1683,-846],[-672,-812],[-117,-3757],[911,-1267],[2595,-891],[3025,-632],[809,-977],[-1358,-2982],[-465,-545],[-5633,-1642],[-1777,-1251],[-116,-909],[1062,-1894],[1893,-1860],[1091,-727],[2153,-767],[2146,-243],[2964,-843],[893,-673],[1005,-1927],[982,-2909],[-142,-923],[-736,-1532],[-961,-821],[-286,-992],[2301,-3294],[2278,-808],[445,-425],[2142,-1010],[881,-2063],[-657,-2220],[-756,-1395],[-1284,-1665],[-149,-2367],[833,-334],[1818,-181],[3816,62],[1745,-192],[1022,-609],[527,-1377],[37,-3258],[-1660,-2910],[-1903,-2609],[-297,-988],[724,-659],[2216,-372],[1496,-1179],[2329,-704],[1147,-850],[783,-1542],[-33,-1327],[703,-2015],[860,-1736],[495,-3259],[39,-1225],[57,-1557],[571,-1950],[570,-1200],[337,-4632],[-189,-2273],[-788,-1771],[-2651,-3115],[-2600,-1628],[-2672,-1965],[-998,-929],[-61,-1879],[-444,-1139],[-130,-1686],[-458,-954],[-2148,-1212],[-1207,-306],[-1336,-739],[-1995,-2323],[-1993,-3060],[-2038,-2850],[-977,-1013],[-2260,-1607],[-2258,-2343],[-4974,-4210],[-1501,-788],[-2052,-1661],[-3701,-2378],[-4562,-2142],[-3689,-1920],[-3783,-2597],[-3001,-2330],[-1968,-1313],[-2734,-2251],[-4781,-4447],[-4965,-3993],[304,-784],[-417,-827],[-1938,-1896],[-616,-1253],[-501,-3608],[-992,-2148],[-1601,-178],[-1186,416],[-1443,-34],[-858,-340],[-2265,-1417],[473,-599],[-937,-747],[-2310,-717],[-2146,-1188],[-2095,-1748],[-1361,-1486],[-1543,-1218],[-4066,-2477],[-1008,-829],[-2621,-839],[-945,-496],[-1641,-1676],[-159,-1149],[-684,-1924],[-1533,-835],[-5080,-750],[-1952,196],[-1663,-457],[-1118,-913],[-889,-1692],[140,-1658],[-842,-1823],[-105,-872],[-1032,-2880],[-499,-518],[-4981,-2362],[-3695,-2543],[-2405,-2223],[-601,-807],[-955,-2195],[-863,-975],[-1242,-2761],[399,-771],[2661,-1770],[1463,-1738],[266,-1408],[-111,-1055],[-5804,3516],[-6418,3969],[-6353,1617],[-1431,-7030],[-6463,5574],[-2440,2612],[9729,5849],[-2393,5114],[-5929,-3306],[-3025,2621],[-461,812],[2487,6167],[-799,94],[-9347,1045],[-829,-709],[-5187,-5236],[-6475,407],[710,-3918],[-7934,1652],[1642,2453],[-1851,888],[7815,4559],[751,507],[-7309,834],[-1696,-3562],[-7050,-988],[-15,3823],[-4002,-361],[-7084,1907],[7387,3576],[-1544,1113],[-5809,-2591],[-1028,-2616],[-7428,1023],[1130,1929],[-2971,1813],[730,-4753],[-2814,1656],[-2862,2262],[-1519,5539],[-896,4114],[3063,1823],[1010,3818],[-803,273],[-4259,1132],[-2086,2480],[-5898,739],[-5686,1238],[-8158,-2701],[2276,-7015],[-5865,3630],[-6177,-818],[-539,2073],[-4104,2710],[-3638,3075],[-8301,4290],[-8979,222],[-6150,1561],[-2546,2365],[2696,6328],[2,537],[-3742,1557],[-7538,1404],[-855,7623],[-10451,2520],[-838,287],[-5646,1361],[114,-4018],[-7888,4207],[-493,-24],[-5323,-3210],[-6122,5236],[-7797,3997],[3086,7749],[-36,128],[-10413,431],[1239,7754],[-2990,2036],[-2039,1755],[-1800,6518],[-9360,-3837],[-5556,4501],[-4709,-2864],[-12402,954],[-3042,6286],[-1067,-312],[-8381,-1915],[4500,3956],[-9948,2561],[5843,8874],[-12420,3935],[-8269,1361]],[[283299,142546],[-2354,404],[-5854,-451],[-5196,-2477],[-8071,-3958],[-5988,-3016],[-1501,-2780],[755,-3408],[3182,-13664],[505,-1685],[17,-1192],[1994,-3765],[1626,-7791],[249,-919],[1279,-6753],[791,-3384],[2223,-1682],[2496,748],[327,-1517],[-3063,-6075],[-1379,-2990],[-1640,707],[-404,-745],[-1045,-332],[-1105,2380],[-2658,2545],[-1931,2343],[-1359,891],[-2994,337],[-2414,2430],[-2225,1480],[-1676,903],[-2863,1137],[-1298,1458],[-1347,187],[-1916,-1121],[-2367,-250],[-1593,95],[-203,551],[1442,292],[85,1527],[348,1188],[-1647,2146],[-1531,2918],[-2086,5676],[-1277,592],[219,397],[1685,817],[-658,429],[-1105,2129],[-2453,947],[-1358,1579],[-1288,843],[-1326,212],[-2824,-364],[-1309,251],[-1222,1029],[-258,934],[-820,1018],[-3226,1079],[-3447,180],[-1358,-260],[-2123,329],[-1061,594],[-2121,67],[-5772,-2070],[-10048,-2037],[-1037,-432],[-1018,444],[-2395,-446],[-1647,-672],[-1481,817],[-879,-487],[-832,506],[84,1103],[-1908,1386],[-3116,-114],[-1645,948],[-1114,1616],[161,1002],[1798,1213],[-1214,637],[-1357,142],[-1022,577],[-614,1225],[-3453,1942],[-5743,3059],[-6492,2720],[26,1671],[-531,1288],[-2161,4222],[626,1242],[189,1247],[-431,2391],[-695,1686],[-783,1168],[-1166,1195],[-846,463],[-4251,1762],[-1643,486],[-3758,456],[-1162,1593],[-1845,765],[-1839,101],[-3766,-524],[-3323,-327],[-1614,658],[-4751,4686],[-1424,739],[-1389,1216],[-3298,2139],[2062,863],[1417,1030],[1285,2178],[307,2737],[-812,1685],[-981,935],[-1371,1294],[-2040,1365],[-3068,1592],[-994,-79],[-1710,-773],[-2514,53],[-2444,439],[-1377,1035],[-1330,-22],[-4221,-931],[-2254,-170],[-2899,-722],[-7019,3629],[-18541,9224],[-886,638],[-6245,5078],[-11653,9563],[-4599,2788],[-7032,4401],[-6248,-500],[-3298,-263],[-3048,-372],[-9426,-823],[-2631,-177],[-5851,6250],[-1188,12368],[-626,7689],[-297,2702],[-1025,11331],[-444,3942],[2708,3588],[7336,9543],[11436,15197],[2391,5372],[4483,-1001],[5629,-1299],[5069,11714],[5019,603],[393,1108],[-6691,1673],[3877,8338],[-2807,635],[3697,8516],[2040,4558],[-4563,1045],[900,1863],[5203,11656],[1926,4459],[1045,2201],[453,404],[2751,1085],[1237,1048],[3635,2186],[3094,1995],[1128,1505],[370,2156],[707,566],[1868,579],[1542,-149],[1459,322],[1031,585],[2356,3762],[1227,444]],[[71949,357372],[503,-828],[623,-1989],[243,-1506],[-304,-2709],[660,-2254],[-234,-1259],[750,-1513],[-1704,-1989],[234,-849],[-525,-1954],[211,-1144],[-130,-1746],[843,-2209],[-391,-1738],[404,-644],[2860,-396],[1160,-1608],[1583,-544],[847,-1372],[1244,-305],[703,-689],[946,-160],[977,-807],[-247,-1222],[1408,-517],[2583,-1658],[-104,-2940],[325,-267],[5,-1552],[2256,-152],[1306,-510],[2424,339],[962,-649],[147,-859],[-1047,-562],[195,-738],[3019,-2632],[1970,41],[1974,798],[3165,751],[948,523],[1920,78],[2547,979],[926,187],[3149,118],[2627,-816],[1395,528],[1370,-246],[1362,-993],[1587,-700],[548,-1076],[1484,660],[1651,1249],[1515,-5],[1111,-382],[433,1791],[1376,723],[2413,160],[2174,1142],[2630,209],[1756,508],[613,-333],[1863,-177],[1308,317],[1388,-824],[1541,885],[1400,-1689],[1790,-193],[2191,-609],[1446,-817],[2295,977],[3871,-555],[921,624],[1719,551],[1310,-214],[701,-164],[2472,90],[2044,-907],[1568,-1379],[-306,-1631],[752,-665],[2437,1512],[3318,-340],[4137,-1167],[741,134],[2084,-645],[775,66],[2471,1798],[2021,37],[1386,-678],[935,-1187],[622,-1284],[2074,-825],[1543,-1013],[1717,-380],[2211,39],[2353,-1423],[535,-599],[2887,227],[156,-1172],[1396,-1208],[1360,-590],[1728,237],[1742,-224],[3923,1109],[3311,1682],[884,-293],[685,770],[1041,504],[2209,195],[1233,-297],[1790,572],[1452,-75],[1284,966],[1071,163],[613,-345],[328,-1129],[-89,-1391],[1759,-795],[2384,-16],[735,-1523],[-521,-1557],[688,-1085],[-456,-1171],[1118,-164],[2193,416],[1277,-192],[740,-586],[-313,-1183],[-1095,-1289],[-398,-1300],[917,-1084],[-918,-1283],[-1170,-395],[-189,-992],[341,-960],[-867,-1551],[1816,-1001],[1285,-359],[1435,-36],[1055,1387],[2352,679]],[[244134,290461],[-831,-799],[-250,-1075],[2120,-2444],[1161,-1689],[196,-1324],[-597,-1314],[-262,-1322],[-1451,-1644],[-286,-956],[-980,-946],[-175,-1065],[-633,-1323],[-314,-2646],[-1065,-1691],[-1522,-1371],[-2586,-2787],[-519,-1729],[-2028,-2540],[1411,65],[2288,451],[990,-856],[1436,-46],[1583,-487],[966,-2300],[718,-423],[1744,-2080],[125,-1103],[1583,616],[2004,-1288],[841,-111],[3581,588],[2121,553],[1436,-1019],[1348,-661],[228,-1222],[-467,-542],[-2303,-1428],[-1451,-1234],[-334,-2734],[739,-2632],[1572,-1010],[511,-1206],[-474,-1694],[-848,-886],[-1041,-1797],[-30,-1768],[276,-1104],[761,-1119],[-358,-891],[-1103,-1284],[-327,-1045],[-799,-1069],[766,-1014],[-212,-1326],[363,-643],[-600,-647],[-999,-123],[-745,-1116],[341,-1002],[-1049,-403],[-458,-871],[418,-762],[1268,-486],[574,-927],[-29,-1067],[448,-486],[1161,-207],[-469,-1539],[690,-1617],[1455,172],[1117,-980],[-1366,-448],[18,-763],[1226,-576],[-350,-1096],[1079,-760],[1507,-186],[931,738],[770,1080],[940,-300],[1056,-1082],[209,-1470],[-709,-895],[-701,-233],[-977,-1273],[66,-552],[1099,-244],[911,-1367],[-453,-434],[-1530,77],[-1477,-659],[-499,-1169],[1465,-1283],[2192,-902],[1432,171],[2059,-1520],[746,-815],[2481,-1813],[1268,-1512],[-153,-1224],[2622,-736],[1379,484],[512,-899],[-384,-479],[88,-1418],[1440,-1188],[2017,-724],[464,-1174],[859,-1016],[1376,-1040],[537,-843],[-27,-1765],[-920,-998],[-2071,-489],[-1555,-108],[-2151,311],[-1318,-494],[-227,-1104],[660,-915],[981,-564],[929,-888],[302,-955],[138,-2389],[2233,-2138],[1520,-570],[1677,36],[2666,2046],[916,-831],[-674,-786],[-1836,-1048],[-505,-1769],[-853,-858],[-1849,-1018],[-1809,-644],[-2172,-107],[-952,-784],[885,-1156],[2672,-960],[2541,122],[1389,-613],[1208,-2049],[1270,-1662],[2147,-1189],[-432,-448],[-3103,-342],[-1340,-646],[-726,-949],[449,-2281],[-487,-669],[-1722,-248],[-2163,1759],[-1650,682],[-646,-265],[-321,-1300],[457,-1291],[1759,-1517],[19,-690],[-814,-1465],[1853,-936],[-597,-1249],[28,-1085],[1008,-269],[2302,-194],[924,-381],[2257,-1777]]]}